{"version": 0.6, "generator": "Overpass API 0.7.62.1 084b4234", "osm3s": {"timestamp_osm_base": "2024-11-11T16:09:25Z", "copyright": "The data included in this document is from www.openstreetmap.org. The data is made available under ODbL."}, "elements": [{"type": "node", "id": 634062548, "lat": 46.4295759, "lon": 30.7146017, "tags": {"amenity": "restaurant", "name": "Lapsha", "name:en": "Lapsha", "name:ru": "Lapsha", "name:uk": "Lapsha"}}, {"type": "node", "id": 642992034, "lat": 46.4383303, "lon": 30.7445587, "tags": {"amenity": "restaurant", "name": "\u041c\u0438\u043b\u0430\u043d", "name:ru": "\u041c\u0438\u043b\u0430\u043d", "name:uk": "\u041c\u0456\u043b\u0430\u043d"}}, {"type": "node", "id": 1673347897, "lat": 46.4406147, "lon": 30.7575632}, {"type": "node", "id": 1673347912, "lat": 46.440725, "lon": 30.75745}, {"type": "node", "id": 1673347916, "lat": 46.4406584, "lon": 30.757653}, {"type": "node", "id": 1673347917, "lat": 46.4407688, "lon": 30.7575398}, {"type": "node", "id": 1719131620, "lat": 46.3988281, "lon": 30.7208615}, {"type": "node", "id": 1719131641, "lat": 46.3988044, "lon": 30.7206362}, {"type": "node", "id": 1719131657, "lat": 46.3990644, "lon": 30.7205787}, {"type": "node", "id": 1719131680, "lat": 46.4001472, "lon": 30.7310569}, {"type": "node", "id": 1719131745, "lat": 46.399088, "lon": 30.7208042}, {"type": "node", "id": 1719131754, "lat": 46.4001865, "lon": 30.7312006}, {"type": "node", "id": 1719151994, "lat": 46.3949193, "lon": 30.730989}, {"type": "node", "id": 1719152107, "lat": 46.3953431, "lon": 30.7303022}, {"type": "node", "id": 1719152157, "lat": 46.3948651, "lon": 30.7304141}, {"type": "node", "id": 1719152171, "lat": 46.394843, "lon": 30.7314121, "tags": {"amenity": "restaurant"}}, {"type": "node", "id": 1719152200, "lat": 46.395404, "lon": 30.7308821}, {"type": "node", "id": 1719380798, "lat": 46.3997056, "lon": 30.7273117}, {"type": "node", "id": 1719380800, "lat": 46.3997297, "lon": 30.7275567}, {"type": "node", "id": 1719380801, "lat": 46.3995817, "lon": 30.7275873}, {"type": "node", "id": 1719380802, "lat": 46.3995575, "lon": 30.7273423}, {"type": "node", "id": 1719690111, "lat": 46.400815, "lon": 30.7226902}, {"type": "node", "id": 1719690112, "lat": 46.4007842, "lon": 30.7224737}, {"type": "node", "id": 1719690135, "lat": 46.406845, "lon": 30.7218904}, {"type": "node", "id": 1719690281, "lat": 46.4068727, "lon": 30.7220751}, {"type": "node", "id": 1719690440, "lat": 46.4070587, "lon": 30.7220166}, {"type": "node", "id": 1719690578, "lat": 46.4010726, "lon": 30.7226161}, {"type": "node", "id": 1719690623, "lat": 46.4010438, "lon": 30.7224023}, {"type": "node", "id": 1719690782, "lat": 46.4070311, "lon": 30.7218319}, {"type": "node", "id": 1720362470, "lat": 46.402397, "lon": 30.722972}, {"type": "node", "id": 1720362471, "lat": 46.4024178, "lon": 30.723145}, {"type": "node", "id": 1720362474, "lat": 46.4024784, "lon": 30.7228978}, {"type": "node", "id": 1720362477, "lat": 46.4025049, "lon": 30.7232137}, {"type": "node", "id": 1720362479, "lat": 46.4025163, "lon": 30.7228923}, {"type": "node", "id": 1720362481, "lat": 46.4025352, "lon": 30.7229226}, {"type": "node", "id": 1720362484, "lat": 46.4025883, "lon": 30.7229198}, {"type": "node", "id": 1720362487, "lat": 46.4026262, "lon": 30.723178}, {"type": "node", "id": 1721082586, "lat": 46.3866917, "lon": 30.7150941}, {"type": "node", "id": 1721082725, "lat": 46.3868444, "lon": 30.7152016}, {"type": "node", "id": 1721082840, "lat": 46.3868142, "lon": 30.7150447}, {"type": "node", "id": 1721082908, "lat": 46.3867219, "lon": 30.7152511}, {"type": "node", "id": 1721746864, "lat": 46.4779538, "lon": 30.738316}, {"type": "node", "id": 1723020193, "lat": 46.4718817, "lon": 30.7480289}, {"type": "node", "id": 1723020471, "lat": 46.4717753, "lon": 30.7480156}, {"type": "node", "id": 1724167568, "lat": 46.4832431, "lon": 30.751228}, {"type": "node", "id": 1724167606, "lat": 46.4833087, "lon": 30.7510422}, {"type": "node", "id": 1724167648, "lat": 46.4833846, "lon": 30.7512485}, {"type": "node", "id": 1724167672, "lat": 46.4833611, "lon": 30.7510723}, {"type": "node", "id": 1724167674, "lat": 46.483394, "lon": 30.751144}, {"type": "node", "id": 1726620693, "lat": 46.4888266, "lon": 30.7183397}, {"type": "node", "id": 1726620901, "lat": 46.4887248, "lon": 30.7183728}, {"type": "node", "id": 1730356445, "lat": 46.4684867, "lon": 30.7530229}, {"type": "node", "id": 1730356838, "lat": 46.4682511, "lon": 30.7531034}, {"type": "node", "id": 1730357139, "lat": 46.4682699, "lon": 30.752962}, {"type": "node", "id": 1730408125, "lat": 46.4561735, "lon": 30.7570348}, {"type": "node", "id": 1730408353, "lat": 46.4559914, "lon": 30.7569539}, {"type": "node", "id": 1730408483, "lat": 46.4560648, "lon": 30.7571302}, {"type": "node", "id": 1730408644, "lat": 46.4561002, "lon": 30.7568585}, {"type": "node", "id": 1730647367, "lat": 46.4395162, "lon": 30.7582248, "tags": {"addr:housenumber": "28", "addr:street": "\u0410\u043a\u0430\u0434\u0435\u043c\u0456\u0447\u043d\u0430 \u0432\u0443\u043b\u0438\u0446\u044f", "amenity": "restaurant", "level": "5", "name": "\u0421\u0430\u0434\u0438 \u041f\u0435\u0440\u0435\u043c\u043e\u0433\u0438", "name:en": "Sady Pobedy", "name:ru": "\u0421\u0430\u0434\u044b \u041f\u043e\u0431\u0435\u0434\u044b", "name:uk": "\u0421\u0430\u0434\u0438 \u041f\u0435\u0440\u0435\u043c\u043e\u0433\u0438"}}, {"type": "node", "id": 1751042197, "lat": 46.483878, "lon": 30.7393545, "tags": {"amenity": "restaurant", "cuisine": "japanese", "name": "Yakitoria", "name:ru": "\u042f\u043a\u0438\u0442\u043e\u0440\u0438\u044f", "name:uk": "Yakitoria"}}, {"type": "node", "id": 1883986647, "lat": 46.4881698, "lon": 30.7365972, "tags": {"amenity": "restaurant", "name": "Graf", "name:uk": "Graf"}}, {"type": "node", "id": 1905044162, "lat": 46.4124243, "lon": 30.7198477}, {"type": "node", "id": 1905044163, "lat": 46.4124305, "lon": 30.7196787}, {"type": "node", "id": 1905044166, "lat": 46.412498, "lon": 30.7196839}, {"type": "node", "id": 1905044170, "lat": 46.4126328, "lon": 30.719694}, {"type": "node", "id": 1905044171, "lat": 46.4126582, "lon": 30.7198656}, {"type": "node", "id": 1905044173, "lat": 46.4126644, "lon": 30.7196966}, {"type": "node", "id": 1907486048, "lat": 46.4147638, "lon": 30.7171218}, {"type": "node", "id": 1907486050, "lat": 46.4148034, "lon": 30.7174171}, {"type": "node", "id": 1907486069, "lat": 46.415102, "lon": 30.7170261}, {"type": "node", "id": 1907486072, "lat": 46.4151412, "lon": 30.7173222}, {"type": "node", "id": 1984105503, "lat": 46.4423155, "lon": 30.6780478, "tags": {"entrance": "yes"}}, {"type": "node", "id": 1984105526, "lat": 46.4424498, "lon": 30.6779041}, {"type": "node", "id": 1984105530, "lat": 46.4425269, "lon": 30.6781685}, {"type": "node", "id": 1984105548, "lat": 46.4424446, "lon": 30.6778476}, {"type": "node", "id": 1984105626, "lat": 46.4422996, "lon": 30.6778757}, {"type": "node", "id": 1984105778, "lat": 46.4423301, "lon": 30.6782067}, {"type": "node", "id": 1984105796, "lat": 46.4425016, "lon": 30.677894}, {"type": "node", "id": 2066165830, "lat": 46.4347696, "lon": 30.7583211}, {"type": "node", "id": 2070601184, "lat": 46.5766679, "lon": 30.7981729}, {"type": "node", "id": 2070601193, "lat": 46.5764193, "lon": 30.7981878}, {"type": "node", "id": 2070601196, "lat": 46.5764535, "lon": 30.7982111}, {"type": "node", "id": 2070601208, "lat": 46.5765021, "lon": 30.7980599}, {"type": "node", "id": 2070601210, "lat": 46.576342, "lon": 30.7984279}, {"type": "node", "id": 2070601243, "lat": 46.576542, "lon": 30.7985641}, {"type": "node", "id": 2111156291, "lat": 46.3951783, "lon": 30.7303317}, {"type": "node", "id": 2188168135, "lat": 46.4406106, "lon": 30.757558}, {"type": "node", "id": 2188168136, "lat": 46.4406106, "lon": 30.7575463}, {"type": "node", "id": 2188168137, "lat": 46.4406143, "lon": 30.7575343}, {"type": "node", "id": 2188168139, "lat": 46.4406286, "lon": 30.7575233}, {"type": "node", "id": 2188168140, "lat": 46.4406296, "lon": 30.757515}, {"type": "node", "id": 2188168141, "lat": 46.4406329, "lon": 30.7575008}, {"type": "node", "id": 2188168142, "lat": 46.4406395, "lon": 30.7574898}, {"type": "node", "id": 2188168143, "lat": 46.440644, "lon": 30.7574798}, {"type": "node", "id": 2188168144, "lat": 46.4406511, "lon": 30.7574691}, {"type": "node", "id": 2188168145, "lat": 46.4406653, "lon": 30.7574621}, {"type": "node", "id": 2188168146, "lat": 46.4406789, "lon": 30.7574622}, {"type": "node", "id": 2188168147, "lat": 46.4406934, "lon": 30.7574634}, {"type": "node", "id": 2188168148, "lat": 46.4406961, "lon": 30.7574595}, {"type": "node", "id": 2188168149, "lat": 46.440703, "lon": 30.75745}, {"type": "node", "id": 2188168154, "lat": 46.4407159, "lon": 30.7574441}, {"type": "node", "id": 2194268704, "lat": 46.4063585, "lon": 30.7235803}, {"type": "node", "id": 2194268706, "lat": 46.4063475, "lon": 30.7237347}, {"type": "node", "id": 2194268714, "lat": 46.4065833, "lon": 30.7238011}, {"type": "node", "id": 2199338532, "lat": 46.460109, "lon": 30.6801063}, {"type": "node", "id": 2199338535, "lat": 46.4602233, "lon": 30.6801373}, {"type": "node", "id": 2199338536, "lat": 46.4603022, "lon": 30.6786046}, {"type": "node", "id": 2199338540, "lat": 46.46041, "lon": 30.678686}, {"type": "node", "id": 2199338541, "lat": 46.4604165, "lon": 30.6786356}, {"type": "node", "id": 2244429752, "lat": 46.3908096, "lon": 30.7241253, "tags": {"amenity": "restaurant", "contact:email": "tsprint@tavriav.ua", "internet_access": "wlan", "internet_access:fee": "no", "name": "\u0422-\u0421\u043f\u0440\u0456\u043d\u0442", "name:en": "T-Sprint", "name:ru": "\u0422-\u0421\u043f\u0440\u0438\u043d\u0442", "name:uk": "\u0422-\u0421\u043f\u0440\u0456\u043d\u0442", "phone": "+380 48 796 5326", "website": "www.sprint.od.ua"}}, {"type": "node", "id": 2351193810, "lat": 46.4691964, "lon": 30.7534109}, {"type": "node", "id": 2368795481, "lat": 46.4734198, "lon": 30.7545207, "tags": {"amenity": "restaurant"}}, {"type": "node", "id": 2407680949, "lat": 46.4523466, "lon": 30.7680274}, {"type": "node", "id": 2407680950, "lat": 46.452353, "lon": 30.7681746}, {"type": "node", "id": 2407680954, "lat": 46.4527049, "lon": 30.7679941}, {"type": "node", "id": 2407680955, "lat": 46.4527113, "lon": 30.7681413}, {"type": "node", "id": 2408850274, "lat": 46.4430393, "lon": 30.7438853, "tags": {"amenity": "restaurant", "contact:email": "tsprint@tavriav.ua", "internet_access": "wlan", "internet_access:fee": "no", "name": "\u0422-\u0421\u043f\u0440\u0456\u043d\u0442", "name:en": "T-Sprint", "name:ru": "\u0422-\u0421\u043f\u0440\u0438\u043d\u0442", "name:uk": "\u0422-\u0421\u043f\u0440\u0456\u043d\u0442", "phone": "+380 48 757 8157", "website": "http://www.sprint.od.ua"}}, {"type": "node", "id": 2408850286, "lat": 46.5995202, "lon": 30.8054464, "tags": {"amenity": "restaurant", "contact:email": "tsprint@tavriav.ua", "cuisine": "regional", "internet_access": "wlan", "internet_access:fee": "no", "name": "\u0422-\u0421\u043f\u0440\u0456\u043d\u0442", "name:en": "T-Sprint", "name:ru": "\u0422-\u0421\u043f\u0440\u0438\u043d\u0442", "name:uk": "\u0422-\u0421\u043f\u0440\u0456\u043d\u0442", "phone": "+380 48 729 9079", "website": "http://www.sprint.od.ua"}}, {"type": "node", "id": 2434218397, "lat": 46.4606535, "lon": 30.7498063, "tags": {"amenity": "restaurant", "cuisine": "regional;breakfast", "internet_access": "wlan", "name": "MamaCasalla", "name:uk": "MamaCasalla", "opening_hours": "Mo 12:00-00:00; Tu-Th 09:00-00:00; Fr 09:00-01:00; Sa-Su 10:00-00:00", "phone": "+380 482 39 9777", "website": "https://mamacasalla.com/"}}, {"type": "node", "id": 2434288736, "lat": 46.4614084, "lon": 30.7498853, "tags": {"addr:housenumber": "2\u0410", "addr:street": "\u043f\u0440\u043e\u0441\u043f\u0435\u043a\u0442 \u0428\u0435\u0432\u0447\u0435\u043d\u043a\u0430", "amenity": "restaurant", "check_date:opening_hours": "2022-02-11", "cuisine": "pizza", "name": "Pomodoro", "name:uk": "Pomodoro", "opening_hours": "09:00-23:00", "website": "https://pomodoro.od.ua/"}}, {"type": "node", "id": 2440451351, "lat": 46.4607272, "lon": 30.7498036, "tags": {"addr:housenumber": "1/1", "addr:street": "\u043f\u0440\u043e\u0432\u0443\u043b\u043e\u043a \u041e\u043b\u0435\u043a\u0441\u0430\u043d\u0434\u0440\u0430 \u041c\u0430\u0442\u0440\u043e\u0441\u043e\u0432\u0430", "amenity": "restaurant", "cuisine": "pizza", "internet_access": "wlan", "name": "Zucchini", "name:uk": "Zucchini", "website": "https://zucchini.od.ua/"}}, {"type": "node", "id": 2444799263, "lat": 46.4774073, "lon": 30.7403093, "tags": {"addr:housenumber": "27", "addr:street": "\u0420\u0456\u0448\u0435\u043b\u044c\u0454\u0432\u0441\u044c\u043a\u0430 \u0432\u0443\u043b\u0438\u0446\u044f", "amenity": "restaurant", "name": "\u0410\u0439\u0432\u0430", "name:en": "Aiva", "name:ru": "\u0410\u0439\u0432\u0430", "name:uk": "\u0410\u0439\u0432\u0430", "opening_hours": "09:00-24:00", "website": "http://www.aiva.com.ua"}}, {"type": "node", "id": 2444799338, "lat": 46.4268411, "lon": 30.7509309, "tags": {"amenity": "restaurant", "name": "\u0411\u043b\u0435\u0444", "name:en": "Blef", "name:ru": "\u0411\u043b\u0435\u0444", "name:uk": "\u0411\u043b\u0435\u0444", "opening_hours": "Mo-Su 11:00-00:00"}}, {"type": "node", "id": 2446134622, "lat": 46.4381084, "lon": 30.7462406, "tags": {"amenity": "restaurant", "name": "Chinese food", "name:uk": "Chinese food"}}, {"type": "node", "id": 2615216489, "lat": 46.4389318, "lon": 30.7017708, "tags": {"amenity": "restaurant", "name": "The Loft", "name:uk": "The Loft"}}, {"type": "node", "id": 2824831301, "lat": 46.449536, "lon": 30.745482, "tags": {"addr:housenumber": "11/1", "addr:street": "\u0432\u0443\u043b\u0438\u0446\u044f \u041d\u0435\u0437\u0430\u043b\u0435\u0436\u043d\u043e\u0441\u0442\u0456", "amenity": "restaurant", "cuisine": "pizza", "delivery": "yes", "name": "Pizza od ua", "name:uk": "Pizza od ua", "outdoor_seating": "no", "phone": "+380 48 700 6969", "takeaway": "yes", "website": "http://www.fantozzi.net.ua"}}, {"type": "node", "id": 2840096638, "lat": 46.4776946, "lon": 30.7396221, "tags": {"addr:housenumber": "30", "addr:postcode": "65000", "addr:street": "\u0420\u0456\u0448\u0435\u043b\u044c\u0454\u0432\u0441\u044c\u043a\u0430 \u0432\u0443\u043b\u0438\u0446\u044f", "amenity": "restaurant", "cuisine": "jewish", "name": "\u0425\u0435\u0432\u0440\u043e\u043d", "name:en": "Hevron", "name:ru": "\u0425\u0435\u0432\u0440\u043e\u043d", "name:uk": "\u0425\u0454\u0432\u0440\u043e\u043d", "phone": "+380 48 715 0374", "website": "http://www.hevron.od.ua"}}, {"type": "node", "id": 3040338233, "lat": 46.4476574, "lon": 30.7564005}, {"type": "node", "id": 3040338234, "lat": 46.4476631, "lon": 30.7563321}, {"type": "node", "id": 3040338235, "lat": 46.4476781, "lon": 30.7562945}, {"type": "node", "id": 3040338236, "lat": 46.4476801, "lon": 30.7562665}, {"type": "node", "id": 3040338237, "lat": 46.4476701, "lon": 30.7564669}, {"type": "node", "id": 3040338238, "lat": 46.4476993, "lon": 30.7565211}, {"type": "node", "id": 3040338239, "lat": 46.4477407, "lon": 30.756555}, {"type": "node", "id": 3040338241, "lat": 46.4477894, "lon": 30.7562096}, {"type": "node", "id": 3040338243, "lat": 46.4478167, "lon": 30.7562193}, {"type": "node", "id": 3040338244, "lat": 46.4477612, "lon": 30.7565493}, {"type": "node", "id": 3040338245, "lat": 46.4477762, "lon": 30.7565994}, {"type": "node", "id": 3040338246, "lat": 46.447858, "lon": 30.7562532}, {"type": "node", "id": 3040338247, "lat": 46.4478873, "lon": 30.7563076}, {"type": "node", "id": 3040338249, "lat": 46.4478943, "lon": 30.7564423}, {"type": "node", "id": 3040338250, "lat": 46.4479001, "lon": 30.7563739}, {"type": "node", "id": 3040338251, "lat": 46.4479028, "lon": 30.7565139}, {"type": "node", "id": 3040338292, "lat": 46.4477765, "lon": 30.7561978}, {"type": "node", "id": 3040338293, "lat": 46.4478885, "lon": 30.7564632}, {"type": "node", "id": 3079608638, "lat": 46.4742885, "lon": 30.7397968, "tags": {"amenity": "restaurant", "name": "\u0424\u0430\u0440\u0444\u043e\u0440", "name:uk": "\u0424\u0430\u0440\u0444\u043e\u0440", "opening_hours": "Mo-Su 09:00-23:00", "website": "http://farfor-kafe.umi.ru/"}}, {"type": "node", "id": 3101942900, "lat": 46.4755909, "lon": 30.7371578, "tags": {"addr:housenumber": "52", "addr:street": "\u0423\u0441\u043f\u0435\u043d\u0441\u044c\u043a\u0430 \u0432\u0443\u043b\u0438\u0446\u044f", "amenity": "restaurant", "cuisine": "turkish", "internet_access": "wlan", "name": "Alaturka", "name:uk": "Alaturka", "opening_hours": "Mo-Su 09:00-23:00"}}, {"type": "node", "id": 3101942902, "lat": 46.4756988, "lon": 30.7402364, "tags": {"amenity": "restaurant", "cuisine": "turkish", "name": "\u0410\u043d\u0442\u0430\u043b\u0456\u044f", "name:ru": "\u0410\u043d\u0442\u0430\u043b\u0438\u044f", "name:uk": "\u0410\u043d\u0442\u0430\u043b\u0456\u044f"}}, {"type": "node", "id": 3101942906, "lat": 46.4730298, "lon": 30.731322, "tags": {"amenity": "restaurant", "cuisine": "chinese", "internet_access": "wlan", "name": "Yun", "name:uk": "Yun", "phone": "+380 48 777 0078", "website": "https://yong.od.ua/"}}, {"type": "node", "id": 3300274911, "lat": 46.469211, "lon": 30.7532042}, {"type": "node", "id": 3344576390, "lat": 46.4736712, "lon": 30.7370516, "tags": {"addr:housenumber": "66", "addr:street": "\u0404\u0432\u0440\u043e\u043f\u0435\u0439\u0441\u044c\u043a\u0430 \u0432\u0443\u043b\u0438\u0446\u044f", "amenity": "restaurant", "cuisine": "pizza", "name": "\u0424\u043e\u043d\u0442\u0430\u043d", "name:en": "Fontan", "name:ru": "\u0424\u043e\u043d\u0442\u0430\u043d", "name:uk": "\u0424\u043e\u043d\u0442\u0430\u043d", "opening_hours": "10:00-23:00", "phone": "+380 48 722 4142", "website": "https://fontan.od.ua/"}}, {"type": "node", "id": 3351728839, "lat": 46.4808314, "lon": 30.741115, "tags": {"addr:housenumber": "21", "addr:street": "\u0432\u0443\u043b\u0438\u0446\u044f \u041d\u0456\u043d\u0438 \u0421\u0442\u0440\u043e\u043a\u0430\u0442\u043e\u0457", "amenity": "restaurant", "cuisine": "italian", "name": "La Veranda", "name:ru": "\u041b\u0430 \u0432\u0435\u0440\u0430\u043d\u0434\u0430", "name:uk": "La Veranda", "website": "http://www.laveranda.com.ua"}}, {"type": "node", "id": 3357602576, "lat": 46.5742219, "lon": 30.7873877}, {"type": "node", "id": 3357602577, "lat": 46.5742768, "lon": 30.7871652}, {"type": "node", "id": 3357602578, "lat": 46.5741463, "lon": 30.787097}, {"type": "node", "id": 3357602579, "lat": 46.5740913, "lon": 30.7873194}, {"type": "node", "id": 3358737366, "lat": 46.4608319, "lon": 30.7510496, "tags": {"addr:street": "\u043f\u0440\u043e\u0441\u043f\u0435\u043a\u0442 \u0428\u0435\u0432\u0447\u0435\u043d\u043a\u0430", "amenity": "restaurant", "cuisine": "regional", "delivery": "no", "level": "1", "name": "\u041b\u0430\u0437\u0430\u043d\u0438", "name:en": "Lasani", "name:uk": "\u041b\u0430\u0437\u0430\u043d\u0438", "opening_hours": "Mo-Fr 08:00-16:00", "smoking": "no", "takeaway": "yes"}}, {"type": "node", "id": 3362007188, "lat": 46.4542721, "lon": 30.7661699}, {"type": "node", "id": 3362007189, "lat": 46.4539124, "lon": 30.7661924}, {"type": "node", "id": 3362007190, "lat": 46.4539198, "lon": 30.7664407}, {"type": "node", "id": 3362007191, "lat": 46.4542795, "lon": 30.7664182}, {"type": "node", "id": 3371034850, "lat": 46.4763241, "lon": 30.7652328}, {"type": "node", "id": 3371034851, "lat": 46.4763151, "lon": 30.7653804}, {"type": "node", "id": 3371034852, "lat": 46.4762254, "lon": 30.7653688}, {"type": "node", "id": 3371034853, "lat": 46.4762345, "lon": 30.7652212}, {"type": "node", "id": 3371035120, "lat": 46.4670621, "lon": 30.7616364}, {"type": "node", "id": 3371035121, "lat": 46.466785, "lon": 30.7616643}, {"type": "node", "id": 3371035122, "lat": 46.4668004, "lon": 30.7619868}, {"type": "node", "id": 3371035123, "lat": 46.4670775, "lon": 30.7619589}, {"type": "node", "id": 3421350515, "lat": 46.4289093, "lon": 30.7669101}, {"type": "node", "id": 3421350516, "lat": 46.4289762, "lon": 30.7663562}, {"type": "node", "id": 3421350517, "lat": 46.4287471, "lon": 30.7663614}, {"type": "node", "id": 3421350518, "lat": 46.428753, "lon": 30.7669136}, {"type": "node", "id": 3421356118, "lat": 46.4267444, "lon": 30.7660349}, {"type": "node", "id": 3421356119, "lat": 46.4269015, "lon": 30.7659694}, {"type": "node", "id": 3421356120, "lat": 46.4271881, "lon": 30.7659515}, {"type": "node", "id": 3421356121, "lat": 46.4272189, "lon": 30.7659172}, {"type": "node", "id": 3421356122, "lat": 46.427375, "lon": 30.7659604}, {"type": "node", "id": 3421356123, "lat": 46.4274901, "lon": 30.7660126}, {"type": "node", "id": 3421356124, "lat": 46.4274623, "lon": 30.7661214}, {"type": "node", "id": 3421356125, "lat": 46.4273483, "lon": 30.7660782}, {"type": "node", "id": 3421356126, "lat": 46.4271809, "lon": 30.7660469}, {"type": "node", "id": 3421356127, "lat": 46.4269118, "lon": 30.7660737}, {"type": "node", "id": 3421356128, "lat": 46.426768, "lon": 30.7661378}, {"type": "node", "id": 3421356138, "lat": 46.4279317, "lon": 30.76608}, {"type": "node", "id": 3421356139, "lat": 46.4276819, "lon": 30.765959}, {"type": "node", "id": 3421356140, "lat": 46.4276264, "lon": 30.7659848}, {"type": "node", "id": 3421356141, "lat": 46.4275645, "lon": 30.7660601}, {"type": "node", "id": 3421356142, "lat": 46.4275186, "lon": 30.7662179}, {"type": "node", "id": 3421356143, "lat": 46.4277096, "lon": 30.7663336}, {"type": "node", "id": 3421356144, "lat": 46.4277317, "lon": 30.7662954}, {"type": "node", "id": 3421356145, "lat": 46.4277865, "lon": 30.7662552}, {"type": "node", "id": 3421356146, "lat": 46.4278803, "lon": 30.7663011}, {"type": "node", "id": 3424525525, "lat": 46.4680534, "lon": 30.7629029}, {"type": "node", "id": 3424525526, "lat": 46.4678964, "lon": 30.7628195}, {"type": "node", "id": 3424525527, "lat": 46.467918, "lon": 30.762734}, {"type": "node", "id": 3424525528, "lat": 46.4680749, "lon": 30.7628174}, {"type": "node", "id": 3434019072, "lat": 46.4688119, "lon": 30.7538559}, {"type": "node", "id": 3434019073, "lat": 46.468871, "lon": 30.7531236}, {"type": "node", "id": 3434019074, "lat": 46.469179, "lon": 30.7538472}, {"type": "node", "id": 3449560466, "lat": 46.4358467, "lon": 30.7597512}, {"type": "node", "id": 3449560467, "lat": 46.4355948, "lon": 30.7598414}, {"type": "node", "id": 3449560468, "lat": 46.4355508, "lon": 30.7595821}, {"type": "node", "id": 3449560469, "lat": 46.4358027, "lon": 30.7594919}, {"type": "node", "id": 3488751582, "lat": 46.3884179, "lon": 30.7503944}, {"type": "node", "id": 3488751583, "lat": 46.3884442, "lon": 30.7502483}, {"type": "node", "id": 3488751584, "lat": 46.3886246, "lon": 30.7502977}, {"type": "node", "id": 3488751585, "lat": 46.3885326, "lon": 30.7504197}, {"type": "node", "id": 3507727050, "lat": 46.4143278, "lon": 30.7561947}, {"type": "node", "id": 3507727051, "lat": 46.414068, "lon": 30.7560243}, {"type": "node", "id": 3507727052, "lat": 46.4139863, "lon": 30.7562866}, {"type": "node", "id": 3507727053, "lat": 46.414246, "lon": 30.756457}, {"type": "node", "id": 3508400498, "lat": 46.434862, "lon": 30.7587065}, {"type": "node", "id": 3508400499, "lat": 46.4350514, "lon": 30.7586125}, {"type": "node", "id": 3508400500, "lat": 46.4349392, "lon": 30.7581471}, {"type": "node", "id": 3508400501, "lat": 46.4347526, "lon": 30.7582409}, {"type": "node", "id": 3512297732, "lat": 46.4305658, "lon": 30.7682928}, {"type": "node", "id": 3512297733, "lat": 46.4305894, "lon": 30.7684547}, {"type": "node", "id": 3512297734, "lat": 46.4304865, "lon": 30.7686149}, {"type": "node", "id": 3512297735, "lat": 46.4304236, "lon": 30.7685299}, {"type": "node", "id": 3512297736, "lat": 46.4304968, "lon": 30.7684158}, {"type": "node", "id": 3512297737, "lat": 46.4304826, "lon": 30.7683184}, {"type": "node", "id": 3751390026, "lat": 46.4699242, "lon": 30.7631384, "tags": {"amenity": "restaurant", "internet_access": "wlan", "name": "\u041f\u0440\u0438\u0447\u0430\u043b #1", "name:en": "Prichal #1", "name:ru": "\u041f\u0440\u0438\u0447\u0430\u043b \u21161", "name:uk": "\u041f\u0440\u0438\u0447\u0430\u043b #1", "outdoor_seating": "yes", "smoking": "yes"}}, {"type": "node", "id": 3756007117, "lat": 46.4844931, "lon": 30.735803}, {"type": "node", "id": 3756007118, "lat": 46.484488, "lon": 30.7359029}, {"type": "node", "id": 3756007119, "lat": 46.4844156, "lon": 30.7358951}, {"type": "node", "id": 3756007120, "lat": 46.4844207, "lon": 30.7357953}, {"type": "node", "id": 3784613501, "lat": 46.5791903, "lon": 30.7910461, "tags": {"addr:housenumber": "70/1", "addr:street": "\u041a\u0440\u0438\u043c\u0441\u044c\u043a\u0430 \u0432\u0443\u043b\u0438\u0446\u044f", "amenity": "restaurant", "check_date:opening_hours": "2021-08-23", "contact:instagram": "https://www.instagram.com/zazerkalie_odessa/", "cuisine": "regional", "internet_access": "wlan", "name": "\u0417\u0430\u0434\u0437\u0435\u0440\u043a\u0430\u043b\u043b\u044f", "name:en": "Zazerkalie", "name:ru": "\u0417\u0430\u0437\u0435\u0440\u043a\u0430\u043b\u044c\u0435", "name:uk": "\u0417\u0430\u0434\u0437\u0435\u0440\u043a\u0430\u043b\u043b\u044f", "opening_hours": "Mo-Su 10:00-23:00", "phone": "+380 48 705 4747"}}, {"type": "node", "id": 3817396360, "lat": 46.5523391, "lon": 30.7633689, "tags": {"amenity": "restaurant", "name": "Art Hall", "name:ru": "\u0410\u0440\u0442 \u0425\u043e\u043b\u043b", "name:uk": "Art Hall"}}, {"type": "node", "id": 3817396361, "lat": 46.5522266, "lon": 30.7634571, "tags": {"amenity": "restaurant", "name": "Manarola", "name:ru": "\u041c\u0430\u043d\u0430\u0440\u043e\u043b\u0430", "name:uk": "Manarola"}}, {"type": "node", "id": 3817396362, "lat": 46.5519983, "lon": 30.7638035, "tags": {"amenity": "restaurant", "name": "\u0423\u0437\u043c\u043e\u0440'\u044f", "name:en": "Vzmorye", "name:ru": "\u0412\u0437\u043c\u043e\u0440\u044c\u0435", "name:uk": "\u0423\u0437\u043c\u043e\u0440'\u044f"}}, {"type": "node", "id": 3817396372, "lat": 46.5520688, "lon": 30.7650108, "tags": {"amenity": "restaurant", "name": "\u0420\u043e\u0431\u0438\u043d\u0437\u043e\u043d", "name:en": "Robinzon", "name:ru": "\u0420\u043e\u0431\u0438\u043d\u0437\u043e\u043d", "name:uk": "\u0420\u043e\u0431\u0456\u043d\u0437\u043e\u043d"}}, {"type": "node", "id": 3819794491, "lat": 46.460852, "lon": 30.751495, "tags": {"amenity": "restaurant", "cuisine": "kebab", "name": "\u0411\u0430\u0439\u0442 \u0410\u043b\u044c\u043c\u0430\u043d\u0434\u0438", "name:en": "Bait Almandi", "name:ru": "\u0411\u0430\u0439\u0442 \u0410\u043b\u044c\u043c\u0430\u043d\u0434\u0438", "name:uk": "\u0411\u0430\u0439\u0442 \u0410\u043b\u044c\u043c\u0430\u043d\u0434\u0438"}}, {"type": "node", "id": 3822496944, "lat": 46.4832533, "lon": 30.7510661}, {"type": "node", "id": 3836207639, "lat": 46.583386, "lon": 30.7936596, "tags": {"addr:housenumber": "32", "addr:street": "\u0432\u0443\u043b\u0438\u0446\u044f \u0417\u0430\u0442\u043e\u043d\u0441\u044c\u043a\u043e\u0433\u043e", "amenity": "restaurant", "cuisine": "pizza", "internet_access": "wlan", "level": "1", "name": "Pomodoro", "name:uk": "Pomodoro", "opening_hours": "Mo-Su 10:00-22:00"}}, {"type": "node", "id": 3896454786, "lat": 46.5855269, "lon": 30.8017288, "tags": {"addr:city": "\u041e\u0434\u0435\u0441\u0441\u0430", "addr:housenumber": "120", "addr:street": "\u0414\u043d\u0456\u043f\u0440\u043e\u043f\u0435\u0442\u0440\u043e\u0432\u0441\u044c\u043a\u0430 \u0434\u043e\u0440\u043e\u0433\u0430", "amenity": "restaurant", "capacity": "50", "cuisine": "japanese", "delivery": "yes", "diet:fish": "yes", "diet:pescetarian": "yes", "diet:vegetarian": "yes", "name": "\u0411\u0435\u043d\u0442\u043e", "name:en": "Bento", "name:uk": "\u0411\u0435\u043d\u0442\u043e", "opening_hours": "10:00-23:00", "smoking": "outside", "takeaway": "yes", "toilets": "yes", "website": "https://bento.com.ua/"}}, {"type": "node", "id": 3899135579, "lat": 46.4767135, "lon": 30.7313208, "tags": {"amenity": "restaurant", "name": "\u041a\u0430\u0437\u043a\u0430 \u0421\u0445\u043e\u0434\u0443", "name:ru": "\u0421\u043a\u0430\u0437\u043a\u0430 \u0412\u043e\u0441\u0442\u043e\u043a\u0430", "name:uk": "\u041a\u0430\u0437\u043a\u0430 \u0421\u0445\u043e\u0434\u0443", "website": "http://skazka-vostoka.od.ua/"}}, {"type": "node", "id": 3899136297, "lat": 46.4815603, "lon": 30.7317123}, {"type": "node", "id": 3901527237, "lat": 46.4717855, "lon": 30.7478429}, {"type": "node", "id": 3901527246, "lat": 46.471892, "lon": 30.7478563}, {"type": "node", "id": 3904702683, "lat": 46.578834, "lon": 30.7973969, "tags": {"addr:housenumber": "52", "addr:street": "\u0432\u0443\u043b\u0438\u0446\u044f \u0410\u043a\u0430\u0434\u0435\u043c\u0456\u043a\u0430 \u0417\u0430\u0431\u043e\u043b\u043e\u0442\u043d\u043e\u0433\u043e", "amenity": "restaurant", "cuisine": "italian_pizza", "internet_access": "wlan", "name": "\u0406\u0442\u0430\u043b\u0456\u0439\u0441\u044c\u043a\u0438\u0439 \u043a\u0432\u0430\u0440\u0442\u0430\u043b", "name:en": "Italiiskyi Kvartal", "name:ru": "\u0418\u0442\u0430\u043b\u044c\u044f\u043d\u0441\u043a\u0438\u0439 \u041a\u0432\u0430\u0440\u0442\u0430\u043b", "name:uk": "\u0406\u0442\u0430\u043b\u0456\u0439\u0441\u044c\u043a\u0438\u0439 \u043a\u0432\u0430\u0440\u0442\u0430\u043b", "opening_hours": "Mo-Su 11:00-00:00", "website": "https://pizza-kvartal.com/"}}, {"type": "node", "id": 3906735445, "lat": 46.4778555, "lon": 30.7383042}, {"type": "node", "id": 3906735446, "lat": 46.4778633, "lon": 30.738165}, {"type": "node", "id": 3906735452, "lat": 46.4779156, "lon": 30.7383114}, {"type": "node", "id": 3906735573, "lat": 46.4781116, "lon": 30.7383348}, {"type": "node", "id": 3910696286, "lat": 46.460386, "lon": 30.7139661}, {"type": "node", "id": 3910696287, "lat": 46.4603828, "lon": 30.7137828}, {"type": "node", "id": 3910696289, "lat": 46.4605421, "lon": 30.7139605}, {"type": "node", "id": 3910696290, "lat": 46.4605389, "lon": 30.7137772}, {"type": "node", "id": 3911923247, "lat": 46.485166, "lon": 30.7334751, "tags": {"addr:housenumber": "28", "addr:street": "\u041f\u0440\u0435\u043e\u0431\u0440\u0430\u0436\u0435\u043d\u0441\u044c\u043a\u0430 \u0432\u0443\u043b\u0438\u0446\u044f", "amenity": "restaurant", "name": "KlaraBara", "name:ru": "\u041a\u043b\u0430\u0440\u0430\u0411\u0430\u0440\u0430", "name:uk": "KlaraBara"}}, {"type": "node", "id": 3911923249, "lat": 46.48481, "lon": 30.7353167, "tags": {"addr:housenumber": "10", "addr:street": "\u0413\u0430\u0432\u0430\u043d\u043d\u0430 \u0432\u0443\u043b\u0438\u0446\u044f", "amenity": "restaurant", "email": "pecheskago@mail.ru", "internet_access": "wlan", "name": "City Garden", "name:uk": "City Garden", "phone": "+380 48 702 8811", "website": "www.pecheskago.com.ua"}}, {"type": "node", "id": 3912827561, "lat": 46.3974874, "lon": 30.724342}, {"type": "node", "id": 3912827562, "lat": 46.3974758, "lon": 30.7241917}, {"type": "node", "id": 3912827563, "lat": 46.3973215, "lon": 30.7240508}, {"type": "node", "id": 3912827564, "lat": 46.397345, "lon": 30.7243644}, {"type": "node", "id": 3917623060, "lat": 46.5817859, "lon": 30.7934882, "tags": {"addr:housenumber": "74", "addr:postcode": "65025", "addr:street": "\u041a\u0440\u0438\u043c\u0441\u044c\u043a\u0430 \u0432\u0443\u043b\u0438\u0446\u044f", "amenity": "restaurant", "contact:instagram": "https://www.instagram.com/krym.od.ua/", "cuisine": "oriental", "internet_access": "wlan", "name": "\u041a\u0440\u0438\u043c", "name:en": "Krym", "name:ru": "\u041a\u0440\u044b\u043c", "name:uk": "\u041a\u0440\u0438\u043c", "opening_hours": "Mo-Su 11:00-21:00", "phone": "+380 68 133 5500"}}, {"type": "node", "id": 3918631065, "lat": 46.4468807, "lon": 30.7640404}, {"type": "node", "id": 3918631066, "lat": 46.4471285, "lon": 30.7653462}, {"type": "node", "id": 3918631085, "lat": 46.4473551, "lon": 30.7652457}, {"type": "node", "id": 3918631087, "lat": 46.4475186, "lon": 30.7649893}, {"type": "node", "id": 3918631089, "lat": 46.4476517, "lon": 30.7636867}, {"type": "node", "id": 3918631092, "lat": 46.447867, "lon": 30.7647962}, {"type": "node", "id": 3918903025, "lat": 46.4454535, "lon": 30.7666378, "tags": {"addr:housenumber": "85", "addr:street": "\u0424\u0440\u0430\u043d\u0446\u0443\u0437\u044c\u043a\u0438\u0439 \u0431\u0443\u043b\u044c\u0432\u0430\u0440", "amenity": "restaurant", "name": "\u041f\u0430\u0440\u043a \u0420\u0435\u0437\u0438\u0434\u0435\u043d\u0441", "name:en": "Park residence", "name:uk": "\u041f\u0430\u0440\u043a \u0420\u0435\u0437\u0438\u0434\u0435\u043d\u0441"}}, {"type": "node", "id": 3918903027, "lat": 46.4469197, "lon": 30.767161, "tags": {"amenity": "restaurant", "name": "\u0411\u043b\u0435\u0444", "name:en": "Blef", "name:uk": "\u0411\u043b\u0435\u0444"}}, {"type": "node", "id": 3924465149, "lat": 46.4289776, "lon": 30.7664924}, {"type": "node", "id": 3924465150, "lat": 46.4289049, "lon": 30.766494}, {"type": "node", "id": 3927410345, "lat": 46.4050447, "lon": 30.7552373}, {"type": "node", "id": 3927410346, "lat": 46.4048649, "lon": 30.7548288}, {"type": "node", "id": 3933136297, "lat": 46.455982, "lon": 30.7461258, "tags": {"amenity": "restaurant", "name": "\u0411\u0430\u043d\u043a\u0438\u0440\u0441\u044c\u043a\u0438\u0439 \u0434\u0456\u043c", "name:ru": "\u0411\u0430\u043d\u043a\u0438\u0440\u0441\u043a\u0438\u0439 \u0434\u043e\u043c", "name:uk": "\u0411\u0430\u043d\u043a\u0438\u0440\u0441\u044c\u043a\u0438\u0439 \u0434\u0456\u043c"}}, {"type": "node", "id": 3982019593, "lat": 46.3974187, "lon": 30.7242014}, {"type": "node", "id": 3982019594, "lat": 46.3974076, "lon": 30.7240401}, {"type": "node", "id": 4070520644, "lat": 46.4266772, "lon": 30.6925899}, {"type": "node", "id": 4083606254, "lat": 46.4535768, "lon": 30.768189}, {"type": "node", "id": 4083606255, "lat": 46.4535796, "lon": 30.7683122}, {"type": "node", "id": 4083606256, "lat": 46.4537727, "lon": 30.7681796}, {"type": "node", "id": 4083606257, "lat": 46.4537755, "lon": 30.7683029}, {"type": "node", "id": 4121726492, "lat": 46.484888, "lon": 30.7391839, "tags": {"addr:housenumber": "15", "addr:street": "\u0404\u0432\u0440\u043e\u043f\u0435\u0439\u0441\u044c\u043a\u0430 \u0432\u0443\u043b\u0438\u0446\u044f", "amenity": "restaurant", "cuisine": "italian", "internet_access": "wlan", "name": "Fanconi", "name:uk": "Fanconi", "opening_hours": "24/7", "phone": "+380 482 34 6666", "website": "http://www.fanconi.ua/"}}, {"type": "node", "id": 4140495748, "lat": 46.3996945, "lon": 30.7519786}, {"type": "node", "id": 4198458289, "lat": 46.4741017, "lon": 30.7644905, "tags": {"amenity": "restaurant", "name": "\u0410\u0432\u043e\u043a\u0430\u0434\u043e", "name:en": "Avocado", "name:ru": "\u0410\u0432\u043e\u043a\u0430\u0434\u043e", "name:uk": "\u0410\u0432\u043e\u043a\u0430\u0434\u043e"}}, {"type": "node", "id": 4209218286, "lat": 46.4499674, "lon": 30.6824513, "tags": {"addr:housenumber": "1\u0430", "addr:postcode": "65033", "addr:street": "\u0432\u0443\u043b\u0438\u0446\u044f \u041c\u0430\u043b\u0456\u0448\u0435\u0432\u0441\u044c\u043a\u043e\u0433\u043e", "amenity": "restaurant", "internet_access": "wlan", "name": "\u0421\u0412\u0421", "name:ru": "\u0421\u0412\u0421", "name:uk": "\u0421\u0412\u0421", "opening_hours": "Mo-Su 10:00-00:00"}}, {"type": "node", "id": 4214458515, "lat": 46.4302186, "lon": 30.7625839, "tags": {"addr:housenumber": "1", "addr:street": "\u0410\u0440\u043a\u0430\u0434\u0456\u0439\u0441\u044c\u043a\u0430 \u0430\u043b\u0435\u044f", "amenity": "restaurant", "internet_access": "wlan", "name": "Mangal House", "name:uk": "Mangal House", "opening_hours": "24/7"}}, {"type": "node", "id": 4221649001, "lat": 46.4781195, "lon": 30.7381955}, {"type": "node", "id": 4221649002, "lat": 46.4808485, "lon": 30.7409271, "tags": {"addr:housenumber": "21", "addr:street": "\u0432\u0443\u043b\u0438\u0446\u044f \u041d\u0456\u043d\u0438 \u0421\u0442\u0440\u043e\u043a\u0430\u0442\u043e\u0457", "amenity": "restaurant", "cuisine": "regional;international", "internet_access": "wlan", "name": "\u0429\u0430\u0441\u0442\u044f", "name:en": "Shchastie", "name:ru": "\u0421\u0447\u0430\u0441\u0442\u044c\u0435", "name:uk": "\u0429\u0430\u0441\u0442\u044f", "opening_hours": "09:00-01:00"}}, {"type": "node", "id": 4221672070, "lat": 46.4853516, "lon": 30.7364186, "tags": {"amenity": "restaurant", "cuisine": "pizza", "name": "Olio Pizza", "name:ru": "\u041e\u043b\u0438\u043e \u043f\u0438\u0446\u0446\u0430", "name:uk": "Olio Pizza"}}, {"type": "node", "id": 4221672071, "lat": 46.4852709, "lon": 30.7375251, "tags": {"amenity": "restaurant", "cuisine": "french", "name": "Desire", "name:ru": "\u0414\u0435\u0437\u0438\u0440\u0435", "name:uk": "Desire"}}, {"type": "node", "id": 4222243198, "lat": 46.4854698, "lon": 30.7304935, "tags": {"addr:housenumber": "15", "addr:street": "\u0421\u0430\u0434\u043e\u0432\u0430 \u0432\u0443\u043b\u0438\u0446\u044f", "amenity": "restaurant", "cuisine": "international;pizza", "internet_access": "wlan", "name": "Mario's", "name:en": "Mario's", "name:ru": "\u041c\u0430\u0440\u0438\u043e", "name:uk": "Mario's", "opening_hours": "Mo-Su 09:00-23:00", "website": "https://mariospizza.com.ua/"}}, {"type": "node", "id": 4222275892, "lat": 46.4878584, "lon": 30.740358, "tags": {"amenity": "restaurant", "cuisine": "pizza;grill", "internet_access": "wlan", "name": "Pizza & Grill", "name:uk": "Pizza & Grill", "opening_hours": "Su-Th 10:00-01:00; Fr-Sa 10:00-02:00", "website": "pizza-grill.com.ua"}}, {"type": "node", "id": 4222275893, "lat": 46.484983, "lon": 30.7313711, "tags": {"addr:housenumber": "19", "addr:street": "\u0421\u0430\u0434\u043e\u0432\u0430 \u0432\u0443\u043b\u0438\u0446\u044f", "amenity": "restaurant", "contact:instagram": "https://www.instagram.com/benedikt.odessa/", "cuisine": "breakfast", "delivery": "yes", "internet_access": "wlan", "internet_access:password": "goodmorning", "internet_access:wlan:ssid": "Benedikt24", "name": "Benedikt", "name:en": "Benedikt", "name:ru": "\u0411\u0435\u043d\u0435\u0434\u0438\u043a\u0442", "name:uk": "\u0411\u0435\u043d\u0435\u0434\u0438\u043a\u0442", "opening_hours": "Mo-Su 09:00-22:00", "phone": "+380 93 759 9898"}}, {"type": "node", "id": 4227251692, "lat": 46.4721727, "lon": 30.7388266, "tags": {"addr:housenumber": "64", "addr:street": "\u0420\u0456\u0448\u0435\u043b\u044c\u0454\u0432\u0441\u044c\u043a\u0430 \u0432\u0443\u043b\u0438\u0446\u044f", "amenity": "restaurant", "internet_access": "wlan", "name": "Salat Bar", "name:uk": "Salat Bar", "opening_hours": "Mo-Su 09:00-23:00"}}, {"type": "node", "id": 4237865089, "lat": 46.4851194, "lon": 30.7397521, "tags": {"addr:housenumber": "18", "addr:street": "\u041b\u0430\u043d\u0436\u0435\u0440\u043e\u043d\u0456\u0432\u0441\u044c\u043a\u0430 \u0432\u0443\u043b\u0438\u0446\u044f", "amenity": "restaurant", "contact:instagram": "https://www.instagram.com/maman.rest/", "cuisine": "regional;breakfast;mediterranean", "diet:vegetarian": "yes", "internet_access": "wlan", "name": "Maman", "name:en": "Maman", "name:ru": "\u041c\u0430\u043c\u0430\u043d", "name:uk": "Maman", "opening_hours": "Su-Th 11:00-23:00; Fr-Sa 11:00-24:00", "phone": "+380 48 711 7035"}}, {"type": "node", "id": 4268457604, "lat": 46.4749335, "lon": 30.731088, "tags": {"amenity": "restaurant", "cuisine": "italian;pizza", "internet_access": "wlan", "name": "\u0411\u0435\u043b\u043b\u0430 \u0406\u0442\u0430\u043b\u0456\u044f", "name:en": "Bella Italia", "name:ru": "\u0411\u0435\u043b\u043b\u0430 \u0418\u0442\u0430\u043b\u0438\u044f", "name:uk": "\u0411\u0435\u043b\u043b\u0430 \u0406\u0442\u0430\u043b\u0456\u044f", "opening_hours": "Mo-Su 10:00-00:00", "phone": "+380 63 190 0122", "website": "https://pizza-kvartal.com/"}}, {"type": "node", "id": 4269852391, "lat": 46.4426355, "lon": 30.7498118, "tags": {"amenity": "restaurant", "cuisine": "italian_pizza", "internet_access": "wlan", "name": "\u0406\u0442\u0430\u043b\u0456\u0439\u0441\u044c\u043a\u0438\u0439 \u043a\u0432\u0430\u0440\u0442\u0430\u043b", "name:en": "Italyanskyi Kvartal", "name:uk": "\u0406\u0442\u0430\u043b\u0456\u0439\u0441\u044c\u043a\u0438\u0439 \u043a\u0432\u0430\u0440\u0442\u0430\u043b", "opening_hours": "Mo-Sa 10:00-24:00; Su 11:00-24:00", "phone": "+380 63 190 0054", "website": "https://pizza-kvartal.com/"}}, {"type": "node", "id": 4279643889, "lat": 46.4820473, "lon": 30.7446539, "tags": {"amenity": "restaurant", "cuisine": "fish;regional", "internet_access": "wlan", "name": "\u0411\u0430\u0431\u0435\u043b\u044c \u0424\u0438\u0448", "name:en": "Babel Fish", "name:uk": "\u0411\u0430\u0431\u0435\u043b\u044c \u0424\u0438\u0448", "website": "http://babelfish.com.ua"}}, {"type": "node", "id": 4286161289, "lat": 46.465217, "lon": 30.7461977, "tags": {"addr:housenumber": "7", "addr:street": "\u0413\u0440\u0435\u0446\u044c\u043a\u0430 \u0432\u0443\u043b\u0438\u0446\u044f", "amenity": "restaurant", "contact:instagram": "https://www.instagram.com/gre4ka_cafe/", "cuisine": "fish;local;regional;seafood", "internet_access": "wlan", "name": "\u0413\u0440\u0435\u0447\u043a\u0430", "name:en": "Hrechka", "name:uk": "\u0413\u0440\u0435\u0447\u043a\u0430", "opening_hours": "Mo-Su 10:00-23:00", "phone": "+380 48 783 1637", "website": "https://gre4kacafe.business.site/"}}, {"type": "node", "id": 4305632911, "lat": 46.445757, "lon": 30.742239, "tags": {"addr:city": "\u041e\u0434\u0435\u0441\u0430", "addr:housenumber": "18", "addr:street": "\u0421\u0435\u0433\u0435\u0434\u0441\u044c\u043a\u0430 \u0432\u0443\u043b\u0438\u0446\u044f", "amenity": "restaurant", "name": "Sova", "name:uk": "Sova", "phone": "+380 66 507 4085", "website": "http://www.sova.rest"}}, {"type": "node", "id": 4306494166, "lat": 46.4804503, "lon": 30.7433372, "tags": {"addr:city": "Odessa", "addr:housenumber": "15", "addr:street": "\u0432\u0443\u043b\u0438\u0446\u044f \u041d\u0456\u043d\u0438 \u0421\u0442\u0440\u043e\u043a\u0430\u0442\u043e\u0457", "amenity": "restaurant", "name": "Bernardazzi", "name:ru": "\u0411\u0435\u0440\u043d\u0430\u0440\u0434\u0430\u0446\u0446\u0438", "name:uk": "Bernardazzi", "opening_hours": "Su-Th 12:00-23:00; Fr-Sa 12:00-24:00"}}, {"type": "node", "id": 4307065370, "lat": 46.4729544, "lon": 30.7546322, "tags": {"amenity": "restaurant", "internet_access": "wlan", "name": "Varadero", "name:ru": "\u0412\u0430\u0440\u0430\u0434\u0435\u0440\u043e", "name:uk": "Varadero", "opening_hours": "Mo-Su 08:00-00:00", "phone": "+380 482 37 3406"}}, {"type": "node", "id": 4311178466, "lat": 46.463544, "lon": 30.657893}, {"type": "node", "id": 4311178467, "lat": 46.4635489, "lon": 30.6579852}, {"type": "node", "id": 4311178472, "lat": 46.4635563, "lon": 30.6577244}, {"type": "node", "id": 4311178473, "lat": 46.4635651, "lon": 30.6578906}, {"type": "node", "id": 4311178482, "lat": 46.46362, "lon": 30.6578832}, {"type": "node", "id": 4311178485, "lat": 46.4636237, "lon": 30.6577169}, {"type": "node", "id": 4311178486, "lat": 46.463625, "lon": 30.6579767}, {"type": "node", "id": 4311178487, "lat": 46.4636324, "lon": 30.6578818}, {"type": "node", "id": 4316095390, "lat": 46.3815022, "lon": 30.7499268, "tags": {"addr:housenumber": "15", "addr:street": "\u041c\u0430\u044f\u0447\u043d\u0438\u0439 \u043f\u0440\u043e\u0432\u0443\u043b\u043e\u043a", "amenity": "restaurant", "cuisine": "french;georgian;greek;italian;spanish", "internet_access": "wlan", "name": "YUG", "name:en": "YUG", "name:ru": "YUG", "name:uk": "\u042e\u0433", "opening_hours": "Mo-Su 10:00-00:00", "phone": "+380 68 504 5000", "website": "http://yug.in.ua"}}, {"type": "node", "id": 4323682109, "lat": 46.4451996, "lon": 30.6806692}, {"type": "node", "id": 4323682110, "lat": 46.4452003, "lon": 30.6804138}, {"type": "node", "id": 4323682115, "lat": 46.4452731, "lon": 30.6806696}, {"type": "node", "id": 4323682116, "lat": 46.4452737, "lon": 30.6804141}, {"type": "node", "id": 4327056292, "lat": 46.5866496, "lon": 30.7901864, "tags": {"addr:housenumber": "129", "addr:street": "\u043f\u0440\u043e\u0441\u043f\u0435\u043a\u0442 \u041a\u043d\u044f\u0437\u044f \u0412\u043e\u043b\u043e\u0434\u0438\u043c\u0438\u0440\u0430 \u0412\u0435\u043b\u0438\u043a\u043e\u0433\u043e", "amenity": "restaurant", "cuisine": "italian_pizza", "internet_access": "wlan", "name": "\u0406\u0442\u0430\u043b\u0456\u0439\u0441\u044c\u043a\u0438\u0439 \u043a\u0432\u0430\u0440\u0442\u0430\u043b", "name:en": "Italiiskyi Kvartal", "name:ru": "\u0418\u0442\u0430\u043b\u044c\u044f\u043d\u0441\u043a\u0438\u0439 \u041a\u0432\u0430\u0440\u0442\u0430\u043b", "name:uk": "\u0406\u0442\u0430\u043b\u0456\u0439\u0441\u044c\u043a\u0438\u0439 \u043a\u0432\u0430\u0440\u0442\u0430\u043b", "opening_hours": "Mo-Su 11:00-00:00", "website": "https://pizza-kvartal.com/"}}, {"type": "node", "id": 4329628893, "lat": 46.4853256, "lon": 30.7307636, "tags": {"addr:housenumber": "17", "addr:street": "\u0421\u0430\u0434\u043e\u0432\u0430 \u0432\u0443\u043b\u0438\u0446\u044f", "amenity": "restaurant", "cuisine": "seafood", "internet_access": "wlan", "name": "\u041a\u043e\u0442\u0435\u043b\u043e\u043a", "name:en": "Kotelok", "name:ru": "\u041a\u043e\u0442\u0435\u043b\u043e\u043a", "name:uk": "\u041a\u043e\u0442\u0435\u043b\u043e\u043a", "opening_hours": "Mo-Su 09:00-23:00"}}, {"type": "node", "id": 4330077589, "lat": 46.4829508, "lon": 30.7389092, "tags": {"amenity": "restaurant", "name": "MONICA", "name:ru": "\u041c\u041e\u041d\u0418\u041a\u0410", "name:uk": "MONICA"}}, {"type": "node", "id": 4330130602, "lat": 46.4847658, "lon": 30.7418559, "tags": {"amenity": "restaurant", "cuisine": "japanese", "name": "\u041a\u043e\u0431\u0435", "name:en": "Kobe", "name:uk": "\u041a\u043e\u0431\u0435", "wheelchair": "yes"}}, {"type": "node", "id": 4330718893, "lat": 46.3680342, "lon": 30.7300816}, {"type": "node", "id": 4330718894, "lat": 46.3680934, "lon": 30.7301586}, {"type": "node", "id": 4330718896, "lat": 46.3681178, "lon": 30.7299465}, {"type": "node", "id": 4330718897, "lat": 46.3681771, "lon": 30.7300236}, {"type": "node", "id": 4332885911, "lat": 46.4836296, "lon": 30.7411363, "tags": {"addr:housenumber": "5", "addr:street": "\u0420\u0456\u0448\u0435\u043b\u044c\u0454\u0432\u0441\u044c\u043a\u0430 \u0432\u0443\u043b\u0438\u0446\u044f", "amenity": "restaurant", "cuisine": "pizza", "name": "Zara Pizzara", "name:uk": "Zara Pizzara", "opening_hours": "08:30-24:00", "website": "http://zarapizzara.com.ua/"}}, {"type": "node", "id": 4332900382, "lat": 46.4840058, "lon": 30.7419193, "tags": {"addr:housenumber": "10", "addr:street": "\u0414\u0435\u0440\u0438\u0431\u0430\u0441\u043e\u0432\u0441\u043a\u0430\u044f \u0443\u043b\u0438\u0446\u0430", "amenity": "restaurant", "name": "\u0426\u0435\u0437\u0430\u0440\u044c", "name:en": "Caesar", "name:ru": "\u0426\u0435\u0437\u0430\u0440\u044c", "name:uk": "\u0426\u0435\u0437\u0430\u0440", "opening_hours": "10:00-23:00"}}, {"type": "node", "id": 4332900384, "lat": 46.483885, "lon": 30.7440261, "tags": {"amenity": "restaurant", "name": "Casa Nova", "name:uk": "Casa Nova", "opening_hours": "12:00-24:00"}}, {"type": "node", "id": 4335005089, "lat": 46.4792566, "lon": 30.7494583, "tags": {"amenity": "restaurant", "description": "\u0412\u0435\u0433\u0435\u0442\u0430\u0440\u0456\u0430\u043d\u0441\u044c\u043a\u0430 \u0456 \u0441\u0438\u0440\u043e\u0457\u0434\u0441\u044c\u043a\u0430 \u043a\u0443\u0445\u043d\u044f. \u041d\u0435 \u0432\u0438\u043a\u043e\u0440\u0438\u0441\u0442\u043e\u0432\u0443\u0454\u0442\u044c\u0441\u044f \u0446\u0443\u043a\u043e\u0440, \u0431\u043e\u0440\u043e\u0448\u043d\u043e, \u0431\u0456\u043b\u043a\u0438 \u0442\u0432\u0430\u0440\u0438\u043d\u043d\u043e\u0433\u043e \u043f\u043e\u0445\u043e\u0434\u0436\u0435\u043d\u043d\u044f \u0456 \u0448\u043a\u0456\u0434\u043b\u0438\u0432\u0456 \u0434\u043e\u0431\u0430\u0432\u043a\u0438. \u0417\u0430\u043a\u043b\u0430\u0434 \u0440\u043e\u0437\u0440\u0430\u0445\u043e\u0432\u0430\u043d\u0438\u0439 \u043d\u0430 60 \u043c\u0456\u0441\u0446\u044c.", "diet:vegetarian": "yes", "internet_access": "wlan", "name": "True", "name:uk": "True", "opening_hours": "Mo-Su 09:00-22:00", "phone": "+380 48 799 7797", "website": "http://true.org.ua"}}, {"type": "node", "id": 4360338293, "lat": 46.4854136, "lon": 30.7362024, "tags": {"addr:housenumber": "7", "addr:street": "\u0413\u0430\u0432\u0430\u043d\u043d\u0430 \u0432\u0443\u043b\u0438\u0446\u044f", "amenity": "restaurant", "cuisine": "savory_pancakes;regional;pancake", "diet:vegetarian": "yes", "internet_access": "wlan", "name": "\u041a\u0443\u043c\u0430\u043d\u0435\u0446\u044c", "name:ru": "\u041a\u0443\u043c\u0430\u043d\u0435\u0446", "name:uk": "\u041a\u0443\u043c\u0430\u043d\u0435\u0446\u044c"}}, {"type": "node", "id": 4363501530, "lat": 46.3928535, "lon": 30.7194312}, {"type": "node", "id": 4364922794, "lat": 46.3930192, "lon": 30.7194304}, {"type": "node", "id": 4368179791, "lat": 46.4818137, "lon": 30.7324962, "tags": {"addr:housenumber": "42", "addr:street": "\u041f\u0440\u0435\u043e\u0431\u0440\u0430\u0436\u0435\u043d\u0441\u044c\u043a\u0430 \u0432\u0443\u043b\u0438\u0446\u044f", "amenity": "restaurant", "cuisine": "pasta;italian;pizza;burger", "delivery": "yes", "internet_access": "wlan", "name": "Nonna", "name:en": "Nonna", "name:uk": "Nonna", "website": "https://nonna.com.ua/"}}, {"type": "node", "id": 4369900603, "lat": 46.3988159, "lon": 30.7207463, "tags": {"entrance": "main"}}, {"type": "node", "id": 4371185590, "lat": 46.5825702, "lon": 30.8017778, "tags": {"amenity": "restaurant", "cuisine": "pizza", "name": "\u0420\u0435\u0441\u0442\u043e-\u041f\u0440\u0435\u0441\u0442\u043e", "name:en": "Resto-Presto", "name:ru": "\u0420\u0435\u0441\u0442\u043e-\u041f\u0440\u0435\u0441\u0442\u043e", "name:uk": "\u0420\u0435\u0441\u0442\u043e-\u041f\u0440\u0435\u0441\u0442\u043e", "opening_hours": "Mo-Su 10:00-22:00", "website": "https://resto-presto.com.ua/"}}, {"type": "node", "id": 4382736406, "lat": 46.5771558, "lon": 30.8065765, "tags": {"addr:housenumber": "36", "addr:street": "\u0432\u0443\u043b\u0438\u0446\u044f \u0410\u043a\u0430\u0434\u0435\u043c\u0456\u043a\u0430 \u0421\u0430\u0445\u0430\u0440\u043e\u0432\u0430", "amenity": "restaurant", "cuisine": "international", "name": "\u0421\u043c\u0430\u0440\u0430\u0433\u0434\u043e\u0432\u0438\u0439 \u0441\u0430\u0434", "name:en": "Izumrudnyi Sad", "name:ru": "\u0418\u0437\u0443\u043c\u0440\u0443\u0434\u043d\u044b\u0439 \u0441\u0430\u0434", "name:uk": "\u0421\u043c\u0430\u0440\u0430\u0433\u0434\u043e\u0432\u0438\u0439 \u0441\u0430\u0434", "website": "https://garden.od.ua/"}}, {"type": "node", "id": 4385988094, "lat": 46.4828073, "lon": 30.7383255, "tags": {"amenity": "restaurant", "cuisine": "pizza", "name": "Pizza City", "name:en": "Pizza City", "name:uk": "Pizza City"}}, {"type": "node", "id": 4385996800, "lat": 46.4840924, "lon": 30.7403484, "tags": {"addr:housenumber": "12", "addr:street": "\u0414\u0435\u0440\u0438\u0431\u0430\u0441\u0456\u0432\u0441\u044c\u043a\u0430 \u0432\u0443\u043b\u0438\u0446\u044f", "amenity": "restaurant", "name": "Bistekka", "name:en": "Bistekka", "name:ru": "\u0411\u0438\u0441\u0442\u0435\u043a\u043a\u0430", "name:uk": "Bistekka"}}, {"type": "node", "id": 4385996801, "lat": 46.4841086, "lon": 30.740224, "tags": {"amenity": "restaurant", "name": "\u0426\u0438\u043f\u043b\u044f\u0442\u0430 \u0422\u0430\u0431\u0430\u043a\u0430", "name:ru": "\u0426\u044b\u043f\u043b\u044f\u0442\u0430 \u0422\u0430\u0431\u0430\u043a\u0430", "name:uk": "\u0426\u0438\u043f\u043b\u044f\u0442\u0430 \u0422\u0430\u0431\u0430\u043a\u0430"}}, {"type": "node", "id": 4392680194, "lat": 46.4845938, "lon": 30.7309144, "tags": {"addr:housenumber": "2", "addr:street": "\u0421\u043e\u0431\u043e\u0440\u043d\u0430 \u043f\u043b\u043e\u0449\u0430", "amenity": "restaurant", "contact:instagram": "https://www.instagram.com/buonocafe.od/", "name": "Buono", "name:uk": "Buono"}}, {"type": "node", "id": 4394677925, "lat": 46.4777349, "lon": 30.7319314, "tags": {"addr:housenumber": "62", "addr:street": "\u041f\u0440\u0435\u043e\u0431\u0440\u0430\u0436\u0435\u043d\u0441\u044c\u043a\u0430 \u0432\u0443\u043b\u0438\u0446\u044f", "amenity": "restaurant", "cuisine": "italian_pizza", "internet_access": "wlan", "name": "\u0406\u0442\u0430\u043b\u0456\u0439\u0441\u044c\u043a\u0438\u0439 \u043a\u0432\u0430\u0440\u0442\u0430\u043b", "name:ru": "\u0418\u0442\u0430\u043b\u044c\u044f\u043d\u0441\u043a\u0438\u0439 \u041a\u0432\u0430\u0440\u0442\u0430\u043b", "name:uk": "\u0406\u0442\u0430\u043b\u0456\u0439\u0441\u044c\u043a\u0438\u0439 \u043a\u0432\u0430\u0440\u0442\u0430\u043b", "opening_hours": "10:00-00:00", "website": "https://pizza-kvartal.com/"}}, {"type": "node", "id": 4397936298, "lat": 46.4803287, "lon": 30.7381209, "tags": {"addr:housenumber": "30", "addr:street": "\u0404\u0432\u0440\u043e\u043f\u0435\u0439\u0441\u044c\u043a\u0430 \u0432\u0443\u043b\u0438\u0446\u044f", "amenity": "restaurant", "name": "\u0420\u0456\u0431\u0430\u0439", "name:ru": "\u0420\u044b\u0431\u0430\u0439", "name:uk": "\u0420\u0456\u0431\u0430\u0439", "opening_hours": "09:00-00:00", "website": "https://www.ribeye.od.ua/"}}, {"type": "node", "id": 4397963297, "lat": 46.4795993, "lon": 30.7368823, "tags": {"amenity": "restaurant", "cuisine": "italian", "internet_access": "wlan", "name": "\u0406\u0442\u0430\u043b\u0456\u0439\u0441\u044c\u043a\u0438\u0439 \u043a\u0432\u0430\u0440\u0442\u0430\u043b", "name:ru": "\u0418\u0442\u0430\u043b\u044c\u044f\u043d\u0441\u043a\u0438\u0439 \u041a\u0432\u0430\u0440\u0442\u0430\u043b", "name:uk": "\u0406\u0442\u0430\u043b\u0456\u0439\u0441\u044c\u043a\u0438\u0439 \u043a\u0432\u0430\u0440\u0442\u0430\u043b"}}, {"type": "node", "id": 4397964197, "lat": 46.4783485, "lon": 30.7344856, "tags": {"amenity": "restaurant", "name": "Cellini", "name:en": "Cellini", "name:uk": "Cellini", "opening_hours": "Mo-Su 11:00-23:00", "wheelchair": "yes"}}, {"type": "node", "id": 4400433813, "lat": 46.4159386, "lon": 30.7124698, "tags": {"addr:housenumber": "2", "addr:street": "\u043f\u0440\u043e\u0441\u043f\u0435\u043a\u0442 \u041d\u0435\u0431\u0435\u0441\u043d\u043e\u0457 \u0421\u043e\u0442\u043d\u0456", "amenity": "restaurant", "cuisine": "pizza", "internet_access": "wlan", "level": "1", "name": "Pomodoro", "name:en": "pomodoro.od.ua", "name:uk": "Pomodoro", "opening_hours": "Mo-Su 10:00-23:00", "website": "https://pomodoro.od.ua/"}}, {"type": "node", "id": 4401294590, "lat": 46.4728498, "lon": 30.7390295, "tags": {"amenity": "restaurant"}}, {"type": "node", "id": 4401894960, "lat": 46.4922689, "lon": 30.7484854, "tags": {"amenity": "restaurant", "name": "Di Mare", "name:uk": "Di Mare", "website": "https://dimare.od.ua/"}}, {"type": "node", "id": 4406864905, "lat": 46.4812945, "lon": 30.7392653, "tags": {"addr:housenumber": "24", "addr:street": "\u0432\u0443\u043b\u0438\u0446\u044f \u041d\u0456\u043d\u0438 \u0421\u0442\u0440\u043e\u043a\u0430\u0442\u043e\u0457", "amenity": "restaurant", "cuisine": "french", "email": "restaurant@grandprix.ua", "internet_access": "wlan", "name": "Grand Prix", "name:en": "Grand Prix", "name:ru": "\u0413\u0440\u0430\u043d\u0434 \u041f\u0440\u0438", "name:uk": "Grand Prix", "opening_hours": "10:00-00:00", "phone": "+380 48 785 0701;+380 95 101 0701", "website": "grandprix.ua"}}, {"type": "node", "id": 4409350972, "lat": 46.3928531, "lon": 30.7192653}, {"type": "node", "id": 4409350973, "lat": 46.3930188, "lon": 30.7192644}, {"type": "node", "id": 4411314196, "lat": 46.4754842, "lon": 30.7438997, "tags": {"amenity": "restaurant", "name": "The \u041b\u043e\u0436\u043a\u0430", "name:en": "Backpacker Food Oasis", "name:uk": "The \u041b\u043e\u0436\u043a\u0430", "wheelchair": "limited"}}, {"type": "node", "id": 4420403874, "lat": 46.4851147, "lon": 30.7399831, "tags": {"addr:housenumber": "14", "addr:postcode": "65026", "addr:street": "\u041b\u0430\u043d\u0436\u0435\u0440\u043e\u043d\u0456\u0432\u0441\u044c\u043a\u0430 \u0432\u0443\u043b\u0438\u0446\u044f", "amenity": "restaurant", "cuisine": "italian", "name": "COMO Italy bistro", "name:en": "COMO Italy bistro", "name:uk": "COMO Italy bistro", "opening_hours": "Mo-Su 09:00-22:00", "phone": "+38 073 095 09 60", "website": "https://como.choiceqr.com/"}}, {"type": "node", "id": 4428333244, "lat": 46.5765892, "lon": 30.7984173, "tags": {"entrance": "yes"}}, {"type": "node", "id": 4466903093, "lat": 46.3982052, "lon": 30.7103426, "tags": {"addr:housenumber": "36/1", "addr:street": "\u043f\u0440\u043e\u0441\u043f\u0435\u043a\u0442 \u041a\u043d\u044f\u0437\u044f \u042f\u0440\u043e\u0441\u043b\u0430\u0432\u0430 \u041c\u0443\u0434\u0440\u043e\u0433\u043e", "amenity": "restaurant", "cuisine": "georgian", "name": "Hayat", "name:uk": "Hayat", "opening_hours": "Mo-Su 10:00-00:00", "phone": "+380 73 322 0202", "website": "https://www.instagram.com/hayat_restaurant_od/"}}, {"type": "node", "id": 4469032731, "lat": 46.4000111, "lon": 30.731107}, {"type": "node", "id": 4469032732, "lat": 46.3999974, "lon": 30.731123}, {"type": "node", "id": 4469032733, "lat": 46.399988, "lon": 30.7311444}, {"type": "node", "id": 4469032734, "lat": 46.3999837, "lon": 30.7311687}, {"type": "node", "id": 4469032735, "lat": 46.399985, "lon": 30.7311945}, {"type": "node", "id": 4469032736, "lat": 46.3999916, "lon": 30.7312175}, {"type": "node", "id": 4469032737, "lat": 46.4000032, "lon": 30.7312371}, {"type": "node", "id": 4469032738, "lat": 46.4000183, "lon": 30.7312501}, {"type": "node", "id": 4469032739, "lat": 46.4000355, "lon": 30.7312555}, {"type": "node", "id": 4469032801, "lat": 46.4001617, "lon": 30.7311406}, {"type": "node", "id": 4469032802, "lat": 46.4001753, "lon": 30.7311356}, {"type": "node", "id": 4475535199, "lat": 46.4691546, "lon": 30.7539028}, {"type": "node", "id": 4475535204, "lat": 46.4692095, "lon": 30.7532257}, {"type": "node", "id": 4475535205, "lat": 46.4692271, "lon": 30.7534155}, {"type": "node", "id": 4479101774, "lat": 46.4428485, "lon": 30.7657835}, {"type": "node", "id": 4479101777, "lat": 46.4428734, "lon": 30.7658116}, {"type": "node", "id": 4479101780, "lat": 46.4429441, "lon": 30.765526}, {"type": "node", "id": 4479101781, "lat": 46.4429959, "lon": 30.7656232}, {"type": "node", "id": 4479101782, "lat": 46.4430042, "lon": 30.7657842}, {"type": "node", "id": 4488813378, "lat": 46.4888607, "lon": 30.7185614}, {"type": "node", "id": 4488813379, "lat": 46.4887589, "lon": 30.7185945}, {"type": "node", "id": 4488813380, "lat": 46.488809, "lon": 30.7185782}, {"type": "node", "id": 4557689153, "lat": 46.4062483, "lon": 30.7181124}, {"type": "node", "id": 4557689154, "lat": 46.4062897, "lon": 30.7183963}, {"type": "node", "id": 4557689155, "lat": 46.4060658, "lon": 30.7184649}, {"type": "node", "id": 4557689156, "lat": 46.4060244, "lon": 30.718181}, {"type": "node", "id": 4558286398, "lat": 46.4034609, "lon": 30.7129351}, {"type": "node", "id": 4558286399, "lat": 46.4035029, "lon": 30.7132772}, {"type": "node", "id": 4558286400, "lat": 46.4033567, "lon": 30.7133149}, {"type": "node", "id": 4558286401, "lat": 46.4033148, "lon": 30.7129727}, {"type": "node", "id": 4582556091, "lat": 46.4839867, "lon": 30.7376514, "tags": {"addr:postcode": "65026", "amenity": "restaurant", "cuisine": "sushi", "internet_access": "wlan", "name": "\u0421\u0443\u0448\u0456\u042f", "name:ru": "\u0421\u0443\u0448\u0438\u042f", "name:uk": "\u0421\u0443\u0448\u0438\u042f", "opening_hours": "Mo-Su 11:00-22:00", "phone": "+380 67 447 4630", "website": "https://sushiya.ua/"}}, {"type": "node", "id": 4627450589, "lat": 46.4814595, "lon": 30.731597}, {"type": "node", "id": 4627450590, "lat": 46.4814547, "lon": 30.7317021}, {"type": "node", "id": 4628552375, "lat": 46.4713479, "lon": 30.7488228, "tags": {"amenity": "restaurant", "description": "\u041e\u0442\u043a\u0440\u044b\u0442\u043e \u0441 12:00 \u0434\u043e 23:00 \u043a\u0430\u0436\u0434\u044b\u0439 \u0434\u0435\u043d\u044c.", "name": "\u0423 \u0410\u043d\u0433\u0435\u043b\u043e\u0432\u0438\u0445", "name:ru": "\u0423 \u0410\u043d\u0433\u0435\u043b\u043e\u0432\u044b\u0445", "name:uk": "\u0423 \u0410\u043d\u0433\u0435\u043b\u043e\u0432\u0438\u0445", "smoking": "outside"}}, {"type": "node", "id": 4674827000, "lat": 46.4128903, "lon": 30.7597572, "tags": {"addr:city": "\u041e\u0434\u0435\u0441\u0430", "addr:housenumber": "3", "addr:postcode": "65016", "addr:street": "\u0412\u0430\u043d\u043d\u0438\u0439 \u043f\u0440\u043e\u0432\u0443\u043b\u043e\u043a", "amenity": "restaurant", "capacity": "100", "cuisine": "regional", "delivery": "yes", "name": "Restaurant \"Stella Residence Club\"", "name:ru": "\u0420\u0435\u0441\u0442\u043e\u0440\u0430\u043d \"\u0421\u0442\u0435\u043b\u043b\u0430 \u0420\u0435\u0437\u0438\u0434\u0435\u043d\u0441 \u041a\u043b\u0430\u0431\"", "name:uk": "Restaurant \"Stella Residence Club\"", "outdoor_seating": "yes", "smoking": "outside", "takeaway": "yes"}}, {"type": "node", "id": 4710075157, "lat": 46.3993536, "lon": 30.7540421, "tags": {"addr:city": "\u041e\u0434\u0435\u0441\u0430", "addr:housenumber": "9", "addr:street": "13-\u044f \u0421\u0442\u0430\u043d\u0446\u0438\u044f \u0411\u043e\u043b\u044c\u0448\u043e\u0433\u043e \u0424\u043e\u043d\u0442\u0430\u043d\u0430 \u043f\u043b\u044f\u0436", "amenity": "restaurant", "name": "\u0406\u043a\u0440\u0430", "name:ru": "\u0418\u043a\u0440\u0430", "name:uk": "\u0406\u043a\u0440\u0430"}}, {"type": "node", "id": 4721565390, "lat": 46.4527009, "lon": 30.7388242, "tags": {"amenity": "restaurant", "name": "\u041f\u0435\u043a\u0456\u043d\u0441\u044c\u043a\u0430 \u043a\u0430\u0447\u043a\u0430", "name:ru": "\u041f\u0435\u043a\u0438\u043d\u0441\u043a\u0430\u044f \u0443\u0442\u043a\u0430", "name:uk": "\u041f\u0435\u043a\u0456\u043d\u0441\u044c\u043a\u0430 \u043a\u0430\u0447\u043a\u0430"}}, {"type": "node", "id": 4722043190, "lat": 46.5931808, "lon": 30.8004121, "tags": {"addr:housenumber": "126\u0430", "addr:street": "\u043f\u0440\u043e\u0441\u043f\u0435\u043a\u0442 \u041a\u043d\u044f\u0437\u044f \u0412\u043e\u043b\u043e\u0434\u0438\u043c\u0438\u0440\u0430 \u0412\u0435\u043b\u0438\u043a\u043e\u0433\u043e", "air_conditioning": "yes", "amenity": "restaurant", "cuisine": "barbecue;coffee_shop;friture;grill;ice_cream;local", "internet_access": "wlan", "name": "\u0421\u043a\u0430\u043d\u0434\u0438", "name:en": "Skandi", "name:ru": "\u0421\u043a\u0430\u043d\u0434\u0438", "name:uk": "\u0421\u043a\u0430\u043d\u0434\u0438", "opening_hours": "Mo-Su 12:00-01:00", "payment:mastercard": "yes", "payment:visa": "yes", "phone": "+380 68 819 1997", "website": "https://skandi.od.ua"}}, {"type": "node", "id": 4777531625, "lat": 46.3982156, "lon": 30.7235587, "tags": {"amenity": "restaurant", "name": "\u0428\u0430\u0443\u0440\u043c\u0430.", "name:ru": "\u0428\u0430\u0443\u0440\u043c\u0430.", "name:uk": "\u0428\u0430\u0443\u0440\u043c\u0430."}}, {"type": "node", "id": 4777531626, "lat": 46.3983152, "lon": 30.7234748, "tags": {"amenity": "restaurant", "name": "\u041f\u0456\u0446\u0435\u0440\u0456\u044f Sanapolino", "name:ru": "\u041f\u0438\u0446\u0446\u0435\u0440\u0438\u044f Sanapolino", "name:uk": "\u041f\u0456\u0446\u0435\u0440\u0456\u044f Sanapolino"}}, {"type": "node", "id": 4784255659, "lat": 46.5820174, "lon": 30.8127272}, {"type": "node", "id": 4784255660, "lat": 46.5819608, "lon": 30.812891}, {"type": "node", "id": 4784255661, "lat": 46.5823184, "lon": 30.8131526}, {"type": "node", "id": 4789443821, "lat": 46.4749003, "lon": 30.7314935, "tags": {"amenity": "restaurant", "name": "Grill House", "name:en": "Grill House", "name:uk": "Grill House", "opening_hours": "Mo-Su 10:00-23:00"}}, {"type": "node", "id": 4809747023, "lat": 46.4799978, "lon": 30.7365183, "tags": {"amenity": "restaurant", "name": "Budapest", "name:en": "Budapest", "name:ru": "\u0411\u0443\u0434\u0430\u043f\u0435\u0448\u0442", "name:uk": "Budapest", "opening_hours": "Mo-Su 09:00-23:00", "wheelchair": "yes"}}, {"type": "node", "id": 4839322003, "lat": 46.4710506, "lon": 30.764033, "tags": {"amenity": "restaurant", "cuisine": "regional", "name": "\u041f\u0430\u043b\u044c\u043c\u0430", "name:uk": "\u041f\u0430\u043b\u044c\u043c\u0430"}}, {"type": "node", "id": 4936536992, "lat": 46.4696125, "lon": 30.7314641, "tags": {"amenity": "restaurant", "name": "\u0423\u043a\u0440\u0430\u0457\u043d\u0441\u044c\u043a\u0456 \u0441\u0442\u0440\u0430\u0432\u0438", "name:uk": "\u0423\u043a\u0440\u0430\u0457\u043d\u0441\u044c\u043a\u0456 \u0441\u0442\u0440\u0430\u0432\u0438"}}, {"type": "node", "id": 4946428375, "lat": 46.4761241, "lon": 30.7644369}, {"type": "node", "id": 4946428376, "lat": 46.4761408, "lon": 30.7645925}, {"type": "node", "id": 4946428377, "lat": 46.476199, "lon": 30.7645793}, {"type": "node", "id": 4946428378, "lat": 46.4761824, "lon": 30.7644238}, {"type": "node", "id": 4950547721, "lat": 46.4718629, "lon": 30.7552531, "tags": {"amenity": "restaurant", "name": "\u0427\u0430\u0427\u0430", "name:en": "ChaCha", "name:uk": "\u0427\u0430\u0427\u0430", "opening_hours": "Mo-Su 11:00-23:00"}}, {"type": "node", "id": 4962419197, "lat": 46.5585284, "lon": 30.7282917, "tags": {"amenity": "restaurant", "name": "\u0407\u0434\u0430\u043b\u044c\u043d\u044f \u043f\u043e\u043b\u0456\u043a\u043b\u0456\u043d\u0456\u043a\u0438 \u0441\u0430\u043d\u0430\u0442\u043e\u0440\u0456\u044f \"\u041a\u0443\u044f\u043b\u044c\u043d\u0438\u043a\"", "name:ru": "\u0421\u0442\u043e\u043b\u043e\u0432\u0430\u044f \u043f\u043e\u043b\u0438\u043a\u043b\u0438\u043d\u0438\u043a\u0438 \u0441\u0430\u043d\u0430\u0442\u043e\u0440\u0438\u044f \"\u041a\u0443\u044f\u043b\u044c\u043d\u0438\u043a\"", "name:uk": "\u0407\u0434\u0430\u043b\u044c\u043d\u044f \u043f\u043e\u043b\u0456\u043a\u043b\u0456\u043d\u0456\u043a\u0438 \u0441\u0430\u043d\u0430\u0442\u043e\u0440\u0456\u044f \"\u041a\u0443\u044f\u043b\u044c\u043d\u0438\u043a\""}}, {"type": "node", "id": 4973964321, "lat": 46.546873, "lon": 30.7539584, "tags": {"addr:housenumber": "2", "addr:postcode": "65102", "addr:street": "\u043f\u0435\u0440\u0435\u0443\u043b\u043e\u043a \u0412\u0435\u043a\u0441\u043b\u0435\u0440\u0430", "amenity": "restaurant", "cuisine": "coffee_shop;local;seafood;pasta;pizza;sushi;breakfast;grill", "email": "nnn.com777@gmail.com", "internet_access": "wlan", "name": "\u0410\u043b\u044c\u0442\u0430\u043d\u043a\u0430", "name:ru": "\u0411\u0435\u0441\u0435\u0434\u043a\u0430", "name:uk": "\u0410\u043b\u044c\u0442\u0430\u043d\u043a\u0430", "opening_hours": "Su-Th 11:00-01:30; Fr 11:00-02:00; Sa 11:00-02:30", "phone": "+380 63 013 6884"}}, {"type": "node", "id": 4997842535, "lat": 46.4476629, "lon": 30.7562137}, {"type": "node", "id": 4997842536, "lat": 46.4477621, "lon": 30.7561536}, {"type": "node", "id": 5101215623, "lat": 46.4709719, "lon": 30.7445943, "tags": {"amenity": "restaurant", "name": "\u041c\u0430\u0440\u041c\u0430\u0440\u0430", "name:en": "MarMara", "name:uk": "\u041c\u0430\u0440\u041c\u0430\u0440\u0430"}}, {"type": "node", "id": 5205081586, "lat": 46.4815084, "lon": 30.7362351, "tags": {"amenity": "restaurant", "cuisine": "georgean", "name": "\u0425\u0456\u043d\u043a\u0430\u043b\u044c\u043d\u044f", "name:uk": "\u0425\u0456\u043d\u043a\u0430\u043b\u044c\u043d\u044f"}}, {"type": "node", "id": 5205217419, "lat": 46.4047954, "lon": 30.755106}, {"type": "node", "id": 5205243232, "lat": 46.4015874, "lon": 30.7550022}, {"type": "node", "id": 5205243233, "lat": 46.4016239, "lon": 30.7549065}, {"type": "node", "id": 5205243234, "lat": 46.4015622, "lon": 30.7548569}, {"type": "node", "id": 5205243235, "lat": 46.4015507, "lon": 30.754887}, {"type": "node", "id": 5205243236, "lat": 46.4014713, "lon": 30.7548232}, {"type": "node", "id": 5205243237, "lat": 46.4014462, "lon": 30.7548887}, {"type": "node", "id": 5214303024, "lat": 46.4745033, "lon": 30.751363, "tags": {"amenity": "restaurant", "cuisine": "regional", "internet_access": "wlan", "name": "\u0422\u0440\u044e\u043c", "name:en": "Trum", "name:uk": "\u0422\u0440\u044e\u043c", "opening_hours": "24/7", "phone": "+380 48 777 8886"}}, {"type": "node", "id": 5218972911, "lat": 46.4049677, "lon": 30.754883, "tags": {"entrance": "main"}}, {"type": "node", "id": 5271331438, "lat": 46.4628633, "lon": 30.7498346, "tags": {"amenity": "restaurant"}}, {"type": "node", "id": 5299088921, "lat": 46.4820402, "lon": 30.740878, "tags": {"amenity": "restaurant", "internet_access": "wlan", "name": "Givi to me", "name:uk": "Givi to me"}}, {"type": "node", "id": 5467310729, "lat": 46.4866524, "lon": 30.7357502, "tags": {"addr:street": "\u0413\u0430\u0432\u0430\u043d\u043d\u0430 \u0432\u0443\u043b\u0438\u0446\u044f", "amenity": "restaurant", "name": "\u0424\u0456\u0448 \u0406 \u041a\u0456\u0448", "name:en": "Fish and Kish", "name:ru": "\u0424\u0438\u0448 \u0438 \u041a\u0438\u0448", "name:uk": "\u0424\u0456\u0448 \u0406 \u041a\u0456\u0448"}}, {"type": "node", "id": 5467908421, "lat": 46.4809227, "lon": 30.7444259, "tags": {"amenity": "restaurant", "cuisine": "chinese;asian", "name": "\u041c\u043e\u043c\u043e\u044f\u043c\u0430", "name:en": "Momoyama", "name:uk": "\u041c\u043e\u043c\u043e\u044f\u043c\u0430", "wheelchair": "yes"}}, {"type": "node", "id": 5522596310, "lat": 46.4732933, "lon": 30.7550412, "tags": {"amenity": "restaurant", "cuisine": "regional", "name": "\u041a\u0430\u0447\u043a\u0430", "name:en": "Kachka", "name:uk": "\u041a\u0430\u0447\u043a\u0430", "website": "http://www.alpina.od.ua/"}}, {"type": "node", "id": 5633698422, "lat": 46.3995635, "lon": 30.727505}, {"type": "node", "id": 5633698423, "lat": 46.3995568, "lon": 30.7274371}, {"type": "node", "id": 5633698424, "lat": 46.3995568, "lon": 30.7274718}, {"type": "node", "id": 5633698425, "lat": 46.3995764, "lon": 30.7275342}, {"type": "node", "id": 5633698426, "lat": 46.3995636, "lon": 30.7274038}, {"type": "node", "id": 5673146021, "lat": 46.4404615, "lon": 30.756039, "tags": {"addr:postcode": "65009", "amenity": "restaurant", "internet_access": "wlan", "name": "\u0411\u0443\u0437\u0431\u0430\u0440", "name:en": "Boozebar", "name:uk": "\u0411\u0443\u0437\u0431\u0430\u0440", "opening_hours": "Mo-Su 10:00-00:00", "phone": "+380 96 636 5766", "website": "http://boozebar.com.ua"}}, {"type": "node", "id": 5696596967, "lat": 46.4063897, "lon": 30.723854}, {"type": "node", "id": 5696596968, "lat": 46.4065521, "lon": 30.7235313}, {"type": "node", "id": 5696679571, "lat": 46.3633928, "lon": 30.6964211}, {"type": "node", "id": 5696679575, "lat": 46.3637615, "lon": 30.6973729}, {"type": "node", "id": 5696679576, "lat": 46.363565, "lon": 30.6974297}, {"type": "node", "id": 5696679577, "lat": 46.3629075, "lon": 30.6973458}, {"type": "node", "id": 5696679578, "lat": 46.3627927, "lon": 30.696533}, {"type": "node", "id": 5696679875, "lat": 46.3632785, "lon": 30.6964656}, {"type": "node", "id": 5696679876, "lat": 46.3632028, "lon": 30.6965006}, {"type": "node", "id": 5696679879, "lat": 46.3630975, "lon": 30.6965177}, {"type": "node", "id": 5696679880, "lat": 46.3629874, "lon": 30.6965244}, {"type": "node", "id": 5749644525, "lat": 46.486689, "lon": 30.7354335, "tags": {"amenity": "restaurant", "name": "\u0420\u0438\u0431\u0430 \u0456 \u043a\u0438\u0448", "name:uk": "\u0420\u0438\u0431\u0430 \u0456 \u043a\u0438\u0448"}}, {"type": "node", "id": 5939261666, "lat": 46.485823, "lon": 30.7388973, "tags": {"amenity": "restaurant", "contact:facebook": "https://www.facebook.com/ALMEZZE/", "contact:instagram": "https://instagram.com/al_mezze", "cuisine": "middle_eastern;arab", "name": "Al Mezze", "name:uk": "Al Mezze", "website": "https://www.g-group.com.ua/"}}, {"type": "node", "id": 6071337717, "lat": 46.5707164, "lon": 30.7801512, "tags": {"amenity": "restaurant", "cuisine": "pizza", "internet_access": "yes;used", "name": "Presto Pizza", "name:uk": "Presto Pizza"}}, {"type": "node", "id": 6160010225, "lat": 46.3628423, "lon": 30.6969264, "tags": {"barrier": "gate"}}, {"type": "node", "id": 6299510176, "lat": 46.483713, "lon": 30.7369263, "tags": {"amenity": "restaurant", "name": "\u0424\u0430\u0440\u0448\u0438\u0440\u043e\u0432\u0430\u043d\u0430 \u0440\u0438\u0431\u0430", "name:uk": "\u0424\u0430\u0440\u0448\u0438\u0440\u043e\u0432\u0430\u043d\u0430 \u0440\u0438\u0431\u0430"}}, {"type": "node", "id": 6299510177, "lat": 46.482661, "lon": 30.7362219, "tags": {"amenity": "restaurant", "name": "GQ Restobar", "name:en": "GQ Restobar", "name:uk": "GQ Restobar"}}, {"type": "node", "id": 6409801486, "lat": 46.4860484, "lon": 30.7404783, "tags": {"amenity": "restaurant", "name": "BAO. 14", "name:en": "BAO. 14", "name:uk": "BAO. 14"}}, {"type": "node", "id": 6459926369, "lat": 46.4841189, "lon": 30.740422, "tags": {"addr:housenumber": "12", "addr:street": "\u0414\u0435\u0440\u0438\u0431\u0430\u0441\u0456\u0432\u0441\u044c\u043a\u0430 \u0432\u0443\u043b\u0438\u0446\u044f", "amenity": "restaurant", "contact:facebook": "https://www.facebook.com/turkuaz.od.ua/", "cuisine": "turkish", "name": "Turkuaz", "name:uk": "Turkuaz", "phone": "+380 48 711 7564", "website": "http://www.turkuaz.od.ua/"}}, {"type": "node", "id": 6482402816, "lat": 46.3912849, "lon": 30.7205091, "tags": {"amenity": "restaurant", "name": "Pizza&Gril", "name:uk": "Pizza&Gril", "wheelchair": "limited"}}, {"type": "node", "id": 6494825952, "lat": 46.4259524, "lon": 30.7234166, "tags": {"amenity": "restaurant", "name": "\u041c\u0456\u0441\u0442\u043e N", "name:uk": "\u041c\u0456\u0441\u0442\u043e N", "wheelchair": "limited"}}, {"type": "node", "id": 6499463594, "lat": 46.4842358, "lon": 30.7412459, "tags": {"amenity": "restaurant", "cuisine": "pizza", "name": "Mario\u2019s Trattoria", "name:uk": "Mario\u2019s Trattoria", "wheelchair": "yes"}}, {"type": "node", "id": 6503612724, "lat": 46.4730791, "lon": 30.7416728, "tags": {"amenity": "restaurant", "name": "\u0412\u0456\u0442\u0440\u0430\u0436", "name:uk": "\u0412\u0456\u0442\u0440\u0430\u0436", "wheelchair": "yes"}}, {"type": "node", "id": 6539198486, "lat": 46.4301869, "lon": 30.7618112, "tags": {"amenity": "restaurant", "cuisine": "international;breakfast", "name": "Benedikt", "name:ru": "\u0411\u0435\u043d\u0435\u0434\u0438\u043a\u0442", "name:uk": "Benedikt"}}, {"type": "node", "id": 6539757025, "lat": 46.4781186, "lon": 30.7482528, "tags": {"addr:housenumber": "27/1", "addr:postcode": "65000", "addr:street": "\u041a\u0430\u043d\u0430\u0442\u043d\u0430 \u0432\u0443\u043b\u0438\u0446\u044f", "amenity": "restaurant", "cuisine": "european;wine;french", "name": "Frebule", "name:uk": "Frebule", "opening_hours": "Mo-Su 10:00-23:00", "phone": "+380 48 788 1668", "website": "https://frebule.com/"}}, {"type": "node", "id": 6551449421, "lat": 46.3857835, "lon": 30.7208836}, {"type": "node", "id": 6551449422, "lat": 46.3857378, "lon": 30.7208823}, {"type": "node", "id": 6551449423, "lat": 46.3857095, "lon": 30.7211545}, {"type": "node", "id": 6551449424, "lat": 46.385765, "lon": 30.7211545}, {"type": "node", "id": 6551449425, "lat": 46.385765, "lon": 30.7212377}, {"type": "node", "id": 6551449426, "lat": 46.3858465, "lon": 30.7212243}, {"type": "node", "id": 6570082885, "lat": 46.3990515, "lon": 30.7329031, "tags": {"addr:housenumber": "160", "addr:postcode": "65000", "addr:street": "\u041b\u044e\u0441\u0442\u0434\u043e\u0440\u0441\u043a\u0430\u044f \u0434\u043e\u0440\u043e\u0433\u0430", "amenity": "restaurant", "cuisine": "regional;grill;coffee_shop;steak_house;beef_bowl;pasta;russian;pizza;fish_and_chips;chicken;fish;breakfast;sushi;seafood;local;friture", "diet:vegetarian": "yes", "internet_access": "wlan", "name": "\u0420\u0435\u0441\u0442\u043e\u0440\u0430\u043d \u041c\u0438", "name:en": "Almond Restaurant", "name:ru": "\u0420\u0435\u0441\u0442\u043e\u0440\u0430\u043d \u041c\u0438\u043d\u0434\u0430\u043b\u044c", "name:uk": "\u0420\u0435\u0441\u0442\u043e\u0440\u0430\u043d \u041c\u0438\u0433\u0434\u0430\u043b\u044c", "opening_hours": "24/7", "operator": "\u0410\u043b\u0435\u043d\u0430 \u041a\u0443\u043b\u0438\u043a \u041e\u043b\u0435\u0433\u043e\u0432\u043d\u0430", "phone": "+380 96 481 3232"}}, {"type": "node", "id": 6576428574, "lat": 46.388607, "lon": 30.7502929}, {"type": "node", "id": 6576428584, "lat": 46.3885299, "lon": 30.7504587}, {"type": "node", "id": 6576430290, "lat": 46.388528, "lon": 30.7504857}, {"type": "node", "id": 6576430291, "lat": 46.3885987, "lon": 30.750479}, {"type": "node", "id": 6649609639, "lat": 46.4866656, "lon": 30.6990624, "tags": {"amenity": "restaurant", "name": "\u0407\u0434\u0430\u043b\u044c\u043d\u044f", "name:uk": "\u0407\u0434\u0430\u043b\u044c\u043d\u044f"}}, {"type": "node", "id": 6718941486, "lat": 46.4839888, "lon": 30.7397436, "tags": {"amenity": "restaurant", "internet_access": "wlan", "name": "Irish pub", "name:cs": "Irsk\u00e1 putyka", "name:uk": "Irish pub"}}, {"type": "node", "id": 6796862185, "lat": 46.4851389, "lon": 30.7402428, "tags": {"amenity": "restaurant", "contact:instagram": "https://www.instagram.com/happyrest_od/", "name": "\u0429\u0430\u0441\u0442\u044f", "name:uk": "\u0429\u0430\u0441\u0442\u044f"}}, {"type": "node", "id": 6867248887, "lat": 46.4838322, "lon": 30.7442073, "tags": {"addr:housenumber": "5", "amenity": "restaurant", "cuisine": "seafood;local;regional;mediterranean;international", "email": "delanocontinental@gmail.com", "internet_access": "wlan", "name": "\u0414\u0435\u043b\u0430\u043d\u043e", "name:en": "Delano restaurant & bar", "name:uk": "\u0414\u0435\u043b\u0430\u043d\u043e", "opening_hours": "Mo-Su 07:30-23:00", "phone": "+380 63 745 9707"}}, {"type": "node", "id": 7020891128, "lat": 46.4454116, "lon": 30.7493665, "tags": {"addr:housenumber": "10/2", "addr:street": "\u0432\u0443\u043b\u0438\u0446\u044f \u0414\u043e\u0431\u0440\u043e\u0432\u043e\u043b\u044c\u0446\u0456\u0432", "air_conditioning": "yes", "amenity": "restaurant", "bar": "yes", "cuisine": "regional;american;burger", "internet_access": "wlan", "internet_access:fee": "no", "name": "\u0413\u0430\u0440\u044f\u0447\u0456 \u041f\u0435\u0440\u0446\u0456", "name:uk": "\u0413\u0430\u0440\u044f\u0447\u0456 \u041f\u0435\u0440\u0446\u0456", "opening_hours": "Mo-Su 12:00-23:59", "outdoor_seating": "yes", "phone": "+380 48 788 8812", "takeaway": "yes", "website": "https://g-group.com.ua/restaurants/goryachie-pertsy-na-marshala-govorova/"}}, {"type": "node", "id": 7024310257, "lat": 46.4818245, "lon": 30.7476878, "tags": {"addr:housenumber": "1\u0430", "addr:street": "\u0413\u0440\u0435\u0446\u044c\u043a\u0430 \u0432\u0443\u043b\u0438\u0446\u044f", "amenity": "restaurant", "cuisine": "regional", "name": "\u0420\u0435\u0441\u0442\u043e\u0440\u0430\u043d \u042e", "name:en": "Restaurant U", "name:uk": "\u0420\u0435\u0441\u0442\u043e\u0440\u0430\u043d \u042e", "opening_hours": "Mo-Su 11:00-23:00", "phone": "+380 73 333 7327", "website": "u-restaurant.com.ua"}}, {"type": "node", "id": 7024310265, "lat": 46.4834166, "lon": 30.7501796, "tags": {"addr:street": "\u041c\u0430\u0440\u0430\u0437\u043b\u0456\u0457\u0432\u0441\u044c\u043a\u0430 \u0432\u0443\u043b\u0438\u0446\u044f", "amenity": "restaurant", "name": "FRESCO CAFE", "name:uk": "FRESCO CAFE", "phone": "+380 94 924 3098"}}, {"type": "node", "id": 7123975622, "lat": 46.363737, "lon": 30.6974177}, {"type": "node", "id": 7123975623, "lat": 46.3631591, "lon": 30.6965197}, {"type": "node", "id": 7771207286, "lat": 46.4371065, "lon": 30.7154637}, {"type": "node", "id": 7771256843, "lat": 46.4370464, "lon": 30.7156085}, {"type": "node", "id": 7771256844, "lat": 46.4369928, "lon": 30.7155616}, {"type": "node", "id": 7771256845, "lat": 46.4370538, "lon": 30.7154168}, {"type": "node", "id": 7790976791, "lat": 46.4888527, "lon": 30.7185092, "tags": {"entrance": "yes"}}, {"type": "node", "id": 7836494385, "lat": 46.4757212, "lon": 30.7653586, "tags": {"addr:housenumber": "1", "addr:street": "\u041b\u0430\u043d\u0436\u0435\u0440\u043e\u043d \u043f\u043b\u044f\u0436", "amenity": "restaurant", "name": "MAMAN \u043d\u0430 \u043c\u043e\u0440\u0456. \u041e\u0434\u0435\u0441\u044c\u043a\u0430 \u041a\u0443\u0445\u043d\u044f", "name:en": "Maman", "name:ru": "\u041c\u0430\u043c\u0430\u043d \u043d\u0430 \u043c\u043e\u0440\u0435", "name:uk": "MAMAN \u043d\u0430 \u043c\u043e\u0440\u0456. \u041e\u0434\u0435\u0441\u044c\u043a\u0430 \u041a\u0443\u0445\u043d\u044f"}}, {"type": "node", "id": 7849427085, "lat": 46.475325, "lon": 30.7377973, "tags": {"amenity": "restaurant", "name": "Mangal No. 1", "name:uk": "Mangal No. 1"}}, {"type": "node", "id": 7850860430, "lat": 46.4265646, "lon": 30.6931609}, {"type": "node", "id": 7850877526, "lat": 46.4273753, "lon": 30.6922925}, {"type": "node", "id": 7899875085, "lat": 46.430288, "lon": 30.7664661, "tags": {"amenity": "restaurant", "name": "\u0410\u0440\u0430\u0440\u0430\u0442", "name:uk": "\u0410\u0440\u0430\u0440\u0430\u0442"}}, {"type": "node", "id": 7899875185, "lat": 46.4350014, "lon": 30.7598612, "tags": {"amenity": "restaurant", "name": "Pizza & Grill", "name:uk": "Pizza & Grill", "website": "https://pizzagrill.com.ua/"}}, {"type": "node", "id": 7998167912, "lat": 46.4819804, "lon": 30.7388341, "tags": {"amenity": "restaurant", "contact:facebook": "https://www.facebook.com/oblakarestoran", "contact:instagram": "https://www.instagram.com/oblaka_odessa/", "diet:vegetarian": "yes", "name": "\u041e\u0431\u043b\u0430\u043a\u0430", "name:en": "Oblaka", "name:ru": "\u041e\u0431\u043b\u0430\u043a\u0430", "name:uk": "\u041e\u0431\u043b\u0430\u043a\u0430", "opening_hours": "Mo-Su 11:00-01:00", "phone": "+380 98 453 0404;+380 50 453 0404"}}, {"type": "node", "id": 7998167913, "lat": 46.4880761, "lon": 30.7363685, "tags": {"amenity": "restaurant", "contact:facebook": "https://facebook.com/Sabaneev.Gourmet.Garden/", "contact:instagram": "https://www.instagram.com/sabaneev.gourmet.garden/", "cuisine": "european", "name": "\u0421\u0430\u0431\u0430\u043d\u0454\u0454\u0432 \u0440\u0435\u0441\u0442\u043e\u0440\u0430\u043d", "name:en": "Sabaneev restaurant", "name:ru": "\u0421\u0430\u0431\u0430\u043d\u0435\u0435\u0432 \u0440\u0435\u0441\u0442\u043e\u0440\u0430\u043d", "name:uk": "\u0421\u0430\u0431\u0430\u043d\u0454\u0454\u0432 \u0440\u0435\u0441\u0442\u043e\u0440\u0430\u043d", "opening_hours": "Mo-Su 10:00-24:00", "phone": "+380 93 680 3333", "website": "https://www.synergyodessa.com/restaurant/sabaneev/"}}, {"type": "node", "id": 7998167914, "lat": 46.4756443, "lon": 30.7603231, "tags": {"amenity": "restaurant", "name": "\u0413\u0430\u0439\u044f", "name:ru": "\u0413\u0430\u0439\u044f", "name:uk": "\u0413\u0430\u0439\u044f"}}, {"type": "node", "id": 8003241066, "lat": 46.483747, "lon": 30.7349869, "tags": {"amenity": "restaurant", "contact:facebook": "https://www.facebook.com/afrk.cafe/", "contact:instagram": "https://www.instagram.com/afrk.cafe/", "name": "Afrika", "name:uk": "Afrika", "opening_hours": "Mo-Su 09:00-24:00", "phone": "+380 48 770 1170", "website": "https://afrika.cafe/"}}, {"type": "node", "id": 8003241067, "lat": 46.4838231, "lon": 30.7349931, "tags": {"amenity": "restaurant", "contact:facebook": "https://www.facebook.com/krabisushicafe/", "contact:instagram": "https://www.instagram.com/krabicafe/", "cuisine": "asian;thai;japanese", "name": "Sushi Krabi", "name:uk": "Sushi Krabi", "opening_hours": "Mo-Su 10:00-23:30", "phone": "+380 68 168 9695;+380 63 877 7851", "website": "https://sushi-krabi.od.ua/"}}, {"type": "node", "id": 8018340920, "lat": 46.4820279, "lon": 30.7415533, "tags": {"addr:housenumber": "17", "addr:street": "\u0413\u0440\u0435\u0446\u044c\u043a\u0430 \u0432\u0443\u043b\u0438\u0446\u044f", "amenity": "restaurant", "name": "Fratelli", "name:ru": "\u0424\u0440\u0430\u0442\u0435\u043b\u043b\u0438", "name:uk": "Fratelli", "opening_hours": "12:00-00:00", "phone": "+380 48 738 4848", "website": "https://www.facebook.com/fratelli.odessa/"}}, {"type": "node", "id": 8278894577, "lat": 46.4065679, "lon": 30.7236678, "tags": {"entrance": "main"}}, {"type": "node", "id": 8384194856, "lat": 46.4866407, "lon": 30.7357233, "tags": {"addr:housenumber": "1", "addr:street": "\u043f\u0435\u0440\u0435\u0443\u043b\u043e\u043a \u041c\u0430\u044f\u043a\u043e\u0432\u0441\u043a\u043e\u0433\u043e", "amenity": "restaurant", "name": "\u041b\u044f \u0422\u044e\u043b\u044c\u043a\u0430", "name:uk": "\u041b\u044f \u0422\u044e\u043b\u044c\u043a\u0430", "opening_hours": "Mo-Su 10:00-23:00", "phone": "+380 48 743 9366"}}, {"type": "node", "id": 8561745103, "lat": 46.591525, "lon": 30.7891436, "tags": {"addr:housenumber": "16\u0430", "addr:street": "\u0432\u0443\u043b\u0438\u0446\u044f \u0412\u043b\u0430\u0434\u0438\u0441\u043b\u0430\u0432\u0430 \u0411\u0443\u0432\u0430\u043b\u043a\u0456\u043d\u0430", "amenity": "restaurant", "contact:facebook": "buzinacafe", "contact:instagram": "cafebuzina", "email": "buzinacafe@gmail.com", "internet_access": "wlan", "name": "Buzina", "name:uk": "Buzina", "phone": "+380 48 717 4145;+380 96 960 5043", "website": "https://buzina.com.ua/"}}, {"type": "node", "id": 8622217496, "lat": 46.4006949, "lon": 30.754775}, {"type": "node", "id": 8622217497, "lat": 46.4005371, "lon": 30.7546813}, {"type": "node", "id": 8622217498, "lat": 46.4005032, "lon": 30.7548163}, {"type": "node", "id": 8622217503, "lat": 46.4004952, "lon": 30.7548731}, {"type": "node", "id": 8622217504, "lat": 46.4005274, "lon": 30.7548929}, {"type": "node", "id": 8622217505, "lat": 46.4005604, "lon": 30.7549023}, {"type": "node", "id": 8622217506, "lat": 46.4005958, "lon": 30.7548964}, {"type": "node", "id": 8622217507, "lat": 46.4006192, "lon": 30.7548894}, {"type": "node", "id": 8622217508, "lat": 46.4006425, "lon": 30.7548743}, {"type": "node", "id": 8622217509, "lat": 46.4006691, "lon": 30.7548474}, {"type": "node", "id": 8622217510, "lat": 46.400686, "lon": 30.7548147}, {"type": "node", "id": 8628625369, "lat": 46.428683, "lon": 30.7661729, "tags": {"addr:housenumber": "1", "addr:street": "\u0410\u0440\u043a\u0430\u0434\u0456\u0439\u0441\u044c\u043a\u0430 \u0430\u043b\u0435\u044f", "amenity": "restaurant", "name": "NASH \u0440\u0435\u0441\u0442\u043e\u0440\u0430\u043d \u0443\u043a\u0440\u0430\u0457\u043d\u0441\u044c\u043a\u043e\u0457 \u043a\u0443\u0445\u043d\u0456", "name:uk": "NASH \u0440\u0435\u0441\u0442\u043e\u0440\u0430\u043d \u0443\u043a\u0440\u0430\u0457\u043d\u0441\u044c\u043a\u043e\u0457 \u043a\u0443\u0445\u043d\u0456"}}, {"type": "node", "id": 8628625370, "lat": 46.4286767, "lon": 30.766183, "tags": {"addr:housenumber": "1", "addr:street": "\u0410\u0440\u043a\u0430\u0434\u0456\u0439\u0441\u044c\u043a\u0430 \u0430\u043b\u0435\u044f", "amenity": "restaurant", "name": "\u041d\u0410\u0428 \u0440\u0435\u0441\u0442\u043e\u0440\u0430\u043d", "name:uk": "\u041d\u0410\u0428 \u0440\u0435\u0441\u0442\u043e\u0440\u0430\u043d"}}, {"type": "node", "id": 8629001727, "lat": 46.4159377, "lon": 30.7124798, "tags": {"addr:housenumber": "2", "addr:street": "\u043f\u0440\u043e\u0441\u043f\u0435\u043a\u0442 \u041d\u0435\u0431\u0435\u0441\u043d\u043e\u0457 \u0421\u043e\u0442\u043d\u0456", "amenity": "restaurant", "cuisine": "pizza", "name": "\u041f\u043e\u043c\u043e\u0434\u043e\u0440\u043e", "name:uk": "\u041f\u043e\u043c\u043e\u0434\u043e\u0440\u043e"}}, {"type": "node", "id": 8629787745, "lat": 46.4051141, "lon": 30.7549601}, {"type": "node", "id": 8629797389, "lat": 46.4414759, "lon": 30.7664889, "tags": {"addr:housenumber": "54/23", "addr:street": "\u0424\u0440\u0430\u043d\u0446\u0443\u0437\u044c\u043a\u0438\u0439 \u0431\u0443\u043b\u044c\u0432\u0430\u0440", "amenity": "restaurant", "name": "\u0410\u0437\u0443\u043c\u0430", "name:en": "Azuma", "name:uk": "\u0410\u0437\u0443\u043c\u0430"}}, {"type": "node", "id": 8631215499, "lat": 46.4850818, "lon": 30.7354849, "tags": {"addr:housenumber": "10", "addr:street": "\u0413\u0430\u0432\u0430\u043d\u043d\u0430 \u0432\u0443\u043b\u0438\u0446\u044f", "amenity": "restaurant", "name": "Jardin", "name:ru": "\u0416\u0430\u0440\u0434\u0438\u043d", "name:uk": "Jardin"}}, {"type": "node", "id": 8631223337, "lat": 46.4762739, "lon": 30.7652945, "tags": {"addr:housenumber": "1\u0411", "addr:street": "\u041b\u0430\u043d\u0436\u0435\u0440\u043e\u043d \u043f\u043b\u044f\u0436", "amenity": "restaurant", "name": "\u0422\u0435\u0440\u0430\u0441\u0430 \u0421\u0456 \u0412\u044c\u044e", "name:uk": "\u0422\u0435\u0440\u0430\u0441\u0430 \u0421\u0456 \u0412\u044c\u044e"}}, {"type": "node", "id": 8631228383, "lat": 46.4820225, "lon": 30.7415706, "tags": {"addr:housenumber": "17", "addr:street": "\u0413\u0440\u0435\u0446\u044c\u043a\u0430 \u0432\u0443\u043b\u0438\u0446\u044f", "amenity": "restaurant", "name": "\u0424\u0440\u0430\u0442\u0435\u043b\u043b\u0438", "name:uk": "\u0424\u0440\u0430\u0442\u0435\u043b\u043b\u0438", "opening_hours": "12:00-00:00", "phone": "+380 48 738 4848", "website": "https://www.facebook.com/fratelli.odessa/"}}, {"type": "node", "id": 8631299634, "lat": 46.4843771, "lon": 30.7368572, "tags": {"addr:housenumber": "18", "addr:street": "\u0414\u0435\u0440\u0438\u0431\u0430\u0441\u0456\u0432\u0441\u044c\u043a\u0430 \u0432\u0443\u043b\u0438\u0446\u044f", "amenity": "restaurant", "name": "Pasta & Pizza", "name:ru": "\u041f\u0430\u0441\u0442\u0430 \u0438 \u041f\u0438\u0446\u0446\u0430", "name:uk": "Pasta & Pizza"}}, {"type": "node", "id": 8631332163, "lat": 46.4838077, "lon": 30.7349899, "tags": {"addr:housenumber": "3/7", "addr:street": "\u043f\u0440\u043e\u0432\u0443\u043b\u043e\u043a \u0412\u0456\u0446\u0435-\u0430\u0434\u043c\u0456\u0440\u0430\u043b\u0430 \u0416\u0443\u043a\u043e\u0432\u0430", "amenity": "restaurant", "name": "Golden Rice", "name:ru": "\u0413\u043e\u043b\u0434\u0435\u043d \u0420\u0430\u0439\u0441", "name:uk": "Golden Rice"}}, {"type": "node", "id": 8631345331, "lat": 46.4801454, "lon": 30.7344753, "tags": {"addr:housenumber": "6", "addr:street": "\u041e\u043b\u0435\u043a\u0441\u0430\u043d\u0434\u0440\u0456\u0432\u0441\u044c\u043a\u0438\u0439 \u043f\u0440\u043e\u0441\u043f\u0435\u043a\u0442", "amenity": "restaurant", "name": "Flagman", "name:ru": "\u0424\u043b\u0430\u0433\u043c\u0430\u043d", "name:uk": "\u0424\u043b\u0430\u0433\u043c\u0430\u043d"}}, {"type": "node", "id": 8631953648, "lat": 46.4888102, "lon": 30.7338635, "tags": {"addr:housenumber": "7", "addr:street": "\u043f\u0440\u043e\u0432\u0443\u043b\u043e\u043a \u041d\u0435\u043a\u0440\u0430\u0441\u043e\u0432\u0430", "amenity": "restaurant", "name": "Sophie Cafe", "name:ru": "\u0421\u043e\u0444\u0438 \u041a\u0430\u0444\u0435", "name:uk": "Sophie Cafe"}}, {"type": "node", "id": 8631957137, "lat": 46.4332607, "lon": 30.7577491, "tags": {"addr:housenumber": "9/12", "addr:street": "\u0422\u0456\u043d\u0438\u0441\u0442\u0430 \u0432\u0443\u043b\u0438\u0446\u044f", "amenity": "restaurant", "name": "\u0414\u0435\u0432\u0430\u0440\u0430\u043d\u0430 Thai Restaurant&Spa", "name:ru": "\u0414\u0435\u0432\u0430\u0440\u0430\u043d\u0430", "name:uk": "\u0414\u0435\u0432\u0430\u0440\u0430\u043d\u0430 Thai Restaurant&Spa"}}, {"type": "node", "id": 8631973993, "lat": 46.4796172, "lon": 30.7346767, "tags": {"addr:housenumber": "8", "addr:street": "\u041e\u043b\u0435\u043a\u0441\u0430\u043d\u0434\u0440\u0456\u0432\u0441\u044c\u043a\u0438\u0439 \u043f\u0440\u043e\u0441\u043f\u0435\u043a\u0442", "amenity": "restaurant", "name": "Nonna Letizia", "name:ru": "\u041d\u043e\u043d\u0430 \u041b\u0435\u0442\u0438\u0437\u0438\u044f", "name:uk": "Nonna Letizia"}}, {"type": "node", "id": 8631986300, "lat": 46.4366664, "lon": 30.7498821, "tags": {"addr:housenumber": "5", "addr:street": "\u0421\u043e\u043d\u044f\u0447\u043d\u0430 \u0432\u0443\u043b\u0438\u0446\u044f", "amenity": "restaurant", "name": "\u0410\u043a\u0432\u0430\u0440\u0435\u043b\u044c", "name:uk": "\u0410\u043a\u0432\u0430\u0440\u0435\u043b\u044c"}}, {"type": "node", "id": 8632020025, "lat": 46.4363374, "lon": 30.7593738, "tags": {"addr:housenumber": "3\u0431", "addr:street": "\u0413\u0435\u043d\u0443\u0435\u0437\u044c\u043a\u0430 \u0432\u0443\u043b\u0438\u0446\u044f", "amenity": "restaurant", "name": "Slow Piggy", "name:ru": "\u0421\u043b\u043e\u0443 \u041f\u0438\u0433\u0433\u0438", "name:uk": "Slow Piggy"}}, {"type": "node", "id": 8632023105, "lat": 46.4357039, "lon": 30.7583807, "tags": {"addr:housenumber": "24\u0431", "addr:street": "\u0413\u0435\u043d\u0443\u0435\u0437\u044c\u043a\u0430 \u0432\u0443\u043b\u0438\u0446\u044f", "amenity": "restaurant", "name": "Le Grill", "name:ru": "\u041b\u0435 \u0413\u0440\u0438\u043b\u044c", "name:uk": "Le Grill"}}, {"type": "node", "id": 8632284496, "lat": 46.4159361, "lon": 30.752697, "tags": {"addr:housenumber": "93/1", "addr:street": "\u0424\u043e\u043d\u0442\u0430\u043d\u0441\u044c\u043a\u0430 \u0434\u043e\u0440\u043e\u0433\u0430", "amenity": "restaurant", "name": "MAMAN \u043d\u0430 \u0424\u043e\u043d\u0442\u0430\u043d\u0435", "name:ru": "\u041c\u0430\u043c\u0430\u043d \u043d\u0430 \u0424\u043e\u043d\u0442\u0430\u043d\u0435", "name:uk": "MAMAN \u043d\u0430 \u0424\u043e\u043d\u0442\u0430\u043d\u0435"}}, {"type": "node", "id": 8636288926, "lat": 46.4814703, "lon": 30.7367255, "tags": {"amenity": "restaurant", "cuisine": "georgian", "diet:vegetarian": "yes", "name": "Gaga", "name:uk": "Gaga", "opening_hours": "PH,Mo-Su 11:00-23:00"}}, {"type": "node", "id": 8644068350, "lat": 46.3983539, "lon": 30.7111295, "tags": {"addr:housenumber": "36/1", "addr:street": "\u043f\u0440\u043e\u0441\u043f\u0435\u043a\u0442 \u041a\u043d\u044f\u0437\u044f \u042f\u0440\u043e\u0441\u043b\u0430\u0432\u0430 \u041c\u0443\u0434\u0440\u043e\u0433\u043e", "amenity": "restaurant", "name": "\u0421\u0442\u0430\u0440 \u041f\u0438\u0446\u0446\u0430", "name:en": "StarPizzaCafe", "name:uk": "\u0421\u0442\u0430\u0440 \u041f\u0438\u0446\u0446\u0430"}}, {"type": "node", "id": 8644070527, "lat": 46.5801605, "lon": 30.8035308, "tags": {"addr:housenumber": "12", "addr:street": "\u0432\u0443\u043b\u0438\u0446\u044f \u042f\u0440\u043e\u0441\u043b\u0430\u0432\u0430 \u0411\u0430\u0457\u0441\u0430", "amenity": "restaurant", "name": "\u0421\u0442\u0430\u0440 \u041f\u0438\u0446\u0446\u0430", "name:en": "StarPizzaCafe", "name:uk": "\u0421\u0442\u0430\u0440 \u041f\u0438\u0446\u0446\u0430"}}, {"type": "node", "id": 8709851972, "lat": 46.4827252, "lon": 30.7398686, "tags": {"alt_name": "SuKe \u044f\u043f\u043e\u043d\u0441\u044c\u043a\u0435 \u0431\u0456\u0441\u0442\u0440\u043e", "alt_name:en": "SuKe Japanese Bistro", "amenity": "restaurant", "contact:instagram": "https://www.instagram.com/suke.japanese/", "cuisine": "japanese;asian", "name": "SuKe", "name:en": "SuKe", "name:uk": "SuKe", "opening_hours": "Mo-Su 09:00-24:00", "phone": "+380 96 202 0280"}}, {"type": "node", "id": 8720486925, "lat": 46.4842599, "lon": 30.7392758, "tags": {"amenity": "restaurant", "contact:facebook": "https://www.facebook.com/amsterdam.odessa/", "contact:instagram": "https://www.instagram.com/amsterdam.odessa/", "cuisine": "european;breakfast", "name": "\u0410\u043c\u0441\u0442\u0435\u0440\u0434\u0430\u043c", "name:en": "Amsterdam", "name:ru": "\u0410\u043c\u0441\u0442\u0435\u0440\u0434\u0430\u043c", "name:uk": "\u0410\u043c\u0441\u0442\u0435\u0440\u0434\u0430\u043c", "opening_hours": "24/7", "phone": "+380 50 732 4109"}}, {"type": "node", "id": 8721525062, "lat": 46.4859974, "lon": 30.738907, "tags": {"amenity": "restaurant", "contact:facebook": "https://www.facebook.com/vandalodessa/", "contact:instagram": "https://www.instagram.com/vandalodessa/", "name": "Vandal", "name:uk": "Vandal", "phone": "+380 73 370 7776"}}, {"type": "node", "id": 8721525063, "lat": 46.4861018, "lon": 30.7389208, "tags": {"amenity": "restaurant", "contact:facebook": "https://www.facebook.com/louloucafe.odessa/", "contact:instagram": "https://www.instagram.com/loulou.odessa/", "name": "Lou Lou", "name:uk": "Lou Lou", "opening_hours": "Mo-Su 09:00-24:00", "phone": "+380 68 700 3070"}}, {"type": "node", "id": 9023477317, "lat": 46.4684678, "lon": 30.7531643}, {"type": "node", "id": 9062004823, "lat": 46.4702471, "lon": 30.7633474, "tags": {"amenity": "restaurant", "cuisine": "asian", "name": "\u0414\u044f\u0434\u044e\u0448\u043a\u0430 \u0427\u0430\u043e", "name:uk": "\u0414\u044f\u0434\u044e\u0448\u043a\u0430 \u0427\u0430\u043e"}}, {"type": "node", "id": 9180613573, "lat": 46.4475771, "lon": 30.7637225, "tags": {"barrier": "gate"}}, {"type": "node", "id": 9622406936, "lat": 46.4852796, "lon": 30.7308488, "tags": {"amenity": "restaurant", "cuisine": "chinese", "name": "Chinatown", "name:uk": "Chinatown"}}, {"type": "node", "id": 9630426519, "lat": 46.4813982, "lon": 30.7378243, "tags": {"addr:housenumber": "28", "addr:street": "\u0432\u0443\u043b\u0438\u0446\u044f \u041d\u0456\u043d\u0438 \u0421\u0442\u0440\u043e\u043a\u0430\u0442\u043e\u0457", "amenity": "restaurant", "cuisine": "sushi", "name": "Navi", "name:uk": "Navi", "website": "https://navisushi.od.ua/"}}, {"type": "node", "id": 9710321640, "lat": 46.5842495, "lon": 30.8015174, "tags": {"amenity": "restaurant", "cuisine": "chinese", "diet:meat": "yes", "diet:pescetarian": "yes", "diet:vegetarian": "yes", "name": "Chin-Chin", "name:uk": "Chin-Chin", "website": "https://chin-chin.ua/"}}, {"type": "node", "id": 9957448077, "lat": 46.3994968, "lon": 30.751757}, {"type": "node", "id": 9957448078, "lat": 46.3994225, "lon": 30.7519186}, {"type": "node", "id": 9957448079, "lat": 46.3994078, "lon": 30.7520487}, {"type": "node", "id": 9957448080, "lat": 46.3996622, "lon": 30.7521077}, {"type": "node", "id": 9960597855, "lat": 46.582375, "lon": 30.8129887}, {"type": "node", "id": 10148600810, "lat": 46.5788958, "lon": 30.7899919, "tags": {"addr:housenumber": "71", "addr:street": "\u041a\u0440\u0438\u043c\u0441\u044c\u043a\u0430 \u0432\u0443\u043b\u0438\u0446\u044f", "amenity": "restaurant", "contact:facebook": "sushiboss.od.ua", "contact:instagram": "sushiboss.ukraine", "cuisine": "pizza;sushi", "name": "\u0421\u0443\u0448\u0456\u0431\u043e\u0441", "name:en": "Sushiboss", "name:uk": "\u0421\u0443\u0448\u0456\u0431\u043e\u0441", "opening_hours": "Mo-Su 10:00-22:00", "phone": "+380675848104;+380937077732;+380501643909", "website": "https://odessa.sushiboss.od.ua/"}}, {"type": "node", "id": 10148600846, "lat": 46.5757358, "lon": 30.7950576, "tags": {"addr:housenumber": "94", "addr:street": "\u0432\u0443\u043b\u0438\u0446\u044f \u0421\u0435\u043c\u0435\u043d\u0430 \u041f\u0430\u043b\u0456\u044f", "amenity": "restaurant", "contact:instagram": "https://www.instagram.com/roll_club/", "cuisine": "sushi", "name": "Roll Club", "name:uk": "Roll Club", "opening_hours": "Mo-Su 10:00-21:00", "website": "https://roll-club.od.ua/"}}, {"type": "node", "id": 10148621859, "lat": 46.5725001, "lon": 30.8053713, "tags": {"addr:housenumber": "20/1", "addr:street": "\u0432\u0443\u043b\u0438\u0446\u044f \u0410\u043a\u0430\u0434\u0435\u043c\u0456\u043a\u0430 \u0421\u0430\u0445\u0430\u0440\u043e\u0432\u0430", "amenity": "restaurant", "contact:instagram": "https://www.instagram.com/zeus_pizza_online/", "cuisine": "pizza", "name": "Zeus Pizza", "name:uk": "Zeus Pizza"}}, {"type": "node", "id": 10279731909, "lat": 46.5684759, "lon": 30.7793034, "tags": {"amenity": "restaurant", "name": "\u0421\u043c\u0430\u0439\u043b \u0444\u0443\u0434", "name:en": "Smile food", "name:uk": "\u0421\u043c\u0430\u0439\u043b \u0444\u0443\u0434", "website": "https://smilefood.od.ua/"}}, {"type": "node", "id": 10693798605, "lat": 46.4470169, "lon": 30.7484744, "tags": {"amenity": "restaurant", "cuisine": "coffee_shop;japanese;pizza;thai", "email": "info@yusumi.com.ua", "internet_access": "wlan", "name": "YUSUMI", "name:uk": "YUSUMI", "opening_hours": "Su-Sa 10:00-21:00", "phone": "0800339853", "website": "https://yusumi.com.ua/"}}, {"type": "node", "id": 10723897706, "lat": 46.4811317, "lon": 30.737511, "tags": {"addr:housenumber": "27", "addr:street": "\u0432\u0443\u043b\u0438\u0446\u044f \u041d\u0456\u043d\u0438 \u0421\u0442\u0440\u043e\u043a\u0430\u0442\u043e\u0457", "amenity": "restaurant", "cuisine": "barbecue;breakfast;burger;chicken;coffee_shop;diner;fine_dining", "internet_access": "wlan", "name": "Noire Smoke Different", "name:uk": "Noire Smoke Different", "opening_hours": "Su-Sa 12:00-22:30", "phone": "0684442454", "website": "https://noire.ee/"}}, {"type": "node", "id": 11013049705, "lat": 46.4806115, "lon": 30.7441883, "tags": {"amenity": "restaurant", "name": "\u0428\u0435\u0440\u043b\u043e\u043a \u0425\u043e\u043b\u043c\u0441", "name:uk": "\u0428\u0435\u0440\u043b\u043e\u043a \u0425\u043e\u043b\u043c\u0441"}}, {"type": "node", "id": 11089293288, "lat": 46.4827945, "lon": 30.7388816, "tags": {"addr:housenumber": "32", "addr:street": "\u0413\u0440\u0435\u0446\u044c\u043a\u0430 \u0432\u0443\u043b\u0438\u0446\u044f", "amenity": "restaurant", "contact:facebook": "fb.com/nikos.od.ua", "cuisine": "greek", "name": "Nikos Greek Bistro", "name:en": "Nikos Greek Bistro", "opening_hours": "Mo-Su 11:00-22:00", "payment:cash": "yes", "payment:mastercard": "yes", "payment:visa": "yes", "phone": "+380 673023232", "website": "https://nikos.od.ua/", "wheelchair": "no"}}, {"type": "node", "id": 11089293289, "lat": 46.4827487, "lon": 30.7392313, "tags": {"addr:housenumber": "32", "addr:street": "\u0413\u0440\u0435\u0446\u044c\u043a\u0430 \u0432\u0443\u043b\u0438\u0446\u044f", "amenity": "restaurant", "name": "Kitsa Pan Asian bistro & bar", "name:uk": "Kitsa Pan Asian bistro & bar", "opening_hours": "Mo"}}, {"type": "node", "id": 11093054170, "lat": 46.4760345, "lon": 30.7636771, "tags": {"addr:housenumber": "33", "addr:postcode": "65000", "addr:street": "\u041b\u0430\u043d\u0436\u0435\u0440\u043e\u043d \u043f\u043b\u044f\u0436", "amenity": "restaurant", "cuisine": "georgian", "name": "\u0425\u0456\u043d\u043a\u0430\u043b\u044c\u043d\u044f", "name:uk": "\u0425\u0456\u043d\u043a\u0430\u043b\u044c\u043d\u044f", "opening_hours": "Mo-Su 11:00-22:00", "phone": "+38 097 563 6886", "website": "https://hinkalnya.od.ua"}}, {"type": "node", "id": 11093061859, "lat": 46.4807772, "lon": 30.7419385, "tags": {"addr:housenumber": "17", "addr:postcode": "65000", "addr:street": "\u0432\u0443\u043b\u0438\u0446\u044f \u041d\u0456\u043d\u0438 \u0421\u0442\u0440\u043e\u043a\u0430\u0442\u043e\u0457", "amenity": "restaurant", "cuisine": "asian", "name": "Yourz Asia Bar", "opening_hours": "We-Su 12:00-22:00", "phone": "063 888 36 26", "website": "https://www.instagram.com/yourz.asia.bar"}}, {"type": "node", "id": 11148330547, "lat": 46.4856264, "lon": 30.7361539, "tags": {"amenity": "restaurant", "name": "\u0406\u0440\u0436\u0430\u0432\u0438\u0439 \u043a\u0440\u0430\u0431", "name:uk": "\u0406\u0440\u0436\u0430\u0432\u0438\u0439 \u043a\u0440\u0430\u0431"}}, {"type": "node", "id": 11148355073, "lat": 46.4799404, "lon": 30.7385422, "tags": {"amenity": "restaurant", "contact:instagram": "misi_bistro", "name": "Misi", "name:uk": "Misi", "opening_hours": "Mo-Su 10:00-22:00", "website": "https://misi.choiceqr.com"}}, {"type": "node", "id": 11148355074, "lat": 46.4802797, "lon": 30.7381166, "tags": {"amenity": "restaurant", "name": "Antica Cucine", "name:uk": "Antica Cucine"}}, {"type": "node", "id": 11148355075, "lat": 46.4806197, "lon": 30.7386696, "tags": {"amenity": "restaurant", "name": "\u0425\u0430\u0434\u0436\u0438\u0431\u0435\u0439", "name:uk": "\u0425\u0430\u0434\u0436\u0438\u0431\u0435\u0439", "website": "https://hadjibey.od.ua"}}, {"type": "node", "id": 11148366215, "lat": 46.4839112, "lon": 30.7385906, "tags": {"amenity": "restaurant", "name": "\u0410\u043b\u0456 \u0411\u0430\u0431\u0430", "name:uk": "\u0410\u043b\u0456 \u0411\u0430\u0431\u0430"}}, {"type": "node", "id": 11148366218, "lat": 46.4846634, "lon": 30.7333898, "tags": {"amenity": "restaurant", "name": "\u0421\u043a\u0430\u043d\u0434\u0456", "name:uk": "\u0421\u043a\u0430\u043d\u0434\u0456"}}, {"type": "node", "id": 11389833805, "lat": 46.4276964, "lon": 30.7507468, "tags": {"amenity": "restaurant", "check_date": "2023-12-02"}}, {"type": "node", "id": 11391982372, "lat": 46.4773899, "lon": 30.7523401}, {"type": "node", "id": 11417109470, "lat": 46.479654, "lon": 30.7406473, "tags": {"amenity": "restaurant", "name": "\u0421\u0430\u0434\u0438 \u0411\u0430\u0431\u0435\u043b\u044f", "name:en": "Babel gardens", "name:uk": "\u0421\u0430\u0434\u0438 \u0411\u0430\u0431\u0435\u043b\u044f"}}, {"type": "node", "id": 11464676266, "lat": 46.4361744, "lon": 30.7269762, "tags": {"amenity": "restaurant", "check_date": "2023-12-28", "cuisine": "sushi"}}, {"type": "node", "id": 11499112278, "lat": 46.4332038, "lon": 30.747507, "tags": {"amenity": "restaurant", "check_date": "2024-01-07", "cuisine": "pizza"}}, {"type": "node", "id": 11530057158, "lat": 46.4349964, "lon": 30.7205105, "tags": {"amenity": "restaurant", "check_date": "2024-01-18", "cuisine": "pizza", "name": "\u0406\u0442\u0430\u043b\u0456\u0439\u0441\u044c\u043a\u0438\u0439 \u043a\u0432\u0430\u0440\u0442\u0430\u043b", "name:uk": "\u0406\u0442\u0430\u043b\u0456\u0439\u0441\u044c\u043a\u0438\u0439 \u043a\u0432\u0430\u0440\u0442\u0430\u043b"}}, {"type": "node", "id": 11564955777, "lat": 46.4782727, "lon": 30.7302617, "tags": {"amenity": "restaurant", "name": "\u041b\u0430\u0431\u0456\u0440\u0438\u043d\u0442", "name:uk": "\u041b\u0430\u0431\u0456\u0440\u0438\u043d\u0442"}}, {"type": "node", "id": 11608951503, "lat": 46.4603846, "lon": 30.7138881}, {"type": "node", "id": 11608951504, "lat": 46.4605407, "lon": 30.7138785}, {"type": "node", "id": 11609365360, "lat": 46.4772578, "lon": 30.7523293}, {"type": "node", "id": 11609365361, "lat": 46.4772525, "lon": 30.752451}, {"type": "node", "id": 11609365362, "lat": 46.4773846, "lon": 30.7524634}, {"type": "node", "id": 11616437653, "lat": 46.4815494, "lon": 30.7313722}, {"type": "node", "id": 11616437654, "lat": 46.4815749, "lon": 30.7313937}, {"type": "node", "id": 11644738919, "lat": 46.4765343, "lon": 30.7396321, "tags": {"amenity": "restaurant", "check_date": "2024-02-18", "name": "\u0412\u0430\u0440\u0435\u043d\u0438\u0447\u043d\u0430", "name:uk": "\u0412\u0430\u0440\u0435\u043d\u0438\u0447\u043d\u0430"}}, {"type": "node", "id": 11817712714, "lat": 46.4063875, "lon": 30.7358603, "tags": {"amenity": "restaurant", "check_date": "2024-04-14", "outdoor_seating": "yes"}}, {"type": "node", "id": 11888031253, "lat": 46.4269047, "lon": 30.7510538, "tags": {"amenity": "restaurant", "check_date": "2024-05-05", "cuisine": "pizza", "name": "\u0406\u0442\u0430\u043b\u0456\u0439\u0441\u044c\u043a\u0438\u0439 \u043a\u0432\u0430\u0440\u0442\u0430\u043b"}}, {"type": "node", "id": 11976241792, "lat": 46.5847824, "lon": 30.8034657, "tags": {"amenity": "restaurant", "cuisine": "pizza"}}, {"type": "node", "id": 12015221126, "lat": 46.5816885, "lon": 30.7855062, "tags": {"amenity": "restaurant", "contact:instagram": "https://www.instagram.com/staryi_tbilisi", "cuisine": "georgian", "name": "\u0421\u0442\u0430\u0440\u0438\u0439 \u0422\u0431\u0456\u043b\u0456\u0441\u0456"}}, {"type": "node", "id": 12053140970, "lat": 46.4539162, "lon": 30.7661921}, {"type": "node", "id": 12218129944, "lat": 46.4267052, "lon": 30.692448}, {"type": "node", "id": 12218129947, "lat": 46.4275034, "lon": 30.6930711}, {"type": "node", "id": 12270608501, "lat": 46.4416863, "lon": 30.6368586, "tags": {"amenity": "restaurant", "cuisine": "vietnamese", "internet_access": "wlan", "name": "\u041a\u0438\u043c \u041a\u0430\u0444\u0435", "name:en": "Vietnamese cafe"}}, {"type": "node", "id": 12272766106, "lat": 46.4344576, "lon": 30.729831, "tags": {"entrance": "main"}}, {"type": "node", "id": 12272766107, "lat": 46.4344605, "lon": 30.7299383}, {"type": "node", "id": 12272766108, "lat": 46.4344733, "lon": 30.7298351}, {"type": "node", "id": 12272766109, "lat": 46.4345247, "lon": 30.7297253}, {"type": "node", "id": 12272766110, "lat": 46.4344971, "lon": 30.7299478}, {"type": "node", "id": 12272766111, "lat": 46.434428, "lon": 30.7298233}, {"type": "node", "id": 12272766112, "lat": 46.4344428, "lon": 30.7297039}, {"type": "way", "id": 154867538, "nodes": [1673347897, 2188168135, 2188168136, 2188168137, 2188168139, 2188168140, 2188168141, 2188168142, 2188168143, 2188168144, 2188168145, 2188168146, 2188168147, 2188168148, 2188168149, 2188168154, 1673347912, 1673347917, 1673347916, 1673347897], "tags": {"addr:housenumber": "11\u0430", "addr:postcode": "65058", "addr:street": "\u0410\u043a\u0430\u0434\u0435\u043c\u0456\u0447\u043d\u0430 \u0432\u0443\u043b\u0438\u0446\u044f", "amenity": "restaurant", "building": "yes", "building:levels": "3", "cuisine": "international", "internet_access": "wlan", "name": "\u0421\u043e\u043b\u043e", "name:en": "Solo", "name:uk": "\u0421\u043e\u043b\u043e", "opening_hours": "08:00-24:00"}}, {"type": "way", "id": 159812522, "nodes": [1719131680, 4469032801, 4469032802, 1719131754, 4469032739, 4469032738, 4469032737, 4469032736, 4469032735, 4469032734, 4469032733, 4469032732, 4469032731, 1719131680], "tags": {"addr:housenumber": "2\u0430", "addr:postcode": "65113", "addr:street": "\u043f\u0440\u043e\u0441\u043f\u0435\u043a\u0442 \u041a\u043d\u044f\u0437\u044f \u042f\u0440\u043e\u0441\u043b\u0430\u0432\u0430 \u041c\u0443\u0434\u0440\u043e\u0433\u043e", "amenity": "restaurant", "building": "yes", "cuisine": "pizza", "name": "Mario's", "name:uk": "Mario's"}}, {"type": "way", "id": 159812532, "nodes": [1719131745, 1719131620, 4369900603, 1719131641, 1719131657, 1719131745], "tags": {"addr:housenumber": "18", "addr:postcode": "65104", "addr:street": "\u043f\u0440\u043e\u0441\u043f\u0435\u043a\u0442 \u041a\u043d\u044f\u0437\u044f \u042f\u0440\u043e\u0441\u043b\u0430\u0432\u0430 \u041c\u0443\u0434\u0440\u043e\u0433\u043e", "air_conditioning": "yes", "amenity": "restaurant", "building": "yes", "cuisine": "regional;italian;japanese", "email": "mazzurrr@gmail.com", "name": "\u0429\u0430\u0441\u0442\u044f", "name:uk": "\u0429\u0430\u0441\u0442\u044f", "opening_hours": "Mo-Su 10:00-24:00", "outdoor_seating": "yes", "phone": "+380 98 569 4040", "website": "https://s4e.com.ua"}}, {"type": "way", "id": 159814815, "nodes": [1719152200, 1719151994, 1719152157, 2111156291, 1719152107, 1719152200], "tags": {"addr:housenumber": "172/3", "addr:postcode": "65113", "addr:street": "\u041b\u044e\u0441\u0442\u0434\u043e\u0440\u0444\u0441\u044c\u043a\u0430 \u0434\u043e\u0440\u043e\u0433\u0430", "amenity": "restaurant", "building": "yes", "building:levels": "3", "name": "\u0420\u0435\u043d\u0435\u0441\u0441\u0430\u043d\u0441", "name:en": "Renessans", "name:ru": "\u0420\u0435\u043d\u0435\u0441\u0441\u0430\u043d\u0441", "name:uk": "\u0420\u0435\u043d\u0435\u0441\u0441\u0430\u043d\u0441"}}, {"type": "way", "id": 159840308, "nodes": [1719380802, 5633698426, 5633698423, 5633698424, 5633698422, 5633698425, 1719380801, 1719380800, 1719380798, 1719380802], "tags": {"amenity": "restaurant", "building": "yes", "building:levels": "2", "cuisine": "pizza", "name": "Pomodoro", "name:ru": "\u041f\u043e\u043c\u043e\u0434\u043e\u0440\u043e", "name:uk": "Pomodoro"}}, {"type": "way", "id": 159895784, "nodes": [1719690782, 1719690135, 1719690281, 1719690440, 1719690782], "tags": {"addr:housenumber": "62\u0430", "addr:postcode": "65114", "addr:street": "\u0432\u0443\u043b\u0438\u0446\u044f \u041b\u0435\u0432\u0456\u0442\u0430\u043d\u0430", "amenity": "restaurant", "building": "yes", "name": "\u0420\u0435\u0441\u0442\u043e\u0440\u0430\u043d \"\u0425\u0430\u0440\u0431\u0456\u043d\"", "name:en": "Kharbin", "name:ru": "\u0420\u0435\u0441\u0442\u043e\u0440\u0430\u043d \"\u0425\u0430\u0440\u0431\u0438\u043d\"", "name:uk": "\u0420\u0435\u0441\u0442\u043e\u0440\u0430\u043d \"\u0425\u0430\u0440\u0431\u0456\u043d\""}}, {"type": "way", "id": 159895857, "nodes": [1719690578, 1719690111, 1719690112, 1719690623, 1719690578], "tags": {"addr:housenumber": "60/1", "addr:postcode": "65114", "addr:street": "\u0432\u0443\u043b\u0438\u0446\u044f \u0410\u043a\u0430\u0434\u0435\u043c\u0456\u043a\u0430 \u041a\u043e\u0440\u043e\u043b\u044c\u043e\u0432\u0430", "amenity": "restaurant", "building": "yes", "name": "\u0420\u0435\u0441\u0442\u043e\u0440\u0430\u043d \u0431\u0430\u0440 \"\u0413\u043e\u0440\u044f\u0447\u0456 \u043f\u0435\u0440\u0446\u0456\"", "name:en": "Hariachi Pertsi", "name:ru": "\u0420\u0435\u0441\u0442\u043e\u0440\u0430\u043d \u0431\u0430\u0440 \"\u0413\u043e\u0440\u044f\u0447\u0438\u0435 \u043f\u0435\u0440\u0446\u044b\"", "name:uk": "\u0420\u0435\u0441\u0442\u043e\u0440\u0430\u043d \u0431\u0430\u0440 \"\u0413\u0430\u0440\u044f\u0447\u0456 \u043f\u0435\u0440\u0446\u0456\""}}, {"type": "way", "id": 159969402, "nodes": [1720362484, 1720362487, 1720362477, 1720362471, 1720362470, 1720362474, 1720362479, 1720362481, 1720362484], "tags": {"amenity": "restaurant", "building": "commercial", "name": "\u0421\u0430\u043d\u0442\u0430-\u0411\u0430\u0440\u0431\u0430\u0440\u0430", "name:en": "Santa-Barbara", "name:ru": "\u0421\u0430\u043d\u0442\u0430-\u0411\u0430\u0440\u0431\u0430\u0440\u0430", "name:uk": "\u0421\u0430\u043d\u0442\u0430-\u0411\u0430\u0440\u0431\u0430\u0440\u0430"}}, {"type": "way", "id": 160046600, "nodes": [1721082725, 1721082908, 1721082586, 1721082840, 1721082725], "tags": {"addr:housenumber": "47/4", "addr:postcode": "65122", "addr:street": "\u0432\u0443\u043b\u0438\u0446\u044f \u0421\u0456\u043c'\u0457 \u0413\u043b\u043e\u0434\u0430\u043d", "amenity": "restaurant", "building": "yes", "name": "\u0424\u043e\u0440\u0442", "name:en": "Fort", "name:uk": "\u0424\u043e\u0440\u0442"}}, {"type": "way", "id": 160240162, "nodes": [1723020471, 1723020193, 3901527246, 3901527237, 1723020471], "tags": {"addr:housenumber": "23\u0430", "addr:postcode": "65012", "addr:street": "\u0412\u0435\u043b\u0438\u043a\u0430 \u0410\u0440\u043d\u0430\u0443\u0442\u0441\u044c\u043a\u0430 \u0432\u0443\u043b\u0438\u0446\u044f", "amenity": "restaurant", "building": "yes", "name": "\u041f\u0456\u0446\u0446\u0435\u0440\u0456\u044f \"\u041c\u0430\u0440\u0456\u043e\"", "name:en": "Pizzeria \"Mario\"", "name:ru": "\u041f\u0438\u0446\u0446\u0435\u0440\u0438\u044f \"\u041c\u0430\u0440\u0438\u043e\"", "name:uk": "\u041f\u0456\u0446\u0446\u0435\u0440\u0456\u044f \"\u041c\u0430\u0440\u0456\u043e\""}}, {"type": "way", "id": 160368301, "nodes": [1724167648, 1724167568, 3822496944, 1724167606, 1724167672, 1724167674, 1724167648], "tags": {"addr:housenumber": "1\u0413", "addr:postcode": "65014", "addr:street": "\u041c\u0430\u0440\u0430\u0437\u043b\u0456\u0457\u0432\u0441\u044c\u043a\u0430 \u0432\u0443\u043b\u0438\u0446\u044f", "amenity": "restaurant", "building": "yes", "building:levels": "1", "name": "\u0427\u0435\u0440\u0432\u043e\u043d\u0438\u0439 \u043b\u043e\u0431\u0441\u0442\u0435\u0440", "name:en": "Red Lobster", "name:ru": "\u041a\u0440\u0430\u0441\u043d\u044b\u0439 \u041b\u043e\u0431\u0441\u0442\u0435\u0440", "name:uk": "\u0427\u0435\u0440\u0432\u043e\u043d\u0438\u0439 \u043b\u043e\u0431\u0441\u0442\u0435\u0440"}}, {"type": "way", "id": 161030694, "nodes": [9023477317, 1730356838, 1730357139, 1730356445, 9023477317], "tags": {"addr:housenumber": "15\u0431", "addr:postcode": "65012", "addr:street": "\u0432\u0443\u043b\u0438\u0446\u044f \u041b\u0435\u043e\u043d\u0442\u043e\u0432\u0438\u0447\u0430", "amenity": "restaurant", "building": "yes", "cuisine": "regional", "internet_access": "wlan", "name": "\u041a\u043e\u043c\u043f\u043e\u0442", "name:en": "Kompot", "name:uk": "\u041a\u043e\u043c\u043f\u043e\u0442", "opening_hours": "Mo-Su 08:00-23:00", "phone": "+380 67 518 4842", "website": "https://savva-libkin.com/restaurant/odessa/kompot"}}, {"type": "way", "id": 161037402, "nodes": [1730408644, 1730408353, 1730408483, 1730408125, 1730408644], "tags": {"addr:housenumber": "3/5", "addr:postcode": "65058", "addr:street": "\u0432\u0443\u043b\u0438\u0446\u044f \u0414\u043e\u0432\u0436\u0435\u043d\u043a\u0430", "amenity": "restaurant", "building": "yes", "name": "\u0425\u0430\u0442\u0438\u043d\u0430", "name:en": "Hijina", "name:ru": "\u0425\u0438\u0436\u0438\u043d\u0430", "name:uk": "\u0425\u0430\u0442\u0438\u043d\u0430", "website": "https://hijina.com.ua/"}}, {"type": "way", "id": 180069541, "nodes": [1905044171, 1905044162, 1905044163, 1905044166, 1905044170, 1905044173, 1905044171], "tags": {"addr:housenumber": "16", "addr:street": "\u0432\u0443\u043b\u0438\u0446\u044f \u0410\u043a\u0430\u0434\u0435\u043c\u0456\u043a\u0430 \u041a\u043e\u0440\u043e\u043b\u044c\u043e\u0432\u0430", "amenity": "restaurant", "building": "yes", "name": "\u0417\u043e\u043b\u043e\u0442\u043e\u0435 \u0420\u0443\u043d\u043e", "name:en": "Zolote Runo", "name:ru": "\u0417\u043e\u043b\u043e\u0442\u043e\u0435 \u0420\u0443\u043d\u043e", "name:uk": "\u0417\u043e\u043b\u043e\u0442\u043e\u0435 \u0420\u0443\u043d\u043e"}}, {"type": "way", "id": 180317663, "nodes": [1907486069, 1907486072, 1907486050, 1907486048, 1907486069], "tags": {"addr:housenumber": "11/1", "addr:street": "\u043f\u0440\u043e\u0441\u043f\u0435\u043a\u0442 \u041d\u0435\u0431\u0435\u0441\u043d\u043e\u0457 \u0421\u043e\u0442\u043d\u0456", "amenity": "restaurant", "building": "commercial", "building:levels": "1", "internet_access": "wlan", "internet_access:fee": "no", "name": "\u041a\u043b\u0443\u0431 \"\u041c\u0456\u0441\u0442\u0435\u0440\"", "name:ru": "\u043a\u043b\u0443\u0431 \"\u041c\u0438\u0441\u0442\u0435\u0440\"", "name:uk": "\u041a\u043b\u0443\u0431 \"\u041c\u0456\u0441\u0442\u0435\u0440\""}}, {"type": "way", "id": 187775064, "nodes": [1984105778, 1984105503, 1984105626, 1984105548, 1984105526, 1984105796, 1984105530, 1984105778], "tags": {"addr:housenumber": "2\u0432", "addr:street": "\u0432\u0443\u043b\u0438\u0446\u044f \u0426\u0435\u043d\u0442\u0440\u0430\u043b\u044c\u043d\u0438\u0439 \u0410\u0435\u0440\u043e\u043f\u043e\u0440\u0442", "amenity": "restaurant", "building": "yes", "cuisine": "georgian", "name": "\u0425\u0438\u0436\u0438\u043d\u0430", "name:uk": "\u0425\u0438\u0436\u0438\u043d\u0430"}}, {"type": "way", "id": 196769041, "nodes": [2070601208, 2070601196, 2070601193, 2070601210, 2070601243, 4428333244, 2070601184, 2070601208], "tags": {"addr:housenumber": "57/2\u0430", "addr:street": "\u0432\u0443\u043b\u0438\u0446\u044f \u0410\u043a\u0430\u0434\u0435\u043c\u0456\u043a\u0430 \u0417\u0430\u0431\u043e\u043b\u043e\u0442\u043d\u043e\u0433\u043e", "amenity": "restaurant", "building": "yes", "building:levels": "2", "cuisine": "international", "name": "\u0421\u043a\u0430\u043d\u0434\u0456", "name:en": "Skandi", "name:uk": "\u0421\u043a\u0430\u043d\u0434\u0456", "opening_hours": "Mo-Su 12:00-02:00", "phone": "+380 48 711 3712", "website": "https://skandi.od.ua/"}}, {"type": "way", "id": 209196020, "nodes": [2194268714, 5696596967, 2194268706, 2194268704, 5696596968, 8278894577, 2194268714], "tags": {"addr:housenumber": "95\u0430", "addr:postcode": "65114", "addr:street": "\u0432\u0443\u043b\u0438\u0446\u044f \u041b\u0435\u0432\u0456\u0442\u0430\u043d\u0430", "amenity": "restaurant", "building": "yes", "name": "\u0421\u043a\u0432\u0435\u0440", "name:en": "Skver", "name:ru": "\u0421\u043a\u0432\u0435\u0440", "name:uk": "\u0421\u043a\u0432\u0435\u0440", "opening_hours": "Mo-Su 11:00-00:00", "outdoor_seating": "yes", "payment:cash": "yes", "payment:mastercard": "yes", "payment:visa": "yes", "phone": "+380 97 037 7098", "website": "https://skver.od.ua/"}}, {"type": "way", "id": 209742186, "nodes": [2199338536, 2199338541, 2199338540, 2199338535, 2199338532, 2199338536], "tags": {"amenity": "restaurant", "building": "yes", "name": "\u041e\u0440\u0438\u043e\u043d", "name:uk": "\u041e\u0440\u0438\u043e\u043d"}}, {"type": "way", "id": 232415171, "nodes": [2407680955, 2407680954, 2407680949, 2407680950, 2407680955], "tags": {"amenity": "restaurant", "building": "yes", "name": "Noir Beach", "name:en": "Noir Beach"}}, {"type": "way", "id": 299953357, "nodes": [3040338237, 3040338238, 3040338239, 3040338244, 3040338245, 3040338251, 3040338293, 3040338249, 3040338250, 3040338247, 3040338246, 3040338243, 3040338241, 3040338292, 4997842536, 4997842535, 3040338236, 3040338235, 3040338234, 3040338233, 3040338237], "tags": {"addr:housenumber": "16", "addr:postcode": "65058", "addr:street": "\u043f\u0440\u043e\u0441\u043f\u0435\u043a\u0442 \u0428\u0435\u0432\u0447\u0435\u043d\u043a\u0430", "amenity": "restaurant", "building": "yes", "building:levels": "2", "contact:facebook": "https://www.facebook.com/TREFcafe/", "contact:instagram": "tref_cafe", "cuisine": "regional", "delivery": "yes", "description": "\u0420\u0435\u0441\u0442\u043e\u0440\u0430\u043d \u0437 \u043a\u0456\u043d\u043e\u0442\u0435\u0430\u0442\u0440\u043e\u043c \u0434\u043b\u044f \u0434\u0456\u0442\u0435\u0439 \u0432\u0441\u0435\u0440\u0435\u0434\u0438\u043d\u0456", "description:en": "Restaurant with a cinema for children inside", "email": "trefcinema@gmail.com", "internet_access": "wlan", "internet_access:fee": "no", "name": "TREF Cinema Cafe", "name:uk": "\u041a\u0456\u043d\u043e\u043a\u0430\u0444\u0435 TREF", "opening_hours": "09:00-21:45", "outdoor_seating": "yes", "payment:american_express": "yes", "payment:cash": "yes", "payment:mastercard": "yes", "phone": "+380 67 408 5556", "reservation": "no", "takeaway": "yes", "website:menu": "https://trefcinemacafe.choiceqr.com/menu"}}, {"type": "way", "id": 328938560, "nodes": [3357602576, 3357602577, 3357602578, 3357602579, 3357602576], "tags": {"amenity": "restaurant", "building": "yes", "building:levels": "1", "name": "\u041a\u0430\u0442\u0440\u0438\u043d", "name:en": "Katrin", "name:ru": "\u041a\u0430\u0442\u0440\u0438\u043d", "name:uk": "\u041a\u0430\u0442\u0440\u0438\u043d"}}, {"type": "way", "id": 329331209, "nodes": [3362007188, 12053140970, 3362007189, 3362007190, 3362007191, 3362007188], "tags": {"addr:housenumber": "2", "addr:postcode": "65044", "amenity": "restaurant", "building": "yes", "name": "\u0420\u043e\u0434\u0438\u043d\u043d\u0438\u0439 \u0440\u0435\u0441\u0442\u043e\u0440\u0430\u043d \"\u0413\u043b\u0435\u0447\u0438\u043a 1962\"", "name:ru": "\u0421\u0435\u043c\u0435\u0439\u043d\u044b\u0439 \u0440\u0435\u0441\u0442\u043e\u0440\u0430\u043d \"\u0413\u043b\u0435\u0447\u0438\u043a 1962\"", "name:uk": "\u0420\u043e\u0434\u0438\u043d\u043d\u0438\u0439 \u0440\u0435\u0441\u0442\u043e\u0440\u0430\u043d \"\u0413\u043b\u0435\u0447\u0438\u043a 1962\""}}, {"type": "way", "id": 330144109, "nodes": [3371034850, 3371034851, 3371034852, 3371034853, 3371034850], "tags": {"addr:housenumber": "1\u0431", "addr:postcode": "65014", "addr:street": "\u041b\u0430\u043d\u0436\u0435\u0440\u043e\u043d \u043f\u043b\u044f\u0436", "amenity": "restaurant", "building": "retail", "building:levels": "2", "name": "Terrace. Sea view", "name:ru": "\u0422\u0435\u0440\u0440\u0430\u0441\u0430 \u0421\u0438 \u0412\u044c\u044e", "name:uk": "Terrace. Sea view"}}, {"type": "way", "id": 330144124, "nodes": [3371035120, 3371035121, 3371035122, 3371035123, 3371035120], "tags": {"addr:housenumber": "15/1", "addr:postcode": "65012", "addr:street": "\u041f\u043b\u044f\u0436 \u041e\u0442\u0440\u0430\u0434\u0430", "amenity": "restaurant", "building": "yes", "name": "Otrada Beach Club", "name:ru": "\u041e\u0442\u0440\u0430\u0434\u0430", "name:uk": "Otrada Beach Club"}}, {"type": "way", "id": 335008518, "nodes": [3421350515, 3924465150, 3924465149, 3421350516, 3421350517, 3421350518, 3421350515], "tags": {"amenity": "restaurant", "building": "yes", "building:levels": "2", "heritage": "7", "historic": "heritage", "name": "\u041f\u0456\u0432\u0434\u0435\u043d\u043d\u0430 \u041f\u0430\u043b\u044c\u043c\u0456\u0440\u0430", "name:ru": "\u042e\u0436\u043d\u0430\u044f \u041f\u0430\u043b\u044c\u043c\u0438\u0440\u0430", "name:uk": "\u041f\u0456\u0432\u0434\u0435\u043d\u043d\u0430 \u041f\u0430\u043b\u044c\u043c\u0456\u0440\u0430", "source": "\u0406\u0441\u0442\u043e\u0440\u0438\u043a\u043e-\u0430\u0440\u0445\u0456\u0442\u0435\u043a\u0442\u0443\u0440\u043d\u0438\u0439 \u043e\u043f\u043e\u0440\u043d\u0438\u0439 \u043f\u043b\u0430\u043d"}}, {"type": "way", "id": 335010042, "nodes": [3421356118, 3421356119, 3421356120, 3421356121, 3421356122, 3421356123, 3421356124, 3421356125, 3421356126, 3421356127, 3421356128, 3421356118], "tags": {"amenity": "restaurant", "building": "yes", "name": "\u0421\u0442\u0440\u043e\u043d\u0433 \u0425\u0430\u0443\u0441", "name:uk": "\u0421\u0442\u0440\u043e\u043d\u0433 \u0425\u0430\u0443\u0441"}}, {"type": "way", "id": 335010048, "nodes": [3421356138, 3421356139, 3421356140, 3421356141, 3421356142, 3421356143, 3421356144, 3421356145, 3421356146, 3421356138], "tags": {"addr:housenumber": "21", "addr:street": "\u041f\u043b\u044f\u0436 \u0410\u0440\u043a\u0430\u0434\u0456\u044f", "amenity": "restaurant", "building": "yes", "building:levels": "2", "image": "https://d1cuyjsrcm0gby.cloudfront.net/UB07daQpwniQ2IKj4OksfA/thumb-2048.jpg", "mapillary": "3436296116472205", "name": "\u0410\u0441\u0441\u043e\u043b\u044c", "name:uk": "\u0410\u0441\u0441\u043e\u043b\u044c"}}, {"type": "way", "id": 335331905, "nodes": [3424525525, 3424525526, 3424525527, 3424525528, 3424525525], "tags": {"addr:housenumber": "9", "addr:postcode": "65012", "addr:street": "\u041f\u043b\u044f\u0436 \u041e\u0442\u0440\u0430\u0434\u0430", "amenity": "restaurant", "building": "yes", "name": "\u0411\u0430\u0440-\u0440\u0435\u0441\u0442\u043e\u0440\u0430\u043d \"\u0420\u0456\u043e\"", "name:ru": "\u0411\u0430\u0440-\u0440\u0435\u0441\u0442\u043e\u0440\u0430\u043d \"\u0420\u0438\u043e\"", "name:uk": "\u0411\u0430\u0440-\u0440\u0435\u0441\u0442\u043e\u0440\u0430\u043d \"\u0420\u0456\u043e\""}}, {"type": "way", "id": 336358673, "nodes": [3434019074, 4475535205, 2351193810, 4475535204, 3300274911, 3434019073, 3434019072, 4475535199, 3434019074], "tags": {"amenity": "restaurant", "leisure": "garden", "name": "\u041e\u043b\u0435\u043a\u0441\u0430\u043d\u0434\u0440\u0456\u0432\u0441\u044c\u043a\u0438\u0439", "name:ru": "\u0410\u043b\u0435\u043a\u0441\u0430\u043d\u0434\u0440\u043e\u0432\u0441\u043a\u0438\u0439", "name:uk": "\u041e\u043b\u0435\u043a\u0441\u0430\u043d\u0434\u0440\u0456\u0432\u0441\u044c\u043a\u0438\u0439"}}, {"type": "way", "id": 337891623, "nodes": [3449560466, 3449560467, 3449560468, 3449560469, 3449560466], "tags": {"addr:housenumber": "1", "addr:street": "\u0413\u0435\u043d\u0443\u0435\u0437\u044c\u043a\u0430 \u0432\u0443\u043b\u0438\u0446\u044f", "amenity": "restaurant", "building": "yes", "building:levels": "2", "cuisine": "georgian", "name": "Vano Ivano", "name:uk": "Vano Ivano", "opening_hours": "Mo-Su 10:00-23:00", "phone": "+380 48 793 3793", "website": "https://vanoivano.com.ua/"}}, {"type": "way", "id": 341781186, "nodes": [3488751582, 3488751583, 6576428574, 3488751584, 6576430291, 6576430290, 6576428584, 3488751585, 3488751582], "tags": {"addr:city": "\u041e\u0434\u0435\u0441\u0441\u0430", "addr:housenumber": "37", "addr:postcode": "65038", "amenity": "restaurant", "building": "yes", "building:levels": "3", "name": "\u0417\u043e\u043b\u043e\u0442\u0438\u0439 \u0431\u0435\u0440\u0435\u0433", "name:uk": "\u0417\u043e\u043b\u043e\u0442\u0438\u0439 \u0431\u0435\u0440\u0435\u0433", "opening_hours": "10:00-23:00"}}, {"type": "way", "id": 343996461, "nodes": [3507727050, 3507727051, 3507727052, 3507727053, 3507727050], "tags": {"addr:housenumber": "5", "amenity": "restaurant", "building": "yes", "name": "\u0410\u0440\u0442-\u0428\u0430\u0442", "name:uk": "\u0410\u0440\u0442-\u0428\u0430\u0442", "opening_hours": "Mo-Su 11:00-00:00"}}, {"type": "way", "id": 344081702, "nodes": [3508400498, 3508400499, 3508400500, 3508400501, 2066165830, 3508400498], "tags": {"addr:housenumber": "24\u0430", "addr:street": "\u0413\u0435\u043d\u0443\u0435\u0437\u044c\u043a\u0430 \u0432\u0443\u043b\u0438\u0446\u044f", "amenity": "restaurant", "building": "yes", "building:levels": "2"}}, {"type": "way", "id": 344497043, "nodes": [3512297732, 3512297733, 3512297734, 3512297735, 3512297736, 3512297737, 3512297732], "tags": {"amenity": "restaurant", "building": "yes", "name": "\u0422\u0440\u043e\u043f\u0438\u043a\u0430\u043d\u043e", "name:uk": "\u0422\u0440\u043e\u043f\u0438\u043a\u0430\u043d\u043e"}}, {"type": "way", "id": 372065458, "nodes": [3756007117, 3756007118, 3756007119, 3756007120, 3756007117], "tags": {"amenity": "restaurant", "building": "yes", "cuisine": "sausage", "name": "\u0412\u0456\u0434\u0435\u043d\u0441\u044c\u043a\u0456 \u0441\u043e\u0441\u0438\u0441\u043a\u0438", "name:en": "Vensky Sosysky", "name:ru": "\u0412\u0435\u043d\u0441\u043a\u0438\u0435 \u0421\u043e\u0441\u0438\u0441\u043a\u0438", "name:uk": "\u0412\u0456\u0434\u0435\u043d\u0441\u044c\u043a\u0456 \u0441\u043e\u0441\u0438\u0441\u043a\u0438", "takeaway": "yes"}}, {"type": "way", "id": 387835810, "nodes": [3910696290, 3910696287, 11608951503, 3910696286, 3910696289, 11608951504, 3910696290], "tags": {"amenity": "restaurant", "building": "yes", "name": "\u041a\u043b\u0443\u0431 \"\u041e\u0434\u0456\u043d\"", "name:ru": "\u041a\u043b\u0443\u0431 \"\u041e\u0434\u0438\u043d\"", "name:uk": "\u041a\u043b\u0443\u0431 \"\u041e\u0434\u0456\u043d\""}}, {"type": "way", "id": 388082507, "nodes": [3912827561, 3912827562, 3982019593, 3982019594, 3912827563, 3912827564, 3912827561], "tags": {"addr:housenumber": "43\u0431", "addr:postcode": "65113", "addr:street": "\u0432\u0443\u043b\u0438\u0446\u044f \u0410\u043a\u0430\u0434\u0435\u043c\u0456\u043a\u0430 \u041a\u043e\u0440\u043e\u043b\u044c\u043e\u0432\u0430", "amenity": "restaurant", "building": "yes", "building:levels": "2", "name": "Radioactive", "name:ru": "\u0420\u0430\u0434\u0438\u043e\u0430\u043a\u0442\u0438\u0432", "name:uk": "Radioactive"}}, {"type": "way", "id": 388697492, "nodes": [3918631092, 3918631089, 9180613573, 3918631065, 3918631066, 3918631085, 3918631087, 3918631092], "tags": {"addr:housenumber": "85", "addr:street": "\u0424\u0440\u0430\u043d\u0446\u0443\u0437\u044c\u043a\u0438\u0439 \u0431\u0443\u043b\u044c\u0432\u0430\u0440", "addr:unit": "\u043a\u043e\u0440\u043f\u0443\u0441 15", "amenity": "restaurant", "capacity": "125", "contact:facebook": "https://www.facebook.com/Dacha.Restaurant", "contact:instagram": "https://www.instagram.com/restaurant.dacha/", "name": "\u0414\u0430\u0447\u0430", "name:en": "Dacha", "name:ru": "\u0414\u0430\u0447\u0430", "name:uk": "\u0414\u0430\u0447\u0430", "natural": "wood", "opening_hours": "Mo-Su 09:00-22:00", "outdoor_seating": "yes", "phone": "+380 67 481 1430", "reservation": "recommended", "toilets": "yes", "toilets:access": "customers", "website": "https://www.dacha.com.ua/", "website:menu": "https://expz.menu/fbc816db-b24b-4b9f-adc0-51a8529bdd59"}}, {"type": "way", "id": 389572717, "nodes": [8629787745, 5218972911, 3927410346, 5205217419, 3927410345, 8629787745], "tags": {"addr:housenumber": "77", "addr:postcode": "65016", "addr:street": "\u0424\u043e\u043d\u0442\u0430\u043d\u0441\u044c\u043a\u0430 \u0434\u043e\u0440\u043e\u0433\u0430", "amenity": "restaurant", "building": "yes", "building:levels": "1", "capacity": "500", "contact:website": "https://reefodessa.com/", "name": "REEF", "name:ru": "\u0420\u0438\u0444", "name:uk": "REEF", "opening_hours": "Mo-Su 11:00-22:00", "outdoor_seating": "yes", "smoking": "isolated", "takeaway": "no"}}, {"type": "way", "id": 406269708, "nodes": [4083606257, 4083606256, 4083606254, 4083606255, 4083606257], "tags": {"addr:housenumber": "4", "addr:postcode": "65044", "amenity": "restaurant", "building": "yes", "name": "Underhill lounge & beach"}}, {"type": "way", "id": 422425292, "nodes": [3906735573, 4221649001, 3906735446, 3906735445, 3906735452, 1721746864, 3906735573], "tags": {"amenity": "restaurant", "building": "yes", "building:levels": "1", "cuisine": "italian", "internet_access": "wlan", "name": "\u0422\u0430\u0432\u0435\u0440\u043d\u0435\u0442\u0442\u0430", "name:en": "Tavernetta", "name:ru": "\u0422\u0430\u0432\u0435\u0440\u043d\u0435\u0442\u0442\u0430", "name:uk": "\u0422\u0430\u0432\u0435\u0440\u043d\u0435\u0442\u0442\u0430", "opening_hours": "Mo-Su 09:00-00:00", "outdoor_seating": "yes", "phone": "+380 96 234 4621", "source": "Openstreetbugs", "website": "http://www.tavernetta.ua"}}, {"type": "way", "id": 431886211, "nodes": [4311178485, 4311178487, 4311178482, 4311178486, 4311178467, 4311178466, 4311178473, 4311178472, 4311178485], "tags": {"addr:housenumber": "72\u0430 \u043a1", "addr:postcode": "65098", "amenity": "restaurant", "building": "yes"}}, {"type": "way", "id": 433907243, "nodes": [4323682116, 4323682110, 4323682109, 4323682115, 4323682116], "tags": {"addr:housenumber": "25/1", "amenity": "restaurant", "building": "yes", "name": "\u0410\u0440\u0442-\u0428\u0430\u0442", "name:uk": "\u0410\u0440\u0442-\u0428\u0430\u0442", "opening_hours": "Mo-Su 11:00-00:00"}}, {"type": "way", "id": 435116175, "nodes": [4330718897, 4330718894, 4330718893, 4330718896, 4330718897], "tags": {"addr:housenumber": "2\u0431", "addr:postcode": "65038", "addr:street": "\u041d\u0430\u0431\u0435\u0440\u0435\u0436\u043d\u0430 \u0432\u0443\u043b\u0438\u0446\u044f", "amenity": "restaurant", "building": "retail", "name": "\u0413\u043e\u0433\u043e\u043b\u044c \u0443 \u043c\u043e\u0440\u044f", "name:en": "Hohol u Moriia", "name:ru": "\u0413\u043e\u0433\u043e\u043b\u044c \u0443 \u043c\u043e\u0440\u044f", "name:uk": "\u0413\u043e\u0433\u043e\u043b\u044c \u0443 \u043c\u043e\u0440\u044f"}}, {"type": "way", "id": 443343163, "nodes": [4364922794, 4409350973, 4409350972, 4363501530, 4364922794], "tags": {"addr:housenumber": "88/1", "addr:street": "\u0432\u0443\u043b\u0438\u0446\u044f \u0410\u043a\u0430\u0434\u0435\u043c\u0456\u043a\u0430 \u041a\u043e\u0440\u043e\u043b\u044c\u043e\u0432\u0430", "amenity": "restaurant", "building": "yes", "name": "Arkhimus", "name:uk": "Arkhimus", "opening_hours": "09:00-24:00", "outdoor_seating": "yes", "phone": "+380 67 963 4799"}}, {"type": "way", "id": 451056297, "nodes": [4479101774, 4479101780, 4479101781, 4479101782, 4479101777, 4479101774], "tags": {"addr:housenumber": "86/87", "addr:postcode": "65058", "amenity": "restaurant", "building": "yes", "name": "Double Whisky", "name:uk": "Double Whisky"}}, {"type": "way", "id": 452080511, "nodes": [4488813380, 4488813379, 1726620901, 1726620693, 7790976791, 4488813378, 4488813380], "tags": {"addr:housenumber": "14\u0430", "addr:postcode": "65029", "addr:street": "\u0421\u0442\u0430\u0440\u043e\u043f\u043e\u0440\u0442\u043e\u0444\u0440\u0430\u043d\u043a\u0456\u0432\u0441\u044c\u043a\u0430 \u0432\u0443\u043b\u0438\u0446\u044f", "amenity": "restaurant", "building": "yes", "name": "Rozana", "name:uk": "Rozana", "phone": "+380 99 544 3964"}}, {"type": "way", "id": 460089868, "nodes": [4557689153, 4557689154, 4557689155, 4557689156, 4557689153], "tags": {"addr:housenumber": "84", "addr:street": "\u0432\u0443\u043b\u0438\u0446\u044f \u041b\u0435\u0432\u0456\u0442\u0430\u043d\u0430", "amenity": "restaurant", "building": "yes", "building:levels": "2", "name": "Tairov", "name:ru": "\u0422\u0430\u0438\u0440\u043e\u0432", "name:uk": "\u0422\u0430\u0438\u0440\u043e\u0432", "wheelchair": "limited"}}, {"type": "way", "id": 460151738, "nodes": [4558286398, 4558286399, 4558286400, 4558286401, 4558286398], "tags": {"addr:housenumber": "4\u0431", "addr:street": "\u0432\u0443\u043b\u0438\u0446\u044f \u0421\u0456\u043c'\u0457 \u0413\u043b\u043e\u0434\u0430\u043d", "amenity": "restaurant", "building": "yes", "cuisine": "caucasian", "name": "\u0412\u0435\u0447\u0435\u0440\u043d\u0438\u0439 \u0411\u0430\u043a\u0443", "name:uk": "\u0412\u0435\u0447\u0435\u0440\u043d\u0438\u0439 \u0411\u0430\u043a\u0443", "opening_hours": "Mo-Fr 9:00-20:00", "phone": "+380 67 488 1017", "takeaway": "yes", "website": "vecherniybaku.com"}}, {"type": "way", "id": 468173976, "nodes": [3899136297, 4627450590, 4627450589, 11616437653, 11616437654, 3899136297], "tags": {"amenity": "restaurant", "building": "yes"}}, {"type": "way", "id": 485649900, "nodes": [9960597855, 4784255659, 4784255660, 4784255661, 9960597855], "tags": {"addr:housenumber": "50", "addr:street": "\u0432\u0443\u043b\u0438\u0446\u044f \u0413\u0435\u043d\u0435\u0440\u0430\u043b\u0430 \u0411\u043e\u0447\u0430\u0440\u043e\u0432\u0430", "amenity": "restaurant", "building": "yes", "building:levels": "2", "contact:instagram": "https://www.instagram.com/uha.restaurant/", "name": "\u0423\u0445\u0430", "name:uk": "\u0423\u0445\u0430"}}, {"type": "way", "id": 504487109, "nodes": [4946428378, 4946428377, 4946428376, 4946428375, 4946428378], "tags": {"addr:housenumber": "33", "addr:postcode": "65014", "amenity": "restaurant", "building": "retail", "name": "Amore more", "name:uk": "Amore more"}}, {"type": "way", "id": 537551044, "nodes": [5205243237, 5205243236, 5205243235, 5205243234, 5205243233, 5205243232, 5205243237], "tags": {"addr:housenumber": "153\u0433", "addr:postcode": "65016", "amenity": "restaurant", "building": "retail", "building:levels": "1", "name": "\u0428\u0430\u043d\u0441\u043e\u043d", "name:uk": "\u0428\u0430\u043d\u0441\u043e\u043d"}}, {"type": "way", "id": 697617594, "nodes": [6551449421, 6551449422, 6551449423, 6551449424, 6551449425, 6551449426, 6551449421], "tags": {"amenity": "restaurant", "building": "yes", "name": "\u0420\u0435\u043a\u0441\u0442\u043e\u0440\u0430\u043d \u0410\u0440\u0438\u0437\u043e\u043d\u0430", "name:uk": "\u0420\u0435\u043a\u0441\u0442\u043e\u0440\u0430\u043d \u0410\u0440\u0438\u0437\u043e\u043d\u0430"}}, {"type": "way", "id": 762426668, "nodes": [5696679571, 5696679875, 5696679876, 7123975623, 5696679879, 5696679880, 5696679578, 6160010225, 5696679577, 5696679576, 7123975622, 5696679575, 5696679571], "tags": {"amenity": "restaurant", "microbrewery": "yes", "name": "Bohemian", "name:en": "Bohemian", "name:uk": "Bohemian", "outdoor_seating": "yes"}}, {"type": "way", "id": 832386316, "nodes": [7771207286, 7771256843, 7771256844, 7771256845, 7771207286], "tags": {"addr:housenumber": "31/1", "addr:postcode": "65074", "addr:street": "\u0432\u0443\u043b\u0438\u0446\u044f \u0410\u043a\u0430\u0434\u0435\u043c\u0456\u043a\u0430 \u0424\u0456\u043b\u0430\u0442\u043e\u0432\u0430", "amenity": "restaurant", "building": "commercial", "name": "Pasta & Pizza", "name:uk": "Pasta & Pizza", "opening_hours": "Mo-Su 09:00-23:00", "phone": "+380 95 576 5151"}}, {"type": "way", "id": 841447698, "nodes": [7850877526, 12218129947, 7850860430, 4070520644, 12218129944, 7850877526], "tags": {"addr:housenumber": "11/7", "addr:postcode": "65078", "addr:street": "\u0432\u0443\u043b\u0438\u0446\u044f \u0406\u043d\u0433\u043b\u0435\u0437\u0456", "amenity": "restaurant", "internet_access": "wlan", "name": "\u0426\u0438\u0440\u043a", "name:en": "Circus", "name:uk": "\u0426\u0438\u0440\u043a", "opening_hours": "Mo-Su 11:00-24:00", "phone": "+380 48 706 2121", "website": "https://circus.in.ua/"}}, {"type": "way", "id": 929756572, "nodes": [8622217496, 8622217497, 8622217498, 8622217503, 8622217504, 8622217505, 8622217506, 8622217507, 8622217508, 8622217509, 8622217510, 8622217496], "tags": {"addr:housenumber": "153", "addr:street": "\u0424\u043e\u043d\u0442\u0430\u043d\u0441\u044c\u043a\u0430 \u0434\u043e\u0440\u043e\u0433\u0430", "amenity": "restaurant", "building": "yes", "name": "\u041a\u041e\u0420\u0410\u0411\u041b\u0418\u041a \u0420\u0435\u0441\u0442\u043e\u0440\u0430\u043d & \u043f\u043b\u044f\u0436", "name:uk": "\u041a\u041e\u0420\u0410\u0411\u041b\u0418\u041a \u0420\u0435\u0441\u0442\u043e\u0440\u0430\u043d & \u043f\u043b\u044f\u0436"}}, {"type": "way", "id": 1086744895, "nodes": [4140495748, 9957448077, 9957448078, 9957448079, 9957448080, 4140495748], "tags": {"addr:housenumber": "154/4", "addr:street": "\u0424\u043e\u043d\u0442\u0430\u043d\u0441\u044c\u043a\u0430 \u0434\u043e\u0440\u043e\u0433\u0430", "amenity": "restaurant", "building": "yes", "building:levels": "1", "cuisine": "fish", "internet_access": "wlan", "name": "\u0420\u0438\u0431\u0430", "name:en": "Ryba", "name:ru": "\u0420\u044b\u0431\u0430", "name:uk": "\u0420\u0438\u0431\u0430", "opening_hours": "Mo-Su 10:00-05:00", "phone": "+380 48 736 1106"}}, {"type": "way", "id": 1248967488, "nodes": [11391982372, 11609365360, 11609365361, 11609365362, 11391982372], "tags": {"amenity": "restaurant", "building": "yes", "building:levels": "1", "check_date": "2023-12-03"}}, {"type": "way", "id": 1326430272, "nodes": [12272766112, 12272766109, 12272766110, 12272766107, 12272766108, 12272766106, 12272766111, 12272766112], "tags": {"amenity": "restaurant", "building": "yes", "building:levels": "1", "cuisine": "kebab", "name": "\u0428\u0430\u0448\u043b\u044b\u043a & \u0448\u0430\u0443\u0440\u043c\u0430", "signboard:ru": "yes"}}]}