{"version": 0.6, "generator": "Overpass API 0.7.62.1 084b4234", "osm3s": {"timestamp_osm_base": "2024-11-14T07:32:44Z", "copyright": "The data included in this document is from www.openstreetmap.org. The data is made available under ODbL."}, "elements": [{"type": "node", "id": 297977302, "lat": 48.4472869, "lon": 35.0826234}, {"type": "node", "id": 297977315, "lat": 48.4463039, "lon": 35.0825872}, {"type": "node", "id": 297977316, "lat": 48.4459703, "lon": 35.0821862}, {"type": "node", "id": 297977319, "lat": 48.4459225, "lon": 35.0802675}, {"type": "node", "id": 297977320, "lat": 48.4458191, "lon": 35.0798365}, {"type": "node", "id": 297977321, "lat": 48.4463493, "lon": 35.0799921}, {"type": "node", "id": 297977322, "lat": 48.4466926, "lon": 35.0794181}, {"type": "node", "id": 297977324, "lat": 48.4470162, "lon": 35.0772286}, {"type": "node", "id": 297977325, "lat": 48.4467162, "lon": 35.0764154}, {"type": "node", "id": 311371797, "lat": 48.4614841, "lon": 35.0474861, "tags": {"air_conditioning": "yes", "amenity": "restaurant", "cuisine": "georgian", "indoor_seating": "yes", "internet_access": "wlan", "name": "Puri Chveni", "name:uk": "Puri Chveni", "opening_hours": "Mo 12:00-23:00; Tu-Fr 11:00-23:00; Sa-Su 10:00-23:00", "outdoor_seating": "yes", "phone": "+380 66 844 5664", "smoking": "no"}}, {"type": "node", "id": 311374615, "lat": 48.4686006, "lon": 35.0375483, "tags": {"amenity": "restaurant", "cuisine": "diner;regional", "entrance": "yes", "internet_access": "wlan", "name": "\u0414\u043d\u0456\u043f\u0440\u043e\u0432\u0441\u044c\u043a\u0430 \u0420\u0435\u0431\u0435\u0440\u043d\u044f", "name:pl": "Dniprowska Ribernia", "name:uk": "\u0414\u043d\u0456\u043f\u0440\u043e\u0432\u0441\u044c\u043a\u0430 \u0420\u0435\u0431\u0435\u0440\u043d\u044f", "opening_hours": "Mo-Fr 10:00-21:00; Sa 13:00-21:00; Su 11:00-21:00", "website": "https://dniprovska-rebernya.choiceqr.com/"}}, {"type": "node", "id": 343757568, "lat": 48.4572749, "lon": 35.0624283, "tags": {"addr:housenumber": "1", "addr:street": "\u0421\u043e\u0431\u043e\u0440\u043d\u0430 \u043f\u043b\u043e\u0449\u0430", "amenity": "restaurant", "cuisine": "regional", "name": "\u0413\u0430\u0440\u0430\u0436", "name:uk": "\u0413\u0430\u0440\u0430\u0436"}}, {"type": "node", "id": 510838649, "lat": 48.463669, "lon": 35.0287807, "tags": {"amenity": "restaurant", "name": "\u041c\u0456\u0440\u0456\u0430\u0434\u0430", "name:en": "Miriada", "name:uk": "\u041c\u0456\u0440\u0456\u0430\u0434\u0430"}}, {"type": "node", "id": 718501096, "lat": 48.4626167, "lon": 35.053195, "tags": {"amenity": "restaurant", "check_date:opening_hours": "2022-11-06", "name": "2.25", "name:uk": "2.25", "opening_hours:signed": "no"}}, {"type": "node", "id": 766476619, "lat": 48.4430817, "lon": 35.074409}, {"type": "node", "id": 766477036, "lat": 48.4428852, "lon": 35.073964}, {"type": "node", "id": 766477597, "lat": 48.44723, "lon": 35.0824034}, {"type": "node", "id": 766477658, "lat": 48.4492929, "lon": 35.0808933}, {"type": "node", "id": 766477673, "lat": 48.4428267, "lon": 35.074204}, {"type": "node", "id": 766477834, "lat": 48.4430154, "lon": 35.0743723}, {"type": "node", "id": 766478061, "lat": 48.4472846, "lon": 35.0820688}, {"type": "node", "id": 766478152, "lat": 48.4430291, "lon": 35.0743162}, {"type": "node", "id": 766478283, "lat": 48.4431684, "lon": 35.074121}, {"type": "node", "id": 766478302, "lat": 48.4474933, "lon": 35.081867}, {"type": "node", "id": 854341496, "lat": 48.4681984, "lon": 35.0376187, "tags": {"air_conditioning": "yes", "amenity": "restaurant", "entrance": "yes", "indoor_seating": "yes", "name": "\u0425\u0456\u043d\u043a\u0430\u043b\u044c\u043d\u044f", "name:uk": "\u0425\u0456\u043d\u043a\u0430\u043b\u044c\u043d\u044f", "opening_hours": "Mo-Su 10:00-22:00", "outdoor_seating": "no", "phone": "+380 97 726 7709", "smoking": "no", "website": "http://hinkalnya-yavornytskogo.com.ua/"}}, {"type": "node", "id": 907816117, "lat": 48.4632428, "lon": 35.0502887, "tags": {"amenity": "restaurant", "name": "Pub Time", "name:uk": "Pub Time", "opening_hours": "Mo-Su 11:00-23:00"}}, {"type": "node", "id": 938871988, "lat": 48.4745729, "lon": 35.0222482, "tags": {"amenity": "restaurant", "name": "Melrose", "name:uk": "Melrose"}}, {"type": "node", "id": 941186185, "lat": 48.4568854, "lon": 35.0597014, "tags": {"amenity": "restaurant", "cuisine": "italian", "internet_access": "wlan", "name": "\u041f\u0430\u043f\u0430 \u041a\u0430\u0440\u043b\u0430", "name:en": "Papa Karla", "name:uk": "\u041f\u0430\u043f\u0430 \u041a\u0430\u0440\u043b\u0430", "opening_hours": "Mo-Su 10:00-23:00", "phone": "+380 56 790 1819"}}, {"type": "node", "id": 945410971, "lat": 48.4625151, "lon": 35.0461816, "tags": {"amenity": "restaurant", "contact:instagram": "https://www.instagram.com/manufactura.restaurant/", "entrance": "yes", "name": "Manufactura", "name:uk": "Manufactura", "opening_hours": "Mo-Su 11:00-22:00", "phone": "+380 68 000 2601"}}, {"type": "node", "id": 954683367, "lat": 48.4460628, "lon": 35.0817543}, {"type": "node", "id": 954683368, "lat": 48.4468789, "lon": 35.082759}, {"type": "node", "id": 954683376, "lat": 48.4465859, "lon": 35.0827038}, {"type": "node", "id": 954683379, "lat": 48.4461198, "lon": 35.0825}, {"type": "node", "id": 954683381, "lat": 48.4461468, "lon": 35.0798688}, {"type": "node", "id": 958192423, "lat": 48.4531467, "lon": 35.0638723, "tags": {"amenity": "restaurant", "cuisine": "italian;pizza;burger;regional;kebab;japanese;sandwich;sushi", "internet_access": "wlan", "name": "Melrose", "name:uk": "Melrose", "outdoor_seating": "yes"}}, {"type": "node", "id": 960175191, "lat": 48.4656806, "lon": 35.0356481, "tags": {"amenity": "restaurant", "cuisine": "pizza", "internet_access": "wlan", "name": "Pizza Veterano", "name:uk": "Pizza Veterano", "phone": "+380 66 916 1966", "smoking": "outside", "website": "https://www.facebook.com/pizza.veterano.dnipro/"}}, {"type": "node", "id": 963836148, "lat": 48.4667816, "lon": 35.0469675}, {"type": "node", "id": 963836624, "lat": 48.4665821, "lon": 35.047511}, {"type": "node", "id": 963837063, "lat": 48.4667131, "lon": 35.0475462}, {"type": "node", "id": 963837637, "lat": 48.4666506, "lon": 35.0469323}, {"type": "node", "id": 965273220, "lat": 48.4663101, "lon": 35.0455626}, {"type": "node", "id": 987458191, "lat": 48.4569985, "lon": 35.0590125, "tags": {"amenity": "restaurant", "contact:instagram": "https://www.instagram.com/karlson.dp/", "entrance": "yes", "name": "Karlson", "name:uk": "Karlson", "opening_hours": "Mo-Su 08:00-22:00"}}, {"type": "node", "id": 987466650, "lat": 48.4541598, "lon": 35.0587161, "tags": {"amenity": "restaurant", "name": "Navigator", "name:uk": "Navigator"}}, {"type": "node", "id": 1064346694, "lat": 48.4545225, "lon": 35.0237299}, {"type": "node", "id": 1064347229, "lat": 48.454664, "lon": 35.0238262}, {"type": "node", "id": 1064347318, "lat": 48.4546178, "lon": 35.0239807}, {"type": "node", "id": 1064348564, "lat": 48.4544936, "lon": 35.0238266}, {"type": "node", "id": 1066519899, "lat": 48.4280558, "lon": 35.0148487, "tags": {"amenity": "restaurant", "name": "Melrouse", "name:uk": "Melrouse"}}, {"type": "node", "id": 1203448180, "lat": 48.5248617, "lon": 35.0228209, "tags": {"amenity": "restaurant"}}, {"type": "node", "id": 1209197428, "lat": 48.3886023, "lon": 35.040407}, {"type": "node", "id": 1209197949, "lat": 48.3887402, "lon": 35.0404876}, {"type": "node", "id": 1209198422, "lat": 48.3888379, "lon": 35.0397939}, {"type": "node", "id": 1209198845, "lat": 48.3888835, "lon": 35.0399318}, {"type": "node", "id": 1209198883, "lat": 48.3886743, "lon": 35.0396983}, {"type": "node", "id": 1209199105, "lat": 48.3886223, "lon": 35.0399001}, {"type": "node", "id": 1213506899, "lat": 48.4670496, "lon": 34.9808033, "tags": {"amenity": "restaurant", "name": "Karavan", "name:ru": "\u041a\u0430\u0440\u0430\u0432\u0430\u043d", "name:uk": "\u041a\u0430\u0440\u0430\u0432\u0430\u043d"}}, {"type": "node", "id": 1214072810, "lat": 48.4119674, "lon": 35.0289754}, {"type": "node", "id": 1214073001, "lat": 48.4120719, "lon": 35.0292681}, {"type": "node", "id": 1214073596, "lat": 48.4120982, "lon": 35.0288694}, {"type": "node", "id": 1214073804, "lat": 48.4122027, "lon": 35.0291621}, {"type": "node", "id": 1271048054, "lat": 48.5038748, "lon": 35.083237}, {"type": "node", "id": 1271048433, "lat": 48.5037712, "lon": 35.0837825}, {"type": "node", "id": 1271048514, "lat": 48.5038869, "lon": 35.0838326}, {"type": "node", "id": 1271048539, "lat": 48.5039906, "lon": 35.0832872}, {"type": "node", "id": 1351522409, "lat": 48.5278665, "lon": 35.0199679, "tags": {"air_conditioning": "yes", "amenity": "restaurant", "check_date:opening_hours": "2021-11-28", "cuisine": "italian;chinese", "indoor_seating": "yes", "internet_access": "wlan", "name": "\u041d\u0430\u043f\u043e\u043b\u0438", "name:uk": "\u041d\u0430\u043f\u043e\u043b\u0438", "opening_hours": "Mo-Su,PH 12:00-23:00", "outdoor_seating": "yes", "smoking": "no"}}, {"type": "node", "id": 1416507471, "lat": 48.4833456, "lon": 34.9126086, "tags": {"amenity": "restaurant", "name": "\u0411\u0430\u0433\u0440\u044f\u043d\u0456 \u0432\u0456\u0442\u0440\u0438\u043b\u0430", "name:uk": "\u0411\u0430\u0433\u0440\u044f\u043d\u0456 \u0432\u0456\u0442\u0440\u0438\u043b\u0430"}}, {"type": "node", "id": 1431941922, "lat": 48.4652148, "lon": 34.9877156, "tags": {"amenity": "restaurant", "cuisine": "\u0410\u0437\u0435\u0440\u0431\u0430\u0434\u0436\u0430\u043d\u0441\u043a\u0430\u044f", "name": "\u0411\u0430\u043a\u0438\u043d\u0441\u044c\u043a\u0438\u0439 \u0434\u0432\u0456\u0440", "name:uk": "\u0411\u0430\u043a\u0438\u043d\u0441\u044c\u043a\u0438\u0439 \u0434\u0432\u0456\u0440"}}, {"type": "node", "id": 1502033032, "lat": 48.4977288, "lon": 35.064181}, {"type": "node", "id": 1502033033, "lat": 48.4978324, "lon": 35.0643896}, {"type": "node", "id": 1502033034, "lat": 48.4978721, "lon": 35.064019}, {"type": "node", "id": 1502033036, "lat": 48.4979756, "lon": 35.0642276}, {"type": "node", "id": 1591470565, "lat": 48.473131, "lon": 34.9912488}, {"type": "node", "id": 1591470567, "lat": 48.4731197, "lon": 34.9917541}, {"type": "node", "id": 1591470569, "lat": 48.4732929, "lon": 34.9915444}, {"type": "node", "id": 1591470571, "lat": 48.4729658, "lon": 34.9914504}, {"type": "node", "id": 1614177288, "lat": 48.4564617, "lon": 35.0505054, "tags": {"addr:housenumber": "20-\u0412", "amenity": "restaurant", "name": "\u0413\u043e\u043b\u0438\u0439 \u0448\u0435\u0444", "name:en": "Naked Chef", "name:uk": "\u0413\u043e\u043b\u0438\u0439 \u0448\u0435\u0444", "toilets:wheelchair": "no", "website": "http://naked-chef.com.ua", "wheelchair": "limited"}}, {"type": "node", "id": 2032220125, "lat": 48.4662128, "lon": 35.0457512}, {"type": "node", "id": 2032220142, "lat": 48.4663455, "lon": 35.0459069}, {"type": "node", "id": 2032220149, "lat": 48.4664428, "lon": 35.0457184}, {"type": "node", "id": 2076778293, "lat": 48.486448, "lon": 35.0613943}, {"type": "node", "id": 2076778294, "lat": 48.4864328, "lon": 35.06162}, {"type": "node", "id": 2076778295, "lat": 48.4865465, "lon": 35.0615838, "tags": {"addr:housenumber": "1-\u041f", "addr:street": "\u0421\u043b\u043e\u0431\u043e\u0436\u0430\u043d\u0441\u044c\u043a\u0438\u0439 \u043f\u0440\u043e\u0441\u043f\u0435\u043a\u0442", "amenity": "restaurant", "cuisine": "international", "name": "\u0421\u0442\u0430\u0440\u0438\u0439 \u043f\u0430\u0440\u043a", "name:uk": "\u0421\u0442\u0430\u0440\u0438\u0439 \u043f\u0430\u0440\u043a", "website": "https://www.starypark.dp.ua/"}}, {"type": "node", "id": 2076778296, "lat": 48.4866154, "lon": 35.061648}, {"type": "node", "id": 2076778297, "lat": 48.4866306, "lon": 35.0614223}, {"type": "node", "id": 2098299660, "lat": 48.4808766, "lon": 35.0677727, "tags": {"amenity": "restaurant", "name": "\u041f\u0456\u043a\u043d\u0456\u043a", "name:en": "Picnic", "name:ru": "\u041f\u0438\u043a\u043d\u0438\u043a", "name:uk": "\u041f\u0456\u043a\u043d\u0456\u043a"}}, {"type": "node", "id": 2098299661, "lat": 48.4800003, "lon": 35.0703307, "tags": {"amenity": "restaurant", "name": "\u0420\u0456\u0432'\u0454\u0440\u0430", "name:uk": "\u0420\u0456\u0432'\u0454\u0440\u0430"}}, {"type": "node", "id": 2098299682, "lat": 48.4807095, "lon": 35.0680664}, {"type": "node", "id": 2098299683, "lat": 48.4808079, "lon": 35.0681313}, {"type": "node", "id": 2098299684, "lat": 48.4808839, "lon": 35.0674647}, {"type": "node", "id": 2098299685, "lat": 48.4809823, "lon": 35.0675296}, {"type": "node", "id": 2104090169, "lat": 48.445771, "lon": 35.0799572}, {"type": "node", "id": 2104090170, "lat": 48.4460225, "lon": 35.0808745}, {"type": "node", "id": 2104090172, "lat": 48.4468578, "lon": 35.0788576}, {"type": "node", "id": 2104118128, "lat": 48.4473865, "lon": 35.0819206}, {"type": "node", "id": 2104492090, "lat": 48.4494947, "lon": 35.0797977}, {"type": "node", "id": 2104492091, "lat": 48.4478546, "lon": 35.0775668}, {"type": "node", "id": 2104512989, "lat": 48.4399593, "lon": 35.072957}, {"type": "node", "id": 2104512990, "lat": 48.4401599, "lon": 35.071887}, {"type": "node", "id": 2104512997, "lat": 48.4410069, "lon": 35.0734359}, {"type": "node", "id": 2104513006, "lat": 48.4411924, "lon": 35.0723268}, {"type": "node", "id": 2149602013, "lat": 48.4624271, "lon": 35.0515772, "tags": {"air_conditioning": "yes", "amenity": "restaurant", "cuisine": "fine_dining", "indoor_seating": "yes", "internet_access": "wlan", "name": "\u041b\u0435 \u0413\u0440\u0430\u043d\u0434", "name:en": "Le Grand", "name:ru": "\u041b\u0435 \u0413\u0440\u0430\u043d\u0434", "name:uk": "\u041b\u0435 \u0413\u0440\u0430\u043d\u0434", "opening_hours": "Mo-Su 10:00-24:00", "outdoor_seating": "no", "phone": "+380 97 673 4539", "smoking": "no", "website": "http://www.le-grand.dp.ua"}}, {"type": "node", "id": 2149626343, "lat": 48.4627351, "lon": 35.0524199, "tags": {"amenity": "restaurant", "name": "\u0420\u0435\u0441\u0442\u043e\u0440\u0430\u043d-\u0431\u0443\u0442\u0438\u043a \u041f\u0430\u0441\u0442\u043e\u0440\u0430\u043b\u044c", "name:uk": "\u0420\u0435\u0441\u0442\u043e\u0440\u0430\u043d-\u0431\u0443\u0442\u0438\u043a \u041f\u0430\u0441\u0442\u043e\u0440\u0430\u043b\u044c", "opening_hours": "Mo-Su 08:30-23:00"}}, {"type": "node", "id": 2219852253, "lat": 48.4723837, "lon": 35.0323928, "tags": {"amenity": "restaurant", "cuisine": "pizza", "name": "Pizza Project", "name:uk": "Pizza Project"}}, {"type": "node", "id": 2241852583, "lat": 48.4645101, "lon": 35.0442125}, {"type": "node", "id": 2241852586, "lat": 48.4646015, "lon": 35.0443142}, {"type": "node", "id": 2241852589, "lat": 48.4646217, "lon": 35.0439847}, {"type": "node", "id": 2241852591, "lat": 48.4646472, "lon": 35.0442208}, {"type": "node", "id": 2241852596, "lat": 48.4647048, "lon": 35.0442849}, {"type": "node", "id": 2241852599, "lat": 48.4647692, "lon": 35.0441533}, {"type": "node", "id": 2268832697, "lat": 48.437267, "lon": 35.0714871}, {"type": "node", "id": 2268832699, "lat": 48.4376088, "lon": 35.071635}, {"type": "node", "id": 2268832700, "lat": 48.4377328, "lon": 35.0705745}, {"type": "node", "id": 2279177986, "lat": 48.4117496, "lon": 35.0807211, "tags": {"amenity": "restaurant", "check_date:opening_hours": "2022-11-05", "name": "Beer Winner", "name:uk": "Beer Winner", "opening_hours:signed": "no"}}, {"type": "node", "id": 2314297408, "lat": 48.447705, "lon": 35.0568348, "tags": {"amenity": "restaurant", "contact:facebook": "https://www.facebook.com/bonmarito2020/", "cuisine": "european;italian;pasta;pizza", "name": "Bon Marito", "name:uk": "Bon Marito", "opening_hours": "Mo-Fr 09:00-21:00;Sa-Su 10:00-21:00", "phone": "+380 96 850 2050", "wheelchair": "no"}}, {"type": "node", "id": 2355893595, "lat": 48.4115349, "lon": 35.0632416, "tags": {"amenity": "restaurant", "cuisine": "regional", "internet_access": "wlan", "name": "\u041a\u043e\u043c\u043e\u0434", "name:uk": "\u041a\u043e\u043c\u043e\u0434", "website": "http://komod-rest.dp.ua"}}, {"type": "node", "id": 2358454803, "lat": 48.4120486, "lon": 35.0418304}, {"type": "node", "id": 2358454806, "lat": 48.4120528, "lon": 35.0418861}, {"type": "node", "id": 2358454809, "lat": 48.4120528, "lon": 35.0420049}, {"type": "node", "id": 2358454811, "lat": 48.4120528, "lon": 35.0420366}, {"type": "node", "id": 2358454817, "lat": 48.4120604, "lon": 35.0419455}, {"type": "node", "id": 2358454820, "lat": 48.4120621, "lon": 35.0417912}, {"type": "node", "id": 2358454822, "lat": 48.412068, "lon": 35.0419177}, {"type": "node", "id": 2358454825, "lat": 48.412068, "lon": 35.0420859}, {"type": "node", "id": 2358454839, "lat": 48.4120873, "lon": 35.0417634}, {"type": "node", "id": 2358454841, "lat": 48.4120957, "lon": 35.0421264}, {"type": "node", "id": 2358454853, "lat": 48.4121225, "lon": 35.0417634}, {"type": "node", "id": 2358454856, "lat": 48.4121301, "lon": 35.0421441}, {"type": "node", "id": 2358454866, "lat": 48.4121418, "lon": 35.0417937}, {"type": "node", "id": 2358454871, "lat": 48.4121569, "lon": 35.0418228}, {"type": "node", "id": 2358454873, "lat": 48.4121595, "lon": 35.0417204}, {"type": "node", "id": 2358454874, "lat": 48.4121611, "lon": 35.0417735}, {"type": "node", "id": 2358454877, "lat": 48.4121679, "lon": 35.0421479}, {"type": "node", "id": 2358454881, "lat": 48.4121712, "lon": 35.0416786}, {"type": "node", "id": 2358454883, "lat": 48.4121746, "lon": 35.0418064}, {"type": "node", "id": 2358454886, "lat": 48.4121905, "lon": 35.0416584}, {"type": "node", "id": 2358454888, "lat": 48.4122031, "lon": 35.0421264}, {"type": "node", "id": 2358454891, "lat": 48.4122199, "lon": 35.0416546}, {"type": "node", "id": 2358454896, "lat": 48.4122451, "lon": 35.0416571}, {"type": "node", "id": 2358454902, "lat": 48.4122611, "lon": 35.0416837}, {"type": "node", "id": 2358454903, "lat": 48.4122711, "lon": 35.0417102}, {"type": "node", "id": 2358454912, "lat": 48.4123055, "lon": 35.0416748}, {"type": "node", "id": 2358454926, "lat": 48.4124097, "lon": 35.0419025}, {"type": "node", "id": 2362776776, "lat": 48.4663691, "lon": 35.0377366, "tags": {"amenity": "restaurant", "name": "\u041c\u0435\u043b\u044c\u0445\u0438\u043e\u0440", "name:uk": "\u041c\u0435\u043b\u044c\u0445\u0438\u043e\u0440"}}, {"type": "node", "id": 2366280128, "lat": 48.468337, "lon": 35.0463097, "tags": {"amenity": "restaurant", "cuisine": "indian;vegeterian", "name": "\u0414\u0430\u043c\u043e\u0434\u0430\u0440\u0430", "name:uk": "\u0414\u0430\u043c\u043e\u0434\u0430\u0440\u0430", "opening_hours": "Mo-Su 10:30-21:00", "phone": "+380 56 734 4022", "website": "http://www.damodara.dp.ua/"}}, {"type": "node", "id": 2369456176, "lat": 48.4513791, "lon": 35.0702425, "tags": {"amenity": "restaurant", "name": "Spoon", "name:uk": "Spoon"}}, {"type": "node", "id": 2382485276, "lat": 48.4593031, "lon": 35.0670472, "tags": {"amenity": "restaurant", "name": "Abu dhabi", "name:uk": "Abu dhabi"}}, {"type": "node", "id": 2395444204, "lat": 48.4657007, "lon": 35.0470159, "tags": {"amenity": "restaurant", "cuisine": "regional", "name": "\u0414\u0440\u0443\u0436\u0435 \u041f\u0438\u0432\u0430\u0441\u0438\u043a\u0443", "name:uk": "\u0414\u0440\u0443\u0436\u0435 \u041f\u0438\u0432\u0430\u0441\u0438\u043a\u0443"}}, {"type": "node", "id": 2400957798, "lat": 48.4665867, "lon": 35.0474721, "tags": {"amenity": "restaurant", "entrance": "yes", "name": "\u0413\u043e\u0440\u0435\u0446", "name:uk": "\u0413\u043e\u0440\u0435\u0446"}}, {"type": "node", "id": 2400978550, "lat": 48.4660349, "lon": 35.0445867, "tags": {"amenity": "restaurant", "name": "\u0413\u043e\u0433\u043e\u043b\u044c-\u043c\u043e\u0433\u043e\u043b\u044c", "name:uk": "\u0413\u043e\u0433\u043e\u043b\u044c-\u043c\u043e\u0433\u043e\u043b\u044c"}}, {"type": "node", "id": 2407024390, "lat": 48.5198935, "lon": 35.0757381}, {"type": "node", "id": 2407024397, "lat": 48.519912, "lon": 35.0756358}, {"type": "node", "id": 2407024401, "lat": 48.5199375, "lon": 35.0756464}, {"type": "node", "id": 2407024405, "lat": 48.5200071, "lon": 35.0752348}, {"type": "node", "id": 2407024418, "lat": 48.5202329, "lon": 35.0755558}, {"type": "node", "id": 2407024422, "lat": 48.5201837, "lon": 35.0755355}, {"type": "node", "id": 2407024427, "lat": 48.5199827, "lon": 35.0758851}, {"type": "node", "id": 2424864456, "lat": 48.4610051, "lon": 35.0272163, "tags": {"amenity": "restaurant", "cuisine": "regional", "name": "\u0413\u0440\u0438\u043b\u044c-\u0431\u0430\u0440 Taxi", "name:ru": "\u0413\u0440\u0438\u043b\u044c-\u0431\u0430\u0440 Taxi", "name:uk": "\u0413\u0440\u0438\u043b\u044c-\u0431\u0430\u0440 Taxi"}}, {"type": "node", "id": 2478327851, "lat": 48.4663082, "lon": 35.043577, "tags": {"amenity": "restaurant", "cuisine": "regional", "internet_access": "wlan", "name": "\u0422\u043e\u0432\u0430\u0440\u0438\u0448 \u0421\u0430\u0430\u0445\u043e\u0432", "name:ru": "\u0422\u043e\u0432\u0430\u0440\u0438\u0449 \u0421\u0430\u0430\u0445\u043e\u0432", "name:uk": "\u0422\u043e\u0432\u0430\u0440\u0438\u0448 \u0421\u0430\u0430\u0445\u043e\u0432"}}, {"type": "node", "id": 2502993750, "lat": 48.4705003, "lon": 35.0338591}, {"type": "node", "id": 2504617902, "lat": 48.4586166, "lon": 35.0483565, "tags": {"addr:housenumber": "33", "addr:street": "\u0432\u0443\u043b\u0438\u0446\u044f \u041f\u0430\u0442\u043e\u0440\u0436\u0438\u043d\u0441\u044c\u043a\u043e\u0433\u043e", "amenity": "restaurant", "name": "\u041a\u041e\u041b\u0415SO", "name:uk": "\u041a\u041e\u041b\u0415SO", "phone": "+380 97 634 8102"}}, {"type": "node", "id": 2548558260, "lat": 48.3887185, "lon": 35.0399564}, {"type": "node", "id": 2595185548, "lat": 48.4195479, "lon": 35.0620281, "tags": {"amenity": "restaurant", "name": "\u0414\u0436\u0443\u0437\u0435\u043f\u043f\u0435", "name:uk": "\u0414\u0436\u0443\u0437\u0435\u043f\u043f\u0435"}}, {"type": "node", "id": 2622650115, "lat": 48.5010785, "lon": 35.0116507}, {"type": "node", "id": 2622650120, "lat": 48.5011061, "lon": 35.0115317}, {"type": "node", "id": 2622650143, "lat": 48.5014614, "lon": 35.0118437}, {"type": "node", "id": 2622650150, "lat": 48.5013038, "lon": 35.0116361}, {"type": "node", "id": 2626481342, "lat": 48.4613308, "lon": 35.0441179, "tags": {"air_conditioning": "yes", "amenity": "restaurant", "contact:website": "https://www.klassik.dp.ua/", "indoor_seating": "yes", "name": "\u041a\u043b\u0430\u0441\u0438\u043a", "name:ru": "\u041a\u043b\u0430\u0441\u0441\u0438\u043a", "name:uk": "\u041a\u043b\u0430\u0441\u0438\u043a", "opening_hours": "24/7", "outdoor_seating": "yes", "smoking": "no", "sport": "billiards"}}, {"type": "node", "id": 2645333475, "lat": 48.5231697, "lon": 35.0361445, "tags": {"amenity": "restaurant", "name": "\u0410\u0440\u043b\u0435\u043a\u0456\u043d\u043e", "name:uk": "\u0410\u0440\u043b\u0435\u043a\u0456\u043d\u043e"}}, {"type": "node", "id": 2670429347, "lat": 48.4489606, "lon": 35.033628}, {"type": "node", "id": 2671477118, "lat": 48.4488901, "lon": 35.0337907}, {"type": "node", "id": 2671477120, "lat": 48.4489788, "lon": 35.0336942}, {"type": "node", "id": 2671477122, "lat": 48.4489935, "lon": 35.0336604}, {"type": "node", "id": 2671477124, "lat": 48.4490417, "lon": 35.0339402}, {"type": "node", "id": 2671477126, "lat": 48.4490976, "lon": 35.0338112}, {"type": "node", "id": 2674605718, "lat": 48.4150248, "lon": 35.0708486}, {"type": "node", "id": 2674605720, "lat": 48.415214, "lon": 35.0713367}, {"type": "node", "id": 2674605722, "lat": 48.4148535, "lon": 35.0716538}, {"type": "node", "id": 2674605724, "lat": 48.4146643, "lon": 35.0711657}, {"type": "node", "id": 2700201906, "lat": 48.4665869, "lon": 35.0510475, "tags": {"amenity": "restaurant", "cuisine": "italian", "level": "2", "name": "\u041f\u043e\u0440\u0442\u043e\u0444\u0456\u043d\u043e", "name:en": "Portofino", "name:ru": "\u041f\u043e\u0440\u0442\u043e\u0444\u0438\u043d\u043e", "name:uk": "\u041f\u043e\u0440\u0442\u043e\u0444\u0456\u043d\u043e"}}, {"type": "node", "id": 2700201914, "lat": 48.4666356, "lon": 35.0509082, "tags": {"amenity": "restaurant", "cuisine": "european;japanese", "level": "3", "name": "\u0421\u0430\u0442\u043e\u0440\u0438", "name:uk": "\u0421\u0430\u0442\u043e\u0440\u0438"}}, {"type": "node", "id": 2804716162, "lat": 48.4774841, "lon": 35.076703}, {"type": "node", "id": 2804716163, "lat": 48.4776403, "lon": 35.0769361}, {"type": "node", "id": 2804716164, "lat": 48.4776428, "lon": 35.076461}, {"type": "node", "id": 2804716165, "lat": 48.477799, "lon": 35.0766942}, {"type": "node", "id": 2828551449, "lat": 48.4772221, "lon": 35.0771975}, {"type": "node", "id": 2828551450, "lat": 48.477307, "lon": 35.0773023}, {"type": "node", "id": 2828551451, "lat": 48.4773021, "lon": 35.0769203}, {"type": "node", "id": 2828551452, "lat": 48.4773592, "lon": 35.0771957}, {"type": "node", "id": 2885128164, "lat": 48.4730718, "lon": 35.0303047, "tags": {"addr:housenumber": "88", "addr:street": "\u043f\u0440\u043e\u0441\u043f\u0435\u043a\u0442 \u0414\u043c\u0438\u0442\u0440\u0430 \u042f\u0432\u043e\u0440\u043d\u0438\u0446\u044c\u043a\u043e\u0433\u043e", "air_conditioning": "yes", "amenity": "restaurant", "cuisine": "italian", "indoor_seating": "yes", "name": "\u0424\u0435\u043b\u0438\u0447\u0438\u0442\u0430", "name:uk": "\u0424\u0435\u043b\u0438\u0447\u0438\u0442\u0430", "opening_hours": "Mo-Fr 07:00-24:00; Sa-Su 10:00-24:00", "outdoor_seating": "yes", "payment:credit_cards": "yes", "payment:debit_cards": "yes", "phone": "+380 66 489 2759", "smoking": "outside", "wheelchair": "no"}}, {"type": "node", "id": 2895007411, "lat": 48.5032221, "lon": 34.9799239}, {"type": "node", "id": 2895007412, "lat": 48.5032252, "lon": 34.9800272}, {"type": "node", "id": 2895007413, "lat": 48.5032338, "lon": 34.9799224}, {"type": "node", "id": 2895007415, "lat": 48.5032379, "lon": 34.9798984}, {"type": "node", "id": 2895007416, "lat": 48.5032466, "lon": 34.9798707}, {"type": "node", "id": 2895007417, "lat": 48.5032635, "lon": 34.9798476}, {"type": "node", "id": 2895007418, "lat": 48.5032773, "lon": 34.9798337}, {"type": "node", "id": 2895007419, "lat": 48.5032885, "lon": 34.9797735}, {"type": "node", "id": 2895007420, "lat": 48.5032895, "lon": 34.9797889}, {"type": "node", "id": 2895007421, "lat": 48.5032911, "lon": 34.9798283}, {"type": "node", "id": 2895007422, "lat": 48.5032936, "lon": 34.9800326}, {"type": "node", "id": 2895007423, "lat": 48.5033079, "lon": 34.9800612}, {"type": "node", "id": 2895007424, "lat": 48.5033105, "lon": 34.9797774}, {"type": "node", "id": 2895007425, "lat": 48.5033136, "lon": 34.9797488}, {"type": "node", "id": 2895007426, "lat": 48.5033227, "lon": 34.9800373}, {"type": "node", "id": 2895007427, "lat": 48.5033692, "lon": 34.9799447}, {"type": "node", "id": 2895007428, "lat": 48.5033708, "lon": 34.9799532}, {"type": "node", "id": 2895007431, "lat": 48.5034117, "lon": 34.979954}, {"type": "node", "id": 2895007432, "lat": 48.5034311, "lon": 34.9800388}, {"type": "node", "id": 2895007433, "lat": 48.5034433, "lon": 34.9800403}, {"type": "node", "id": 2895007434, "lat": 48.5034515, "lon": 34.9798591}, {"type": "node", "id": 2913223727, "lat": 48.4616222, "lon": 35.0210561}, {"type": "node", "id": 2913223728, "lat": 48.4616931, "lon": 35.0208649}, {"type": "node", "id": 2913223730, "lat": 48.4617288, "lon": 35.0211186}, {"type": "node", "id": 2913223731, "lat": 48.4618085, "lon": 35.0209326}, {"type": "node", "id": 2922292502, "lat": 48.4545644, "lon": 35.0239443}, {"type": "node", "id": 2922292504, "lat": 48.4545817, "lon": 35.0238865}, {"type": "node", "id": 3186253227, "lat": 48.4732352, "lon": 35.0040735, "tags": {"amenity": "restaurant", "name": "Sultan", "name:uk": "Sultan"}}, {"type": "node", "id": 3198382995, "lat": 48.4637444, "lon": 35.0538679, "tags": {"amenity": "restaurant", "check_date:opening_hours": "2022-11-06", "description:ru": "\u0420\u0435\u0441\u0442\u043e\u0440\u0430\u043d\u043d\u044b\u0439 \u043a\u043e\u043c\u043f\u043b\u0435\u043a\u0441 \u00abMenorah Grand Palace\u00bb \u044f\u0432\u043b\u044f\u0435\u0442\u0441\u044f \u043f\u0440\u0435\u043a\u0440\u0430\u0441\u043d\u044b\u043c \u043c\u0435\u0441\u0442\u043e\u043c \u0434\u043b\u044f \u043f\u0440\u043e\u0432\u0435\u0434\u0435\u043d\u0438\u044f \u043c\u0430\u0441\u0448\u0442\u0430\u0431\u043d\u044b\u0445 \u044d\u043b\u0438\u0442\u043d\u044b\u0445 \u0442\u043e\u0440\u0436\u0435\u0441\u0442\u0432 , \u043a\u043e\u043d\u0446\u0435\u0440\u0442\u043d\u044b\u0445 \u0432\u044b\u0441\u0442\u0443\u043f\u043b\u0435\u043d\u0438\u0439, \u043a\u0443\u043b\u044c\u0442\u0443\u0440\u043d\u044b\u0445 \u0438 \u0432\u044b\u0441\u0442\u0430\u0432\u043e\u0447\u043d\u044b\u0445 \u043c\u0435\u0440\u043e\u043f\u0440\u0438\u044f\u0442\u0438\u0439,\u043a\u0440\u0443\u043f\u043d\u044b\u0445 \u043a\u043e\u043d\u0444\u0435\u0440\u0435\u043d\u0446\u0438\u0439 \u0438 \u0441\u0435\u043c\u0438\u043d\u0430\u0440\u043e\u0432.", "name": "\u0420\u0435\u0441\u0442\u043e\u0440\u0430\u043d\u043d\u0438\u0439 \u043a\u043e\u043c\u043f\u043b\u0435\u043a\u0441 \u00abMenorah Grand Palace\u00bb", "name:ru": "\u0420\u0435\u0441\u0442\u043e\u0440\u0430\u043d\u043d\u044b\u0439 \u043a\u043e\u043c\u043f\u043b\u0435\u043a\u0441 \u00abMenorah Grand Palace\u00bb", "name:uk": "\u0420\u0435\u0441\u0442\u043e\u0440\u0430\u043d\u043d\u0438\u0439 \u043a\u043e\u043c\u043f\u043b\u0435\u043a\u0441 \u00abMenorah Grand Palace\u00bb", "opening_hours:signed": "no", "phone": "+380 56 717 7784;+380 56 717 7775;+380 56 717 7714;+380 56 717 7715", "website": "http://menorahall.com"}}, {"type": "node", "id": 3254551959, "lat": 48.4592744, "lon": 35.0450922, "tags": {"amenity": "restaurant", "cuisine": "georgian", "name": "\u0421\u0442\u0430\u0440\u0438\u0439 \u0422\u0456\u0444\u043b\u0456\u0441", "name:ru": "\u0421\u0442\u0430\u0440\u044b\u0439 \u0422\u0438\u0444\u043b\u0438\u0441", "name:uk": "\u0421\u0442\u0430\u0440\u0438\u0439 \u0422\u0456\u0444\u043b\u0456\u0441", "official_name": "\u0421\u0442\u0430\u0440\u044b\u0439 \u0422\u0438\u0444\u043b\u0438\u0441\u044a"}}, {"type": "node", "id": 3256113731, "lat": 48.4636099, "lon": 35.0509195, "tags": {"amenity": "restaurant", "name": "Yerevan", "name:uk": "Yerevan", "was:amenity": "restaurant"}}, {"type": "node", "id": 3303384501, "lat": 48.4739223, "lon": 35.025665, "tags": {"air_conditioning": "yes", "amenity": "restaurant", "indoor_seating": "yes", "name": "\u0417\u0430\u0433\u043b\u044f\u043d\u0438 \u0413\u0435\u043d\u0430\u0446\u0432\u0430\u043b\u0454", "name:uk": "\u0417\u0430\u0433\u043b\u044f\u043d\u0438 \u0413\u0435\u043d\u0430\u0446\u0432\u0430\u043b\u0454", "outdoor_seating": "no", "smoking": "no"}}, {"type": "node", "id": 3456460615, "lat": 48.4302738, "lon": 35.0412917, "tags": {"amenity": "restaurant"}}, {"type": "node", "id": 3474178344, "lat": 48.4270079, "lon": 35.0323009, "tags": {"amenity": "restaurant", "cuisine": "georgian", "name": "\u0421\u0443\u043bi\u043a\u043e", "name:en": "Suliko", "name:ru": "\u0421\u0443\u043b\u0438\u043a\u043e", "name:uk": "\u041f\u043e\u043b\u043e\u0442\u043d\u043e"}}, {"type": "node", "id": 3527084310, "lat": 48.4546565, "lon": 35.0238514}, {"type": "node", "id": 3527084313, "lat": 48.4546244, "lon": 35.0239585}, {"type": "node", "id": 3669187587, "lat": 48.4740771, "lon": 35.041543}, {"type": "node", "id": 3669187588, "lat": 48.47408, "lon": 35.0415952}, {"type": "node", "id": 3669187590, "lat": 48.4740832, "lon": 35.0414915}, {"type": "node", "id": 3669187592, "lat": 48.4740917, "lon": 35.0416445}, {"type": "node", "id": 3669187593, "lat": 48.474098, "lon": 35.0414442}, {"type": "node", "id": 3669187597, "lat": 48.4741115, "lon": 35.0416875}, {"type": "node", "id": 3669187608, "lat": 48.4741205, "lon": 35.0414042}, {"type": "node", "id": 3669191232, "lat": 48.474138, "lon": 35.0417213}, {"type": "node", "id": 3669191248, "lat": 48.474149, "lon": 35.0413744}, {"type": "node", "id": 3669191280, "lat": 48.4741694, "lon": 35.0417436}, {"type": "node", "id": 3669191300, "lat": 48.4741816, "lon": 35.0413567}, {"type": "node", "id": 3669191334, "lat": 48.4742035, "lon": 35.0417529}, {"type": "node", "id": 3669191357, "lat": 48.4742162, "lon": 35.0413523}, {"type": "node", "id": 3669191392, "lat": 48.4742381, "lon": 35.0417486}, {"type": "node", "id": 3669191412, "lat": 48.4742504, "lon": 35.0413616}, {"type": "node", "id": 3669191442, "lat": 48.4742708, "lon": 35.0417309}, {"type": "node", "id": 3669191456, "lat": 48.4742818, "lon": 35.0413839}, {"type": "node", "id": 3669191474, "lat": 48.4742993, "lon": 35.041701, "tags": {"building": "window", "height": "1.5", "min_height": "5.5", "width": "1.2"}}, {"type": "node", "id": 3669191480, "lat": 48.4743083, "lon": 35.0414178}, {"type": "node", "id": 3669191484, "lat": 48.4743217, "lon": 35.0416611, "tags": {"building": "window", "height": "1.5", "min_height": "5.5", "width": "1.2"}}, {"type": "node", "id": 3669191486, "lat": 48.4743281, "lon": 35.0414608}, {"type": "node", "id": 3669191487, "lat": 48.4743365, "lon": 35.0416137}, {"type": "node", "id": 3669191489, "lat": 48.4743398, "lon": 35.04151}, {"type": "node", "id": 3669191490, "lat": 48.4743427, "lon": 35.0415622}, {"type": "node", "id": 3860518370, "lat": 48.4618919, "lon": 35.0481768, "tags": {"amenity": "restaurant", "cuisine": "burger", "name": "Lumber Gastro Bar", "name:uk": "Lumber Gastro Bar", "toilets:wheelchair": "no", "wheelchair": "limited"}}, {"type": "node", "id": 3959707821, "lat": 48.4250139, "lon": 35.0010983, "tags": {"amenity": "restaurant", "name": "\u0428\u0435\u0448-\u0431\u0435\u0448", "name:uk": "\u0428\u0435\u0448-\u0431\u0435\u0448"}}, {"type": "node", "id": 4047899161, "lat": 48.4884885, "lon": 34.934221}, {"type": "node", "id": 4047899162, "lat": 48.4885584, "lon": 34.9345847}, {"type": "node", "id": 4047899163, "lat": 48.4884903, "lon": 34.9346145}, {"type": "node", "id": 4047899164, "lat": 48.4884205, "lon": 34.9342507}, {"type": "node", "id": 4127076401, "lat": 48.464361, "lon": 35.0480238, "tags": {"amenity": "restaurant", "capacity": "50", "cuisine": "spanish", "level": "5", "name": "\u0422\u0430\u0432\u0435\u0440\u043d\u0430 \"\u0406\u0441\u043f\u0430\u043d\u0441\u044c\u043a\u0438\u0439 \u043b\u044c\u043e\u0442\u0447\u0438\u043a\"", "name:uk": "\u0422\u0430\u0432\u0435\u0440\u043d\u0430 \"\u0406\u0441\u043f\u0430\u043d\u0441\u044c\u043a\u0438\u0439 \u043b\u044c\u043e\u0442\u0447\u0438\u043a\"", "opening_hours": "10:00-24:00", "phone": "+380 563 76 0895", "smoking": "no", "website": "https://il.dp.ua/", "wheelchair": "yes"}}, {"type": "node", "id": 4380059404, "lat": 48.4454531, "lon": 35.004227, "tags": {"amenity": "restaurant", "name": "\u0413\u0443\u0440\u0456\u044f", "name:ru": "\u0413\u0443\u0440\u0438\u044f", "name:uk": "\u0413\u0443\u0440\u0456\u044f"}}, {"type": "node", "id": 4384857469, "lat": 48.4180592, "lon": 35.0476545, "tags": {"amenity": "restaurant", "name": "\u041b\u0430\u0432\u0438\u043d\u0430", "name:ru": "\u041b\u0430\u0432\u0438\u043d\u0430", "name:uk": "\u041b\u0430\u0432\u0438\u043d\u0430"}}, {"type": "node", "id": 4386770326, "lat": 48.4399967, "lon": 34.9744054, "tags": {"amenity": "restaurant", "name": "\u0421\u0442\u0430\u0440\u0438\u0439 \u0417\u0430\u043c\u043e\u043a", "name:ru": "\u0421\u0442\u0430\u0440\u044b\u0439 \u0437\u0430\u043c\u043e\u043a", "name:uk": "\u0421\u0442\u0430\u0440\u0438\u0439 \u0417\u0430\u043c\u043e\u043a"}}, {"type": "node", "id": 4402566000, "lat": 48.4685593, "lon": 35.0598162, "tags": {"amenity": "restaurant", "name": "\u0413\u043e\u0440\u0435\u0446\u044c", "name:ru": "\u0413\u043e\u0440\u0435\u0446", "name:uk": "\u0413\u043e\u0440\u0435\u0446\u044c", "toilets:wheelchair": "no", "wheelchair": "limited"}}, {"type": "node", "id": 4402775989, "lat": 48.4689763, "lon": 35.0576385, "tags": {"amenity": "restaurant", "name": "\u0421\u0435\u0440\u043f\u0435\u043d\u044c", "name:ru": "\u0410\u0432\u0433\u0443\u0441\u0442", "name:uk": "\u0421\u0435\u0440\u043f\u0435\u043d\u044c"}}, {"type": "node", "id": 4414859995, "lat": 48.4734966, "lon": 35.010409, "tags": {"amenity": "restaurant"}}, {"type": "node", "id": 4428585490, "lat": 48.4083757, "lon": 35.0517867}, {"type": "node", "id": 4445517190, "lat": 48.4637088, "lon": 35.0521498, "tags": {"amenity": "restaurant", "indoor_seating": "yes", "name": "\u041c\u0430\u0445\u043d\u043e\u041f\u0430\u0431", "name:ru": "\u041c\u0430\u0445\u043d\u043e\u041f\u0430\u0431", "name:uk": "\u041c\u0430\u0445\u043d\u043e\u041f\u0430\u0431", "outdoor_seating": "no"}}, {"type": "node", "id": 4636739804, "lat": 48.4799964, "lon": 34.9497862, "tags": {"amenity": "restaurant", "name": "\u041a\u043e\u043b\u0438\u0431\u0430", "name:uk": "\u041a\u043e\u043b\u0438\u0431\u0430"}}, {"type": "node", "id": 4857286969, "lat": 48.4629426, "lon": 35.0416338, "tags": {"amenity": "restaurant", "cuisine": "regional", "name": "\u041f\u043e\u0434\u0432\u043e\u0440\u043e\u0442\u043d\u044f", "name:uk": "\u041f\u043e\u0434\u0432\u043e\u0440\u043e\u0442\u043d\u044f"}}, {"type": "node", "id": 4859381963, "lat": 48.4601093, "lon": 35.043793, "tags": {"amenity": "restaurant", "indoor_seating": "yes", "name": "\u041a\u0440\u0438\u043c\u0441\u044c\u043a\u0438\u0439 \u0433\u043b\u0435\u0447\u0438\u043a", "name:uk": "\u041a\u0440\u0438\u043c\u0441\u044c\u043a\u0438\u0439 \u0433\u043b\u0435\u0447\u0438\u043a", "outdoor_seating": "no"}}, {"type": "node", "id": 4869472524, "lat": 48.4629622, "lon": 35.0467144, "tags": {"amenity": "restaurant", "contact:facebook": "https://www.facebook.com/onegogi.dp/", "contact:instagram": "https://www.instagram.com/onegogi.dp/", "cuisine": "georgian", "entrance": "yes", "internet_access": "wlan", "name": "One Gogi", "name:en": "One Gogi", "name:uk": "\u0412\u0430\u043d \u0413\u043e\u0433\u0456", "opening_hours": "Mo-Su 11:00-22:00", "phone": "+380 99 003 6890", "website": "https://onegogi.com/dnepr/"}}, {"type": "node", "id": 4901554421, "lat": 48.4634377, "lon": 35.0460749, "tags": {"air_conditioning": "yes", "amenity": "restaurant", "contact:instagram": "https://www.instagram.com/varburger_bar/", "cuisine": "burger", "entrance": "yes", "indoor_seating": "yes", "internet_access": "wlan", "name": "Varburger Bar", "name:en": "Var Burger", "name:uk": "Varburger Bar", "opening_hours": "Mo-Su 10:00-22:00", "outdoor_seating": "yes", "phone": "+380 96 333 3636", "smoking": "no", "website": "https://www.facebook.com/varburger/"}}, {"type": "node", "id": 4901617738, "lat": 48.4733569, "lon": 35.0289287, "tags": {"amenity": "restaurant", "cuisine": "french", "internet_access": "wlan", "name": "\u041f\u0430-\u0421\u0456-\u0414\u0436\u0443", "name:en": "Pa-Si-Ju", "name:uk": "\u041f\u0430-\u0421\u0456-\u0414\u0436\u0443", "opening_hours": "Mo-Su 08:00-23:00", "phone": "+380 68 555 9191", "website": "http://pasiju.com.ua"}}, {"type": "node", "id": 4928425589, "lat": 48.4290731, "lon": 35.0205671}, {"type": "node", "id": 4928425590, "lat": 48.429171, "lon": 35.0208487}, {"type": "node", "id": 4928425591, "lat": 48.4293162, "lon": 35.0207341}, {"type": "node", "id": 4928425592, "lat": 48.4292184, "lon": 35.0204524}, {"type": "node", "id": 4929336025, "lat": 48.4607419, "lon": 35.0416525, "tags": {"amenity": "restaurant", "cuisine": "georgian", "name": "\u0421\u0443\u043b\u0456\u043a\u043e", "name:pl": "Suliko", "name:uk": "\u0421\u0443\u043b\u0456\u043a\u043e", "opening_hours": "Mo-Su 10:00-23:00"}}, {"type": "node", "id": 4935240422, "lat": 48.4590889, "lon": 35.0707128, "tags": {"amenity": "restaurant", "name": "\u0414\u0438\u043a\u0430 \u043a\u0430\u0447\u043a\u0430", "name:ru": "\u0414\u0438\u043a\u0430\u044f \u0443\u0442\u043a\u0430", "name:uk": "\u0414\u0438\u043a\u0430 \u043a\u0430\u0447\u043a\u0430"}}, {"type": "node", "id": 5005757194, "lat": 48.4807524, "lon": 35.0679184}, {"type": "node", "id": 5101253200, "lat": 48.4460433, "lon": 35.0824356}, {"type": "node", "id": 5101253201, "lat": 48.4459881, "lon": 35.0823686}, {"type": "node", "id": 5101253202, "lat": 48.4459685, "lon": 35.0823256}, {"type": "node", "id": 5101253203, "lat": 48.4460219, "lon": 35.0819313}, {"type": "node", "id": 5101253204, "lat": 48.445981, "lon": 35.0821137}, {"type": "node", "id": 5101253205, "lat": 48.4459596, "lon": 35.0822586}, {"type": "node", "id": 5101253206, "lat": 48.4460966, "lon": 35.0815129}, {"type": "node", "id": 5103945413, "lat": 48.446772, "lon": 35.0791518}, {"type": "node", "id": 5103945414, "lat": 48.4469524, "lon": 35.0785204}, {"type": "node", "id": 5103945415, "lat": 48.4462787, "lon": 35.0799559}, {"type": "node", "id": 5103945416, "lat": 48.4458707, "lon": 35.0798097}, {"type": "node", "id": 5103945417, "lat": 48.4457888, "lon": 35.0798875}, {"type": "node", "id": 5103945418, "lat": 48.4458505, "lon": 35.0801523}, {"type": "node", "id": 5103945419, "lat": 48.4458049, "lon": 35.0800157}, {"type": "node", "id": 5103959843, "lat": 48.4460123, "lon": 35.0805103}, {"type": "node", "id": 5103959844, "lat": 48.4459875, "lon": 35.080393}, {"type": "node", "id": 5103959845, "lat": 48.4461114, "lon": 35.0812177}, {"type": "node", "id": 5103959846, "lat": 48.4461207, "lon": 35.0813152}, {"type": "node", "id": 5103959847, "lat": 48.4461437, "lon": 35.0814397}, {"type": "node", "id": 5103959849, "lat": 48.4463048, "lon": 35.0814064}, {"type": "node", "id": 5103959850, "lat": 48.4463686, "lon": 35.0813677}, {"type": "node", "id": 5103959852, "lat": 48.4464369, "lon": 35.081281}, {"type": "node", "id": 5103959853, "lat": 48.4464863, "lon": 35.0811793}, {"type": "node", "id": 5103959854, "lat": 48.4465138, "lon": 35.0810684}, {"type": "node", "id": 5103959857, "lat": 48.4465178, "lon": 35.0809412}, {"type": "node", "id": 5103959858, "lat": 48.4466333, "lon": 35.0809139}, {"type": "node", "id": 5103959859, "lat": 48.4466231, "lon": 35.0808117}, {"type": "node", "id": 5103959860, "lat": 48.4464759, "lon": 35.0808434}, {"type": "node", "id": 5103959861, "lat": 48.4464585, "lon": 35.0807931}, {"type": "node", "id": 5103959862, "lat": 48.4464452, "lon": 35.0807072}, {"type": "node", "id": 5103959863, "lat": 48.4464264, "lon": 35.0806273}, {"type": "node", "id": 5103959864, "lat": 48.4463448, "lon": 35.0805513}, {"type": "node", "id": 5103959866, "lat": 48.446264, "lon": 35.0805147}, {"type": "node", "id": 5103959868, "lat": 48.44618, "lon": 35.0805095}, {"type": "node", "id": 5103959869, "lat": 48.4460836, "lon": 35.0805499}, {"type": "node", "id": 5103959870, "lat": 48.4460949, "lon": 35.0805901}, {"type": "node", "id": 5103959871, "lat": 48.4460347, "lon": 35.0806328}, {"type": "node", "id": 5103959872, "lat": 48.4460708, "lon": 35.0808311}, {"type": "node", "id": 5103959873, "lat": 48.446167, "lon": 35.0807628}, {"type": "node", "id": 5103959877, "lat": 48.4463497, "lon": 35.0808883}, {"type": "node", "id": 5103959878, "lat": 48.4463391, "lon": 35.0809125}, {"type": "node", "id": 5103959879, "lat": 48.4463425, "lon": 35.080954}, {"type": "node", "id": 5103959881, "lat": 48.4463592, "lon": 35.0809703}, {"type": "node", "id": 5103959882, "lat": 48.4463521, "lon": 35.0810427}, {"type": "node", "id": 5103959883, "lat": 48.4463334, "lon": 35.0811037}, {"type": "node", "id": 5103959884, "lat": 48.4463157, "lon": 35.0811352}, {"type": "node", "id": 5103959885, "lat": 48.4462968, "lon": 35.0811624}, {"type": "node", "id": 5103959886, "lat": 48.4462594, "lon": 35.0811859}, {"type": "node", "id": 5103962856, "lat": 48.4460915, "lon": 35.0808159}, {"type": "node", "id": 5139343222, "lat": 48.4576601, "lon": 35.0244674, "tags": {"amenity": "restaurant", "contact:housenumber": "40", "contact:street": "\u043f\u0440\u043e\u0441\u043f\u0435\u043a\u0442 \u041e\u043b\u0435\u043a\u0441\u0430\u043d\u0434\u0440\u0430 \u041f\u043e\u043b\u044f", "name": "\u041f\u0430\u043b\u044c\u043c\u0456\u0440\u0430", "name:ru": "\u041f\u0430\u043b\u044c\u043c\u0438\u0440\u0430", "name:uk": "\u041f\u0430\u043b\u044c\u043c\u0456\u0440\u0430"}}, {"type": "node", "id": 5240677613, "lat": 48.4613277, "lon": 35.0700218}, {"type": "node", "id": 5240677614, "lat": 48.461378, "lon": 35.0700768}, {"type": "node", "id": 5240677615, "lat": 48.4614622, "lon": 35.0699016}, {"type": "node", "id": 5240677616, "lat": 48.4614119, "lon": 35.0698466}, {"type": "node", "id": 5304736821, "lat": 48.4112018, "lon": 35.0801439, "tags": {"addr:housenumber": "3", "addr:street": "\u043f\u0440\u043e\u0432\u0443\u043b\u043e\u043a \u0414\u043e\u0431\u0440\u043e\u0432\u043e\u043b\u044c\u0446\u0456\u0432", "amenity": "restaurant", "name": "\u041e\u0434\u0435\u0441\u0430", "name:ru": "\u0413\u041e\u0420\u0415\u0426", "name:uk": "\u041e\u0434\u0435\u0441\u0430", "opening_hours": "Mo-Su 10:00-24:00", "phone": "+380 99 099 1353", "website": "http://gorez.com.ua"}}, {"type": "node", "id": 5680117947, "lat": 48.454242, "lon": 35.0235484, "tags": {"amenity": "restaurant", "name": "\u041f\u0440\u0435\u043c'\u0454\u0440", "name:uk": "\u041f\u0440\u0435\u043c'\u0454\u0440"}}, {"type": "node", "id": 5793766911, "lat": 48.4374709, "lon": 35.070449}, {"type": "node", "id": 5809314820, "lat": 48.4860176, "lon": 35.061676}, {"type": "node", "id": 5809314821, "lat": 48.4861205, "lon": 35.0617928}, {"type": "node", "id": 5809314822, "lat": 48.4861568, "lon": 35.061721}, {"type": "node", "id": 5809314823, "lat": 48.4861557, "lon": 35.0616258}, {"type": "node", "id": 5809314824, "lat": 48.4860702, "lon": 35.0616054}, {"type": "node", "id": 5809314825, "lat": 48.4860578, "lon": 35.0616317}, {"type": "node", "id": 5809314826, "lat": 48.4860446, "lon": 35.0616504}, {"type": "node", "id": 5809314827, "lat": 48.4860323, "lon": 35.0616626}, {"type": "node", "id": 5809314828, "lat": 48.4862783, "lon": 35.0616257}, {"type": "node", "id": 5809314829, "lat": 48.4862923, "lon": 35.0618721}, {"type": "node", "id": 5809314830, "lat": 48.4863696, "lon": 35.0618884}, {"type": "node", "id": 5809314831, "lat": 48.4863782, "lon": 35.0616421}, {"type": "node", "id": 5809314832, "lat": 48.486284, "lon": 35.0617342}, {"type": "node", "id": 5809314833, "lat": 48.4862874, "lon": 35.0618026}, {"type": "node", "id": 5809314834, "lat": 48.4862638, "lon": 35.0617709}, {"type": "node", "id": 5809314835, "lat": 48.4862688, "lon": 35.0617444}, {"type": "node", "id": 5809314836, "lat": 48.4862709, "lon": 35.0617954}, {"type": "node", "id": 5838249333, "lat": 48.4709807, "lon": 35.0066954, "tags": {"amenity": "restaurant", "name": "\u041e\u0434\u0436\u0430\u0445", "name:ru": "\u041e\u0434\u0436\u0430\u0445", "name:uk": "\u041e\u0434\u0436\u0430\u0445"}}, {"type": "node", "id": 6160297826, "lat": 48.4600303, "lon": 35.0642985, "tags": {"addr:housenumber": "11", "addr:street": "\u043f\u0440\u043e\u0432\u0443\u043b\u043e\u043a \u0404\u0432\u0433\u0435\u043d\u0430 \u041a\u043e\u043d\u043e\u0432\u0430\u043b\u044c\u0446\u044f", "amenity": "restaurant", "name": "\u0410\u0431\u0430\u0436\u0443\u0440", "name:uk": "\u0410\u0431\u0430\u0436\u0443\u0440"}}, {"type": "node", "id": 6256618381, "lat": 48.4495009, "lon": 35.0795348}, {"type": "node", "id": 6363454105, "lat": 48.5332751, "lon": 35.0870852, "tags": {"amenity": "restaurant", "contact:facebook": "https://www.facebook.com/plovhochy/", "name": "\u041f\u043b\u043e\u0432 \u0425\u043e\u0447\u0443", "name:uk": "\u041f\u043b\u043e\u0432 \u0425\u043e\u0447\u0443"}}, {"type": "node", "id": 6426498985, "lat": 48.4733291, "lon": 35.0290812, "tags": {"addr:housenumber": "90-\u0410", "addr:postcode": "49000", "addr:street": "\u043f\u0440\u043e\u0441\u043f\u0435\u043a\u0442 \u0414\u043c\u0438\u0442\u0440\u0430 \u042f\u0432\u043e\u0440\u043d\u0438\u0446\u044c\u043a\u043e\u0433\u043e", "amenity": "restaurant", "internet_access": "wlan", "name": "Zeffrino", "name:uk": "Zeffrino", "opening_hours": "Mo-Su 10:00-22:00", "phone": "+380 93 002 2424", "website": "http://zeffirino.com.ua/"}}, {"type": "node", "id": 6461578697, "lat": 48.4470254, "lon": 35.0777283}, {"type": "node", "id": 6481481414, "lat": 48.4952125, "lon": 34.9298201}, {"type": "node", "id": 6481481415, "lat": 48.4952874, "lon": 34.9299005}, {"type": "node", "id": 6481481416, "lat": 48.4955778, "lon": 34.9292914}, {"type": "node", "id": 6481481417, "lat": 48.4954958, "lon": 34.929201}, {"type": "node", "id": 6556223381, "lat": 48.5014793, "lon": 35.0117666}, {"type": "node", "id": 6556223382, "lat": 48.5013332, "lon": 35.0116894}, {"type": "node", "id": 6633135220, "lat": 48.4624957, "lon": 35.0508509, "tags": {"amenity": "restaurant", "name": "BnBbar", "name:uk": "BnBbar", "opening_hours": "24/7", "toilets": "yes", "toilets:access": "customers"}}, {"type": "node", "id": 6895869470, "lat": 48.5164375, "lon": 35.0480139}, {"type": "node", "id": 6895869471, "lat": 48.5164097, "lon": 35.0481466}, {"type": "node", "id": 6895869472, "lat": 48.5164983, "lon": 35.0481888}, {"type": "node", "id": 6895869473, "lat": 48.516526, "lon": 35.0480561}, {"type": "node", "id": 6895869475, "lat": 48.5164508, "lon": 35.0481662}, {"type": "node", "id": 7018927347, "lat": 48.3984476, "lon": 35.0114684}, {"type": "node", "id": 7018927348, "lat": 48.3983354, "lon": 35.011451}, {"type": "node", "id": 7018927349, "lat": 48.3983309, "lon": 35.0115167}, {"type": "node", "id": 7018927350, "lat": 48.3984431, "lon": 35.0115341}, {"type": "node", "id": 7018927351, "lat": 48.3983943, "lon": 35.0115433}, {"type": "node", "id": 7018927352, "lat": 48.3983853, "lon": 35.0116935}, {"type": "node", "id": 7018927353, "lat": 48.3984565, "lon": 35.0117031}, {"type": "node", "id": 7018927354, "lat": 48.3984654, "lon": 35.0115529}, {"type": "node", "id": 7039290343, "lat": 48.5200013, "lon": 35.0757826}, {"type": "node", "id": 7039290344, "lat": 48.5200639, "lon": 35.0759186}, {"type": "node", "id": 7039290345, "lat": 48.5200761, "lon": 35.0758509}, {"type": "node", "id": 7039290346, "lat": 48.5203241, "lon": 35.075437}, {"type": "node", "id": 7039290347, "lat": 48.5202592, "lon": 35.0754103}, {"type": "node", "id": 7039290348, "lat": 48.5202493, "lon": 35.0751728}, {"type": "node", "id": 7039290349, "lat": 48.5200344, "lon": 35.0750841}, {"type": "node", "id": 7039290350, "lat": 48.5200265, "lon": 35.0752428}, {"type": "node", "id": 7039290351, "lat": 48.5200198, "lon": 35.0752799}, {"type": "node", "id": 7039290352, "lat": 48.5200391, "lon": 35.0752878}, {"type": "node", "id": 7039290353, "lat": 48.5200339, "lon": 35.0753165}, {"type": "node", "id": 7039290354, "lat": 48.5200937, "lon": 35.0753412}, {"type": "node", "id": 7039290355, "lat": 48.5200823, "lon": 35.0754039}, {"type": "node", "id": 7039290356, "lat": 48.5200522, "lon": 35.0753918}, {"type": "node", "id": 7039290357, "lat": 48.5200268, "lon": 35.0754302, "tags": {"entrance": "main"}}, {"type": "node", "id": 7039290358, "lat": 48.5200316, "lon": 35.0754847}, {"type": "node", "id": 7039290359, "lat": 48.5200652, "lon": 35.0754983}, {"type": "node", "id": 7039290360, "lat": 48.5200521, "lon": 35.075571}, {"type": "node", "id": 7039290361, "lat": 48.5199582, "lon": 35.0755323}, {"type": "node", "id": 7040039562, "lat": 48.5200725, "lon": 35.0750998}, {"type": "node", "id": 7446839730, "lat": 48.5202372, "lon": 35.0759173}, {"type": "node", "id": 7468272338, "lat": 48.4377874, "lon": 35.0707467}, {"type": "node", "id": 7602765785, "lat": 48.4609151, "lon": 35.0510346, "tags": {"amenity": "restaurant", "cuisine": "asian;austrian;cake;deli;diner;ice_cream", "internet_access": "wlan", "name": "SOHO Restaurant & Bar", "name:ru": "SOHO Restaurant & Bar", "name:uk": "SOHO Restaurant & Bar", "opening_hours": "Mo-Su 08:00-24:00", "phone": "+380 67 564 2255", "website": "https://soho.dp.ua/"}}, {"type": "node", "id": 7603144694, "lat": 48.4606976, "lon": 35.0502488, "tags": {"amenity": "restaurant", "cuisine": "american;asian;austrian;bagel;balkan;barbecue;beef_bowl", "internet_access": "wlan", "name": "Le Grill", "name:ru": "Le Grill", "name:uk": "Le Grill", "opening_hours": "Mo-Fr 08:00-23:00; Sa-Su 09:30-23:00", "phone": "+380 99 921 8980"}}, {"type": "node", "id": 7881761067, "lat": 48.3983931, "lon": 35.0115638}, {"type": "node", "id": 7881765171, "lat": 48.4001966, "lon": 35.0326603, "tags": {"amenity": "restaurant", "name": "\u0421\u0435\u043b\u044c\u0432\u0430\u043c\u0430\u0440", "name:uk": "\u0421\u0435\u043b\u044c\u0432\u0430\u043c\u0430\u0440"}}, {"type": "node", "id": 7941634266, "lat": 48.4495734, "lon": 35.0803964}, {"type": "node", "id": 7941634267, "lat": 48.4487119, "lon": 35.0812554}, {"type": "node", "id": 7941634268, "lat": 48.449331, "lon": 35.0808705}, {"type": "node", "id": 7941634269, "lat": 48.4496112, "lon": 35.080664}, {"type": "node", "id": 7941639672, "lat": 48.449501, "lon": 35.0798325}, {"type": "node", "id": 7941639673, "lat": 48.4476555, "lon": 35.0819632}, {"type": "node", "id": 7941639674, "lat": 48.4475821, "lon": 35.0819109}, {"type": "node", "id": 7941639675, "lat": 48.4472335, "lon": 35.0822318}, {"type": "node", "id": 7941684445, "lat": 48.4470585, "lon": 35.0774794}, {"type": "node", "id": 7941684446, "lat": 48.4469681, "lon": 35.0771019}, {"type": "node", "id": 7941684447, "lat": 48.4468617, "lon": 35.0768244}, {"type": "node", "id": 7941684449, "lat": 48.4470078, "lon": 35.0779647}, {"type": "node", "id": 7941684450, "lat": 48.4470236, "lon": 35.0778007}, {"type": "node", "id": 7941684451, "lat": 48.446915, "lon": 35.0785866}, {"type": "node", "id": 7941684452, "lat": 48.4469094, "lon": 35.0782933}, {"type": "node", "id": 7941684453, "lat": 48.4463902, "lon": 35.0799935}, {"type": "node", "id": 7941685402, "lat": 48.4465562, "lon": 35.0797365}, {"type": "node", "id": 7941685405, "lat": 48.4465868, "lon": 35.0796735}, {"type": "node", "id": 7941685406, "lat": 48.4466036, "lon": 35.079639}, {"type": "node", "id": 7941685409, "lat": 48.4466135, "lon": 35.0796186}, {"type": "node", "id": 7941685410, "lat": 48.4465414, "lon": 35.0797668}, {"type": "node", "id": 7941685411, "lat": 48.44644, "lon": 35.0799492}, {"type": "node", "id": 7941685412, "lat": 48.4464142, "lon": 35.0799814}, {"type": "node", "id": 7941685413, "lat": 48.4460415, "lon": 35.0798312}, {"type": "node", "id": 7941685414, "lat": 48.4459989, "lon": 35.0806256}, {"type": "node", "id": 7941685415, "lat": 48.4460272, "lon": 35.0805825}, {"type": "node", "id": 7941685426, "lat": 48.4467033, "lon": 35.0827709}, {"type": "node", "id": 8169065809, "lat": 48.4600125, "lon": 35.0691659, "tags": {"amenity": "restaurant", "name": "Dollar", "name:uk": "Dollar", "phone": "+380 67 007 5565;+380 67 634 7772", "website": "https://onedollarbar.ua"}}, {"type": "node", "id": 8169070234, "lat": 48.4594015, "lon": 35.0676885, "tags": {"amenity": "restaurant", "cuisine": "seafood", "name": "Soulfish", "name:uk": "Soulfish", "opening_hours": "Mo-Su 10:00-22:00", "phone": "+380 67 485 1000"}}, {"type": "node", "id": 8303541617, "lat": 48.4618617, "lon": 35.0612894, "tags": {"amenity": "restaurant", "name": "\u041c\u0430\u043c\u043e\u044e \u043f\u0440\u0438\u0441\u044f\u0433\u0430\u044e\u0441\u044c", "name:ru": "\u041c\u0430\u043c\u043e\u0439 \u043a\u043b\u044f\u043d\u0443\u0441\u044c", "name:uk": "\u041c\u0430\u043c\u043e\u044e \u043f\u0440\u0438\u0441\u044f\u0433\u0430\u044e\u0441\u044c"}}, {"type": "node", "id": 8358669617, "lat": 48.4628315, "lon": 35.0527515, "tags": {"amenity": "restaurant", "internet_access": "wlan", "name": "\u0427\u043e\u0440\u043d\u043e\u043c\u043e\u0440\u043a\u0430", "name:ru": "\u0427\u043e\u0440\u043d\u043e\u043c\u043e\u0440\u043a\u0430 ( \u041c\u043e\u0440\u0435\u043f\u0440\u043e\u0434\u0443\u043a\u0442\u044b )", "name:uk": "\u0427\u043e\u0440\u043d\u043e\u043c\u043e\u0440\u043a\u0430", "opening_hours": "Mo-Su 11:00-22:00"}}, {"type": "node", "id": 8495143501, "lat": 48.4225018, "lon": 35.0656248, "tags": {"amenity": "restaurant", "cuisine": "italian", "name": "Lustree;Bene", "name:uk": "Lustree;Bene", "outdoor_seating": "yes", "shop": "beauty"}}, {"type": "node", "id": 8608338844, "lat": 48.4215977, "lon": 35.0638787, "tags": {"amenity": "restaurant", "contact:facebook": "https://www.facebook.com/pg/saperavi.dnepr/", "contact:instagram": "https://www.instagram.com/_saperavi_/", "name": "Saperavi", "name:uk": "Saperavi"}}, {"type": "node", "id": 9224941958, "lat": 48.4083919, "lon": 35.051585}, {"type": "node", "id": 9224941959, "lat": 48.4086012, "lon": 35.0517305}, {"type": "node", "id": 9224941960, "lat": 48.4085178, "lon": 35.0514809}, {"type": "node", "id": 9224941961, "lat": 48.4084446, "lon": 35.0517298}, {"type": "node", "id": 9224941963, "lat": 48.4083218, "lon": 35.0516387}, {"type": "node", "id": 9224941964, "lat": 48.4083459, "lon": 35.0519416}, {"type": "node", "id": 9224941965, "lat": 48.4082555, "lon": 35.0516935}, {"type": "node", "id": 9225063897, "lat": 48.4616467, "lon": 35.0209613}, {"type": "node", "id": 9225063898, "lat": 48.4616654, "lon": 35.0209723}, {"type": "node", "id": 9225063899, "lat": 48.4617527, "lon": 35.0210258}, {"type": "node", "id": 9225063900, "lat": 48.4617804, "lon": 35.021042}, {"type": "node", "id": 9391442025, "lat": 48.4616578, "lon": 35.0471174, "tags": {"amenity": "restaurant", "name": "\u041c\u044f\u043e", "name:en": "Myao", "name:uk": "\u041c\u044f\u043e"}}, {"type": "node", "id": 9400756963, "lat": 48.4236655, "lon": 35.0334817}, {"type": "node", "id": 9400756964, "lat": 48.4236562, "lon": 35.0335278}, {"type": "node", "id": 9400756965, "lat": 48.423678, "lon": 35.0335378}, {"type": "node", "id": 9400756966, "lat": 48.4236873, "lon": 35.0334916}, {"type": "node", "id": 9400756967, "lat": 48.4238013, "lon": 35.0334534}, {"type": "node", "id": 9400756968, "lat": 48.4238723, "lon": 35.0334671}, {"type": "node", "id": 9400756969, "lat": 48.4238048, "lon": 35.0334362}, {"type": "node", "id": 9400756970, "lat": 48.4238644, "lon": 35.0335065}, {"type": "node", "id": 9400756971, "lat": 48.423765, "lon": 35.033461}, {"type": "node", "id": 9400756972, "lat": 48.4238004, "lon": 35.0336909}, {"type": "node", "id": 9400756973, "lat": 48.4237409, "lon": 35.0337536}, {"type": "node", "id": 9400756974, "lat": 48.4238056, "lon": 35.0336651}, {"type": "node", "id": 9400756975, "lat": 48.4236922, "lon": 35.0335723}, {"type": "node", "id": 9400756976, "lat": 48.4236728, "lon": 35.0335635}, {"type": "node", "id": 9400756977, "lat": 48.4238492, "lon": 35.0336851}, {"type": "node", "id": 9400756978, "lat": 48.4238557, "lon": 35.0336529}, {"type": "node", "id": 9400756979, "lat": 48.4236995, "lon": 35.033431}, {"type": "node", "id": 9400756980, "lat": 48.4238909, "lon": 35.0335186}, {"type": "node", "id": 9400756981, "lat": 48.4238632, "lon": 35.0336564}, {"type": "node", "id": 9400756982, "lat": 48.4236628, "lon": 35.0337179}, {"type": "node", "id": 9468693032, "lat": 48.42144, "lon": 35.0664917, "tags": {"amenity": "restaurant", "name": "\u041a\u0443\u0437\u0435\u043d", "name:uk": "\u041a\u0443\u0437\u0435\u043d"}}, {"type": "node", "id": 9495090995, "lat": 48.4429842, "lon": 34.7946938, "tags": {"amenity": "restaurant", "cuisine": "sushi", "name": "Royal choice", "name:uk": "Royal choice"}}, {"type": "node", "id": 9688782620, "lat": 48.4665867, "lon": 35.0474721}, {"type": "node", "id": 9725523677, "lat": 48.4460932, "lon": 35.0814917}, {"type": "node", "id": 9725523686, "lat": 48.4464051, "lon": 35.0826291}, {"type": "node", "id": 9758500194, "lat": 48.4638426, "lon": 35.0503585, "tags": {"amenity": "restaurant", "cuisine": "italian", "internet_access": "wlan", "internet_access:fee": "no", "name": "\u0406\u0442\u0430\u043b\u0456\u0439\u0441\u044c\u043a\u0438\u0439 \u043a\u0432\u0430\u0440\u0442\u0430\u043b", "name:ru": "\u0418\u0442\u0430\u043b\u044c\u044f\u043d\u0441\u043a\u0438\u0439 \u043a\u0432\u0430\u0440\u0442\u0430\u043b", "name:uk": "\u0406\u0442\u0430\u043b\u0456\u0439\u0441\u044c\u043a\u0438\u0439 \u043a\u0432\u0430\u0440\u0442\u0430\u043b", "opening_hours": "24/7", "outdoor_seating": "yes", "phone": "+380 56 788 2000", "website": "https://www.ik.dp.ua/"}}, {"type": "node", "id": 9758500201, "lat": 48.4644184, "lon": 35.0492983, "tags": {"amenity": "restaurant", "contact:facebook": "https://www.facebook.com/brookseatsdrinks/", "contact:instagram": "https://www.instagram.com/brookseatsdrinks/", "full_name": "Brooks eats&drinks", "name": "Brooks", "name:uk": "Brooks", "opening_hours": "Mo-Su 09:00-23:00", "phone": "+380 63 535 3333"}}, {"type": "node", "id": 9811813617, "lat": 48.4592903, "lon": 35.0569391, "tags": {"addr:postcode": "49000", "amenity": "restaurant", "name": "Ciannivino", "name:en": "Ciannivino/Giannivino", "name:uk": "Ciannivino"}}, {"type": "node", "id": 9981856910, "lat": 48.484974, "lon": 34.9227239, "tags": {"amenity": "restaurant", "cuisine": "coffee_shop", "name": "\u0424\u0440\u0430\u043d\u0441.\u0443\u0430", "name:uk": "\u0424\u0440\u0430\u043d\u0441.\u0443\u0430"}}, {"type": "node", "id": 9986852216, "lat": 48.4601371, "lon": 35.049628, "tags": {"amenity": "restaurant", "name": "Floks", "name:uk": "Floks"}}, {"type": "node", "id": 9986941518, "lat": 48.4621558, "lon": 35.0426101, "tags": {"amenity": "restaurant", "contact:instagram": "https://www.instagram.com/karlson.dp/", "entrance": "yes", "name": "Karlson", "name:uk": "Karlson", "opening_hours:kitchen": "Mo-Su 08:00-22:00"}}, {"type": "node", "id": 9986941521, "lat": 48.4612915, "lon": 35.0442004, "tags": {"air_conditioning": "yes", "amenity": "restaurant", "indoor_seating": "yes", "name": "Bongusta", "name:uk": "Bongusta", "outdoor_seating": "yes", "smoking": "no"}}, {"type": "node", "id": 10292390909, "lat": 48.4594103, "lon": 35.053438, "tags": {"amenity": "restaurant", "name": "\u0421\u0435\u043d\u0430\u0442\u043e\u0440", "name:uk": "\u0421\u0435\u043d\u0430\u0442\u043e\u0440"}}, {"type": "node", "id": 10733740905, "lat": 48.4388518, "lon": 35.0701813, "tags": {"amenity": "restaurant", "name": "Sova", "name:uk": "Sova"}}, {"type": "node", "id": 10791062675, "lat": 48.4620654, "lon": 35.0515768, "tags": {"amenity": "restaurant", "name": "\u0420\u0435\u043f\u043e\u0440\u0442\u0435\u0440", "name:uk": "\u0420\u0435\u043f\u043e\u0440\u0442\u0435\u0440", "opening_hours": "Mo-Su 09:00-21:00"}}, {"type": "node", "id": 10930608031, "lat": 48.4644484, "lon": 35.044015, "tags": {"amenity": "restaurant"}}, {"type": "node", "id": 11007084872, "lat": 48.477268, "lon": 35.0769831}, {"type": "node", "id": 11007084873, "lat": 48.4773001, "lon": 35.0770227}, {"type": "node", "id": 11007084874, "lat": 48.4772653, "lon": 35.0770868}, {"type": "node", "id": 11007084875, "lat": 48.4772754, "lon": 35.0770992}, {"type": "node", "id": 11007084876, "lat": 48.4774206, "lon": 35.0770666}, {"type": "node", "id": 11007084877, "lat": 48.4773802, "lon": 35.0771411}, {"type": "node", "id": 11007084878, "lat": 48.4773854, "lon": 35.0771475}, {"type": "node", "id": 11007084879, "lat": 48.4773631, "lon": 35.0772005}, {"type": "node", "id": 11007084880, "lat": 48.4773461, "lon": 35.0772318}, {"type": "node", "id": 11007084881, "lat": 48.4773205, "lon": 35.0772774}, {"type": "node", "id": 11007084882, "lat": 48.4773516, "lon": 35.0772385}, {"type": "node", "id": 11007084889, "lat": 48.4773265, "lon": 35.0772848}, {"type": "node", "id": 11007084890, "lat": 48.4773487, "lon": 35.077244}, {"type": "node", "id": 11007084893, "lat": 48.47733, "lon": 35.0772784}, {"type": "node", "id": 11023670967, "lat": 48.4697087, "lon": 35.0555861, "tags": {"addr:housenumber": "35-\u0411", "amenity": "restaurant", "name": "\u0410\u043a\u0432\u0430\u0440\u0435\u043b\u044c", "name:uk": "\u0410\u043a\u0432\u0430\u0440\u0435\u043b\u044c", "phone": "+380 67 631 1514", "website": "https://www.instagram.com/restoranakvarel/"}}, {"type": "node", "id": 11025801430, "lat": 48.5258544, "lon": 35.0163221, "tags": {"air_conditioning": "yes", "amenity": "restaurant", "diet:vegetarian": "yes", "indoor_seating": "yes", "outdoor_seating": "no", "smoking": "no"}}, {"type": "node", "id": 11035928104, "lat": 48.5161083, "lon": 35.0548507, "tags": {"amenity": "restaurant", "name": "Mr.Food"}}, {"type": "node", "id": 11035935454, "lat": 48.5161389, "lon": 35.0548438, "tags": {"amenity": "restaurant", "cuisine": "sushi"}}, {"type": "node", "id": 11046416571, "lat": 48.5191989, "lon": 35.0783616, "tags": {"addr:housenumber": "19", "addr:street": "\u0421\u0442\u0430\u0440\u043e\u0447\u0443\u043c\u0430\u0446\u044c\u043a\u0430 \u0432\u0443\u043b\u0438\u0446\u044f", "air_conditioning": "yes", "amenity": "restaurant", "changing_table": "no", "diet:vegan": "no", "diet:vegetarian": "yes", "email": "info@koronaholl.com", "indoor_seating": "yes", "level": "0", "name": "\u041e\u0441\u0435\u0442\u0438\u043d\u0441\u044c\u043a\u0456 \u043f\u0438\u0440\u043e\u0433\u0438", "name:ru": "\u041e\u0441\u0435\u0442\u0438\u043d\u0441\u043a\u0438\u0435 \u043f\u0438\u0440\u043e\u0433\u0438", "name:uk": "\u041e\u0441\u0435\u0442\u0438\u043d\u0441\u044c\u043a\u0456 \u043f\u0438\u0440\u043e\u0433\u0438", "outdoor_seating": "no", "payment:credit_cards": "yes", "payment:debit_cards": "yes", "phone": "+380959140131", "smoking": "no", "takeaway": "yes", "toilets": "yes"}}, {"type": "node", "id": 11047212972, "lat": 48.5165465, "lon": 35.0548209, "tags": {"air_conditioning": "yes", "amenity": "restaurant", "cuisine": "sushi", "indoor_seating": "yes", "name": "Sushi master", "outdoor_seating": "no", "smoking": "no", "wheelchair": "yes"}}, {"type": "node", "id": 11052184836, "lat": 48.513464, "lon": 35.0659256, "tags": {"amenity": "restaurant", "cuisine": "sushi"}}, {"type": "node", "id": 11085795285, "lat": 48.3908372, "lon": 35.0346238, "tags": {"amenity": "restaurant", "cuisine": "sushi"}}, {"type": "node", "id": 11104827337, "lat": 48.4623279, "lon": 35.0487499, "tags": {"amenity": "restaurant", "indoor_seating": "yes", "name": "Mollusk", "outdoor_seating": "no"}}, {"type": "node", "id": 11151682528, "lat": 48.4460469, "lon": 35.0807255}, {"type": "node", "id": 11151682529, "lat": 48.4464116, "lon": 35.0806668}, {"type": "node", "id": 11151682530, "lat": 48.4464351, "lon": 35.0807318}, {"type": "node", "id": 11151682531, "lat": 48.4463469, "lon": 35.0813192}, {"type": "node", "id": 11151682532, "lat": 48.4462974, "lon": 35.0813493}, {"type": "node", "id": 11151682540, "lat": 48.446279, "lon": 35.080772}, {"type": "node", "id": 11151682541, "lat": 48.4462228, "lon": 35.0807508}, {"type": "node", "id": 11151682542, "lat": 48.4462522, "lon": 35.0807568}, {"type": "node", "id": 11151682543, "lat": 48.4461944, "lon": 35.0807522}, {"type": "node", "id": 11151682544, "lat": 48.4463223, "lon": 35.0808206}, {"type": "node", "id": 11151682545, "lat": 48.4463022, "lon": 35.0807924}, {"type": "node", "id": 11151682546, "lat": 48.4463372, "lon": 35.0808514}, {"type": "node", "id": 11151682550, "lat": 48.4463577, "lon": 35.0810073}, {"type": "node", "id": 11151682551, "lat": 48.4463445, "lon": 35.0810744}, {"type": "node", "id": 11151682567, "lat": 48.4457805, "lon": 35.0800129}, {"type": "node", "id": 11151682568, "lat": 48.4458287, "lon": 35.0800413}, {"type": "node", "id": 11151682569, "lat": 48.4460612, "lon": 35.0811526}, {"type": "node", "id": 11151682570, "lat": 48.4460075, "lon": 35.081166}, {"type": "node", "id": 11151682571, "lat": 48.4459674, "lon": 35.0811209}, {"type": "node", "id": 11151682572, "lat": 48.4459999, "lon": 35.0811144}, {"type": "node", "id": 11151682573, "lat": 48.4459471, "lon": 35.0809575}, {"type": "node", "id": 11151682574, "lat": 48.4459706, "lon": 35.0808906}, {"type": "node", "id": 11151682575, "lat": 48.4459777, "lon": 35.0809474}, {"type": "node", "id": 11151682589, "lat": 48.4469165, "lon": 35.0828}, {"type": "node", "id": 11151682590, "lat": 48.4468827, "lon": 35.0828683}, {"type": "node", "id": 11151682591, "lat": 48.4468124, "lon": 35.0828827}, {"type": "node", "id": 11151682592, "lat": 48.4467973, "lon": 35.0828279}, {"type": "node", "id": 11151682659, "lat": 48.4495216, "lon": 35.080549}, {"type": "node", "id": 11151682660, "lat": 48.4495248, "lon": 35.0804593}, {"type": "node", "id": 11151682661, "lat": 48.4495438, "lon": 35.0804198}, {"type": "node", "id": 11151682662, "lat": 48.4495183, "lon": 35.0805042}, {"type": "node", "id": 11151682663, "lat": 48.4495571, "lon": 35.0806085}, {"type": "node", "id": 11151682664, "lat": 48.4496077, "lon": 35.0806309}, {"type": "node", "id": 11151682665, "lat": 48.449582, "lon": 35.0806284}, {"type": "node", "id": 11151682666, "lat": 48.4495362, "lon": 35.0805868}, {"type": "node", "id": 11151763135, "lat": 48.4635428, "lon": 35.0740798, "tags": {"amenity": "restaurant", "check_date:opening_hours": "2022-12-07", "name": "Coast"}}, {"type": "node", "id": 11169813526, "lat": 48.5255898, "lon": 35.0157625, "tags": {"amenity": "restaurant", "cuisine": "sushi", "indoor_seating": "yes", "name": "\u0414\u0432\u0430 \u043a\u043e\u0442\u0430", "name:uk": "\u0414\u0432\u0430 \u043a\u043e\u0442\u0430", "outdoor_seating": "yes"}}, {"type": "node", "id": 11176598490, "lat": 48.4703445, "lon": 35.0336658}, {"type": "node", "id": 11176598491, "lat": 48.4702792, "lon": 35.0337437}, {"type": "node", "id": 11176598492, "lat": 48.4704577, "lon": 35.0339384}, {"type": "node", "id": 11176598493, "lat": 48.4704307, "lon": 35.0339295}, {"type": "node", "id": 11176598494, "lat": 48.4703421, "lon": 35.033627}, {"type": "node", "id": 11176598495, "lat": 48.4703561, "lon": 35.0336443}, {"type": "node", "id": 11176598496, "lat": 48.4704385, "lon": 35.0339149}, {"type": "node", "id": 11191682615, "lat": 48.4703773, "lon": 35.033706}, {"type": "node", "id": 11191682616, "lat": 48.4704652, "lon": 35.0338161}, {"type": "node", "id": 11191682617, "lat": 48.4704514, "lon": 35.0338416}, {"type": "node", "id": 11191682618, "lat": 48.4703628, "lon": 35.033733}, {"type": "node", "id": 11221950718, "lat": 48.4647838, "lon": 35.0283796, "tags": {"air_conditioning": "yes", "amenity": "restaurant", "cuisine": "sushi", "indoor_seating": "yes", "name": "Sushi story", "opening_hours": "PH,Mo-Su 10:00-22:00", "outdoor_seating": "no", "payment:credit_cards": "yes", "payment:debit_cards": "yes", "smoking": "no", "wheelchair": "no"}}, {"type": "node", "id": 11236030437, "lat": 48.4642804, "lon": 35.0426789, "tags": {"air_conditioning": "yes", "amenity": "restaurant", "contact:instagram": "base_dp", "indoor_seating": "yes", "name": "Base", "opening_hours": "Mo-Su 10:00-23:00", "outdoor_seating": "yes", "smoking": "no"}}, {"type": "node", "id": 11236041237, "lat": 48.4648202, "lon": 35.0410777, "tags": {"addr:housenumber": "10", "addr:street": "\u0432\u0443\u043b\u0438\u0446\u044f 93-\u0457 \u0425\u043e\u043b\u043e\u0434\u043d\u043e\u044f\u0440\u0441\u044c\u043a\u043e\u0457 \u0411\u0440\u0438\u0433\u0430\u0434\u0438", "amenity": "restaurant", "contact:instagram": "nachasi.dnipro", "name": "\u041d\u0430 \u0447\u0430\u0441\u0456", "name:en": "Na chasi", "name:uk": "\u041d\u0430 \u0447\u0430\u0441\u0456", "opening_hours": "Mo-Fr 08:00-21:00; Sa-Su 10:00-21:00"}}, {"type": "node", "id": 11236045337, "lat": 48.4648064, "lon": 35.0411676, "tags": {"addr:housenumber": "10", "addr:street": "\u0432\u0443\u043b\u0438\u0446\u044f 93-\u0457 \u0425\u043e\u043b\u043e\u0434\u043d\u043e\u044f\u0440\u0441\u044c\u043a\u043e\u0457 \u0411\u0440\u0438\u0433\u0430\u0434\u0438", "amenity": "restaurant", "name": "\u041f\u043b\u043e\u0432 \u0431\u0430\u0440", "name:en": "PLOV Bar", "name:uk": "\u041f\u043b\u043e\u0432 \u0431\u0430\u0440", "opening_hours": "Fr-Sa 11:00-22:00; Su-Th 11:00-21:00"}}, {"type": "node", "id": 11283164434, "lat": 48.460912, "lon": 35.0484609, "tags": {"air_conditioning": "yes", "amenity": "restaurant", "indoor_seating": "yes", "name": "Del Toko", "opening_hours": "PH,Mo-Su 10:00-22:00", "outdoor_seating": "yes", "payment:credit_cards": "yes", "payment:debit_cards": "yes", "smoking": "no", "wheelchair": "no"}}, {"type": "node", "id": 11295403727, "lat": 48.5245483, "lon": 35.0367837, "tags": {"air_conditioning": "yes", "amenity": "restaurant", "indoor_seating": "yes", "name": "\u0411\u0430\u043a\u0443", "name:uk": "\u0411\u0430\u043a\u0443", "opening_hours": "PH,Mo-Su 11:00-22:00", "outdoor_seating": "no", "smoking": "no"}}, {"type": "node", "id": 11379130069, "lat": 48.4567467, "lon": 35.0599149, "tags": {"amenity": "restaurant", "contact:instagram": "alfama.dp", "cuisine": "portuguese", "name": "Alfama", "opening_hours": "Mo-Th 10:00-21:00; Fr-Su 10:00-22:00", "phone": "+380950054631", "website": "https://alfama.choiceqr.com/"}}, {"type": "node", "id": 11546092568, "lat": 48.4494039, "lon": 35.0808167}, {"type": "node", "id": 11546095870, "lat": 48.449524, "lon": 35.0807283}, {"type": "node", "id": 11546095872, "lat": 48.4494693, "lon": 35.0807686}, {"type": "node", "id": 11601453453, "lat": 48.5113224, "lon": 35.0747687, "tags": {"amenity": "restaurant", "name": "\u041a\u0430\u0440\u043b\u0441\u043e\u043d", "name:uk": "\u041a\u0430\u0440\u043b\u0441\u043e\u043d"}}, {"type": "node", "id": 11734552085, "lat": 48.5141192, "lon": 35.0599202, "tags": {"amenity": "restaurant", "indoor_seating": "yes", "name": "\u041a\u0430\u0446\u043e", "name:uk": "\u041a\u0430\u0446\u043e", "outdoor_seating": "yes"}}, {"type": "node", "id": 11795391691, "lat": 48.4879557, "lon": 35.0641165, "tags": {"air_conditioning": "yes", "amenity": "restaurant", "cuisine": "sushi", "indoor_seating": "yes", "name": "Sushistory", "opening_hours": "Mo-Su,PH 10:00-22:00", "outdoor_seating": "no", "payment:credit_cards": "yes", "payment:debit_cards": "yes", "smoking": "no", "wheelchair": "no"}}, {"type": "node", "id": 12243869307, "lat": 48.4574241, "lon": 35.0462364, "tags": {"addr:housenumber": "4-\u0410", "addr:postcode": "49101", "amenity": "restaurant", "name": "\u041d\u0430\u0432\u0440\u0443\u0437", "name:en": "Novruz", "name:ru": "\u041d\u0430\u0432\u0440\u0443\u0437", "name:uk": "\u041d\u0430\u0432\u0440\u0443\u0437", "opening_hours": "Mo-Su 09:00-23:00", "phone": "+380 56 770 2780", "was:name": "\u041d\u0430\u0432\u0440\u0443\u0437"}}, {"type": "node", "id": 12311550338, "lat": 48.4470728, "lon": 35.0778398}, {"type": "node", "id": 12311550339, "lat": 48.4470248, "lon": 35.077677}, {"type": "node", "id": 12311550340, "lat": 48.4469439, "lon": 35.076956}, {"type": "node", "id": 12311550341, "lat": 48.4469052, "lon": 35.0768541}, {"type": "node", "id": 12311610284, "lat": 48.4430937, "lon": 35.0743596}, {"type": "node", "id": 12311610285, "lat": 48.4431082, "lon": 35.0743677}, {"type": "node", "id": 12334101845, "lat": 48.4647677, "lon": 35.0441072}, {"type": "node", "id": 12334101846, "lat": 48.4646533, "lon": 35.0439803}, {"type": "node", "id": 12334101849, "lat": 48.4645752, "lon": 35.0442849}, {"type": "way", "id": 61377221, "nodes": [766477673, 766477036, 766478283, 12311610285, 12311610284, 766476619, 766477834, 766478152, 766477673], "tags": {"addr:housenumber": "29", "amenity": "restaurant", "building": "yes", "name": "\u0425\u0443\u0442\u0456\u0440", "name:ru": "\u0425\u0443\u0442\u043e\u0440", "name:uk": "\u0425\u0443\u0442\u0456\u0440"}}, {"type": "way", "id": 82817380, "nodes": [963836624, 9688782620, 963837637, 963836148, 963837063, 963836624], "tags": {"addr:housenumber": "18", "amenity": "restaurant", "building": "yes", "building:levels": "2", "cuisine": "italian", "name": "\u0414\u0436\u0443\u0437\u0435\u043f\u043f\u0435", "name:uk": "\u0414\u0436\u0443\u0437\u0435\u043f\u043f\u0435"}}, {"type": "way", "id": 91607771, "nodes": [1064346694, 1064347229, 3527084310, 3527084313, 1064347318, 2922292502, 2922292504, 1064348564, 1064346694], "tags": {"addr:housenumber": "59-\u0410", "amenity": "restaurant", "building": "yes", "building:levels": "1", "name": "\u0422\u0430\u0432\u0435\u0440\u043d\u0430", "name:ru": "\u0422\u0430\u0432\u0435\u0440\u043d\u0430", "name:uk": "\u0422\u0430\u0432\u0435\u0440\u043d\u0430"}}, {"type": "way", "id": 104844435, "nodes": [1209198883, 1209198422, 1209198845, 1209197949, 1209197428, 2548558260, 1209199105, 1209198883], "tags": {"addr:housenumber": "98-\u0411", "addr:street": "\u0417\u0430\u043f\u043e\u0440\u0456\u0437\u044c\u043a\u0435 \u0448\u043e\u0441\u0435", "amenity": "restaurant", "building": "yes", "name": "Road Star", "name:uk": "Road Star"}}, {"type": "way", "id": 105374399, "nodes": [1214073596, 1214073804, 1214073001, 1214072810, 1214073596], "tags": {"addr:housenumber": "19", "addr:street": "\u0417\u0430\u043f\u043e\u0440\u0456\u0437\u044c\u043a\u0435 \u0448\u043e\u0441\u0435", "amenity": "restaurant", "building": "yes", "name": "\u0417\u043e\u043b\u043e\u0442\u0438\u0439 \u0434\u0440\u0430\u043a\u043e\u043d", "name:ru": "\u0417\u043e\u043b\u043e\u0442\u043e\u0439 \u0414\u0440\u0430\u043a\u043e\u043d", "name:uk": "\u0417\u043e\u043b\u043e\u0442\u0438\u0439 \u0434\u0440\u0430\u043a\u043e\u043d"}}, {"type": "way", "id": 111595859, "nodes": [1271048539, 1271048514, 1271048433, 1271048054, 1271048539], "tags": {"addr:housenumber": "18", "addr:street": "\u0432\u0443\u043b\u0438\u0446\u044f \u0411\u043e\u0433\u0434\u0430\u043d\u0430 \u0425\u043c\u0435\u043b\u044c\u043d\u0438\u0446\u044c\u043a\u043e\u0433\u043e", "amenity": "restaurant", "building": "yes", "cuisine": "regional;kebab"}}, {"type": "way", "id": 136915565, "nodes": [1502033034, 1502033036, 1502033033, 1502033032, 1502033034], "tags": {"addr:housenumber": "14", "amenity": "restaurant", "building": "yes", "building:levels": "1", "name": "\u0410\u043c\u0443\u0440", "name:uk": "\u0410\u043c\u0443\u0440", "opening_hours": "Mo-Su 06:00-23:00"}}, {"type": "way", "id": 145813235, "nodes": [1591470565, 1591470571, 1591470567, 1591470569, 1591470565], "tags": {"addr:housenumber": "63", "amenity": "restaurant", "building": "yes", "name": "Lucia", "name:uk": "Lucia", "website": "http://lucia.dp.ua"}}, {"type": "way", "id": 192677391, "nodes": [2032220149, 2032220142, 2032220125, 965273220, 2032220149], "tags": {"addr:housenumber": "19-\u0410", "amenity": "restaurant", "building": "yes", "building:levels": "2", "cuisine": "italian", "internet_access": "wlan", "name": "Mafia", "name:uk": "Mafia", "opening_hours": "24/7", "roof:shape": "flat"}}, {"type": "way", "id": 197438346, "nodes": [2076778297, 2076778296, 2076778294, 2076778293, 2076778297], "tags": {"addr:housenumber": "1-\u041f", "addr:street": "\u0421\u043b\u043e\u0431\u043e\u0436\u0430\u043d\u0441\u044c\u043a\u0438\u0439 \u043f\u0440\u043e\u0441\u043f\u0435\u043a\u0442", "amenity": "restaurant", "building": "yes", "building:levels": "1", "name": "\u0421\u0442\u0430\u0440\u0438\u0439 \u043f\u0430\u0440\u043a", "name:uk": "\u0421\u0442\u0430\u0440\u0438\u0439 \u043f\u0430\u0440\u043a"}}, {"type": "way", "id": 199832859, "nodes": [2098299685, 2098299683, 2098299682, 5005757194, 2098299684, 2098299685], "tags": {"addr:housenumber": "9", "amenity": "restaurant", "building": "yes", "building:levels": "1", "name": "\u041f\u0456\u043a\u043d\u0456\u043a", "name:uk": "\u041f\u0456\u043a\u043d\u0456\u043a"}}, {"type": "way", "id": 200461783, "nodes": [297977325, 7941684447, 12311550341, 12311550340, 7941684446, 297977324, 7941684445, 12311550339, 6461578697, 7941684450, 12311550338, 7941684449, 7941684452, 5103945414, 7941684451, 2104090172, 5103945413, 297977322, 7941685409, 7941685406, 7941685405, 7941685402, 7941685410, 7941685411, 7941685412, 7941684453, 297977321, 5103945415, 954683381, 7941685413, 5103945416, 297977320, 5103945417, 2104090169, 11151682567, 5103945419, 11151682568, 5103945418, 297977319, 5103959844, 5103959843, 7941685415, 7941685414, 2104090170, 11151682574, 11151682575, 11151682573, 11151682571, 11151682572, 11151682570, 11151682569, 9725523677, 5101253206, 954683367, 5101253203, 5101253204, 297977316, 5101253205, 5101253202, 5101253201, 5101253200, 954683379, 297977315, 9725523686, 954683376, 7941685426, 11151682592, 11151682591, 11151682590, 11151682589, 954683368, 297977302, 766477597, 7941639675, 766478061, 2104118128, 766478302, 7941639674, 7941639673, 7941634267, 766477658, 7941634268, 11546092568, 11546095872, 11546095870, 7941634269, 11151682664, 11151682665, 11151682663, 11151682666, 11151682659, 11151682662, 11151682660, 11151682661, 7941634266, 7941639672, 2104492090, 6256618381, 2104492091, 297977325], "tags": {"amenity": "restaurant", "name": "\u0411\u0430\u0440\u0442\u043e\u043b\u043e\u043c\u0435\u043e", "name:uk": "\u0411\u0430\u0440\u0442\u043e\u043b\u043e\u043c\u0435\u043e"}}, {"type": "way", "id": 200463299, "nodes": [2104512990, 2104512989, 2104512997, 2104513006, 2104512990], "tags": {"addr:housenumber": "33", "amenity": "restaurant", "name": "\u041a\u0430\u043c\u0435\u043b\u043e\u0442", "name:uk": "\u041a\u0430\u043c\u0435\u043b\u043e\u0442"}}, {"type": "way", "id": 214701195, "nodes": [2241852589, 12334101846, 12334101845, 2241852599, 2241852596, 2241852591, 2241852586, 12334101849, 2241852583, 2241852589], "tags": {"addr:housenumber": "1-\u0410", "amenity": "restaurant", "building": "yes", "building:levels": "2"}}, {"type": "way", "id": 217593791, "nodes": [2268832700, 7468272338, 2268832699, 2268832697, 5793766911, 2268832700], "tags": {"amenity": "restaurant", "building:levels": "3", "name": "\u0411\u0430\u0440\u043e\u043d \u0420\u0430\u0437\u0433\u0443\u043b\u044f\u0435\u0444\u0444", "name:uk": "\u0411\u0430\u0440\u043e\u043d \u0420\u0430\u0437\u0433\u0443\u043b\u044f\u0435\u0444\u0444", "source:name": "survey"}}, {"type": "way", "id": 227117746, "nodes": [2358454912, 2358454926, 2358454888, 2358454877, 2358454856, 2358454841, 2358454825, 2358454811, 2358454809, 2358454817, 2358454822, 2358454806, 2358454803, 2358454820, 2358454839, 2358454853, 2358454866, 2358454871, 2358454883, 2358454874, 2358454873, 2358454881, 2358454886, 2358454891, 2358454896, 2358454902, 2358454903, 2358454912], "tags": {"amenity": "restaurant", "building": "yes", "building:levels": "3", "cuisine": "asian", "name": "\u0425\u0430\u043d-\u0427\u0456\u043d\u0430\u0440", "name:uk": "\u0425\u0430\u043d-\u0427\u0456\u043d\u0430\u0440"}}, {"type": "way", "id": 232346188, "nodes": [2407024427, 7039290343, 2407024390, 2407024397, 2407024401, 7039290361, 7039290360, 7039290359, 7039290358, 7039290357, 7039290356, 7039290355, 7039290354, 7039290353, 7039290352, 7039290351, 7039290350, 2407024405, 7039290349, 7040039562, 7039290348, 2407024422, 2407024418, 7039290347, 7039290346, 7446839730, 7039290345, 7039290344, 2407024427], "tags": {"addr:housenumber": "22", "addr:postcode": "49074", "addr:street": "\u0421\u0442\u0430\u0440\u043e\u0447\u0443\u043c\u0430\u0446\u044c\u043a\u0430 \u0432\u0443\u043b\u0438\u0446\u044f", "amenity": "restaurant", "building": "retail", "building:levels": "3", "name": "\u0415\u0434\u0456\u043d\u0431\u0443\u0440\u0433", "name:uk": "\u0415\u0434\u0456\u043d\u0431\u0443\u0440\u0433", "phone": "+380 67 000 7770", "website": "https://www.edburg.com.ua/"}}, {"type": "way", "id": 242850034, "nodes": [11176598490, 11176598495, 11176598494, 11176598491, 11176598493, 11176598496, 11176598492, 2502993750, 11191682616, 11191682617, 11191682618, 11191682615, 11176598490], "tags": {"amenity": "restaurant", "building": "yes", "building:levels": "1", "cuisine": "italian;japanese", "name": "\u041c\u0430\u0444\u0456\u044f", "name:en": "Mafia", "name:ru": "\u041c\u0430\u0444\u0438\u044f", "name:uk": "\u041c\u0430\u0444\u0456\u044f"}}, {"type": "way", "id": 256618459, "nodes": [2622650150, 6556223382, 6556223381, 2622650143, 2622650115, 2622650120, 2622650150], "tags": {"addr:housenumber": "56", "addr:street": "\u0411\u0435\u0440\u0435\u0433\u043e\u0432\u0430 \u0432\u0443\u043b\u0438\u0446\u044f", "amenity": "restaurant", "building": "yes", "name": "\u041d\u0430\u0442\u0430\u043b\u0438", "name:uk": "\u041d\u0430\u0442\u0430\u043b\u0438"}}, {"type": "way", "id": 261547725, "nodes": [2670429347, 2671477118, 2671477124, 2671477126, 2671477120, 2671477122, 2670429347], "tags": {"addr:housenumber": "85", "amenity": "restaurant", "building": "yes", "building:levels": "2", "name": "\u0410\u0445\u0442\u0430\u043c\u0430\u0440", "name:uk": "\u0410\u0445\u0442\u0430\u043c\u0430\u0440", "website": "http://ahtamar.dp.ua/"}}, {"type": "way", "id": 261839565, "nodes": [2674605718, 2674605720, 2674605722, 2674605724, 2674605718], "tags": {"addr:postcode": "49106", "amenity": "restaurant", "building": "yes", "cuisine": "american;french;regional;barbecue", "name": "\u041a\u0430\u0440\u0443\u0441\u0435\u043b\u044c", "name:uk": "\u041a\u0430\u0440\u0443\u0441\u0435\u043b\u044c", "opening_hours": "Mo-Su 09:00-22:00"}}, {"type": "way", "id": 275801853, "nodes": [2804716164, 2804716165, 2804716163, 2804716162, 2804716164], "tags": {"addr:housenumber": "19", "addr:street": "\u0432\u0443\u043b\u0438\u0446\u044f \u0421\u043e\u043d\u044f\u0447\u043d\u0430 \u041d\u0430\u0431\u0435\u0440\u0435\u0436\u043d\u0430", "amenity": "restaurant", "building": "yes", "building:levels": "1", "cuisine": "ukrainian", "name": "\u041d\u0435\u043f\u0442\u0443\u043d", "name:uk": "\u041d\u0435\u043f\u0442\u0443\u043d", "opening_hours": "Mo-Sa 08:00-20:00"}}, {"type": "way", "id": 278492325, "nodes": [2828551452, 11007084879, 11007084880, 11007084882, 11007084890, 11007084893, 11007084889, 11007084881, 2828551450, 2828551449, 11007084875, 11007084874, 11007084873, 11007084872, 2828551451, 11007084876, 11007084877, 11007084878, 2828551452], "tags": {"addr:housenumber": "21", "amenity": "restaurant", "building": "yes", "building:levels": "1", "name": "\u0411\u0435\u0440\u0435\u0433", "name:uk": "\u0411\u0435\u0440\u0435\u0433", "opening_hours": "11:00-24:00", "phone": "+380 56 760 0135"}}, {"type": "way", "id": 285864583, "nodes": [2895007432, 2895007426, 2895007423, 2895007422, 2895007412, 2895007411, 2895007413, 2895007415, 2895007416, 2895007417, 2895007418, 2895007421, 2895007420, 2895007419, 2895007424, 2895007425, 2895007434, 2895007427, 2895007428, 2895007431, 2895007433, 2895007432], "tags": {"addr:housenumber": "2-\u0411", "addr:postcode": "49080", "addr:street": "\u0414\u043e\u043d\u0435\u0446\u044c\u043a\u0435 \u0448\u043e\u0441\u0435", "amenity": "restaurant", "building": "commercial", "contact:website": "http://instagram.com/greenwood_complex", "cuisine": "international", "internet_access": "wlan", "name": "The Ferma", "name:en": "The Ferma", "name:uk": "The Ferma", "opening_hours": "Mo-Su 11:00-23:00", "phone": "+380 67 374 7878"}}, {"type": "way", "id": 287755140, "nodes": [2913223731, 9225063900, 9225063899, 2913223730, 2913223727, 9225063897, 9225063898, 2913223728, 2913223731], "tags": {"addr:housenumber": "62", "addr:postcode": "49000", "amenity": "restaurant", "building": "yes", "cuisine": "regional;chicken", "name": "\u0420\u0435\u0441\u0442\u043e\u0440\u0430\u043d \"\u041d\u043e\u0439\"", "name:uk": "\u0420\u0435\u0441\u0442\u043e\u0440\u0430\u043d \"\u041d\u043e\u0439\"", "phone": "+380 97 041 9051"}}, {"type": "way", "id": 362653014, "nodes": [3669191487, 3669191490, 3669191489, 3669191486, 3669191480, 3669191456, 3669191412, 3669191357, 3669191300, 3669191248, 3669187608, 3669187593, 3669187590, 3669187587, 3669187588, 3669187592, 3669187597, 3669191232, 3669191280, 3669191334, 3669191392, 3669191442]}, {"type": "way", "id": 362653036, "nodes": [3669191442, 3669191474, 3669191484, 3669191487]}, {"type": "way", "id": 402382851, "nodes": [4047899161, 4047899162, 4047899163, 4047899164, 4047899161], "tags": {"addr:housenumber": "86-\u0410", "addr:postcode": "49000", "addr:street": "\u0432\u0443\u043b\u0438\u0446\u044f \u041d\u0430\u0431\u0435\u0440\u0435\u0436\u043d\u0430 \u0417\u0430\u0432\u043e\u0434\u0441\u044c\u043a\u0430", "amenity": "restaurant", "building": "yes", "building:levels": "2", "capacity": "60", "cuisine": "georgian;regional", "internet_access": "wlan", "name": "\u041a\u0430\u0444\u0435-\u0433\u043e\u0442\u0435\u043b\u044c \u0421\u0430\u043a\u0430\u0440\u0442\u0432\u0435\u043b\u043e", "name:en": "Sakartvelo", "name:uk": "\u041a\u0430\u0444\u0435-\u0433\u043e\u0442\u0435\u043b\u044c \u0421\u0430\u043a\u0430\u0440\u0442\u0432\u0435\u043b\u043e", "opening_hours": "24/7", "phone": "+380 99 775 4577"}}, {"type": "way", "id": 502345872, "nodes": [4928425592, 4928425591, 4928425590, 4928425589, 4928425592], "tags": {"addr:housenumber": "40-\u0410", "amenity": "restaurant", "building": "yes", "cuisine": "american", "name": "Road House", "name:uk": "Road House", "opening_hours": "10:00-23:00", "phone": "+380 67 180 2080", "website": "https://www.facebook.com/roadhouse.com.ua/"}}, {"type": "way", "id": 524487072, "nodes": [5103959845, 5103959846, 5103959847, 5103959849, 11151682532, 11151682531, 5103959850, 5103959852, 5103959853, 5103959854, 5103959857, 5103959858, 5103959859, 5103959860, 5103959861, 11151682530, 5103959862, 11151682529, 5103959863, 5103959864, 5103959866, 5103959868, 5103959869, 5103959870, 5103959871, 11151682528, 5103959872, 5103962856, 5103959873, 11151682543, 11151682541, 11151682542, 11151682540, 11151682545, 11151682544, 11151682546, 5103959877, 5103959878, 5103959879, 5103959881, 11151682550, 5103959882, 11151682551, 5103959883, 5103959884, 5103959885, 5103959886, 5103959845], "tags": {"addr:housenumber": "9-\u0411", "amenity": "restaurant", "building": "yes", "building:levels": "1", "name": "Bartolomeo", "name:uk": "Bartolomeo", "roof:colour": "#83635d"}}, {"type": "way", "id": 542027249, "nodes": [5240677613, 5240677614, 5240677615, 5240677616, 5240677613], "tags": {"amenity": "restaurant", "building": "yes", "building:levels": "1", "name": "\u0428\u043e\u041f\u043e\u0427\u0435\u043c", "name:en": "ShoPoChem", "name:uk": "\u0428\u043e\u041f\u043e\u0427\u0435\u043c", "outdoor_seating": "yes"}}, {"type": "way", "id": 614103458, "nodes": [5809314820, 5809314821, 5809314822, 5809314823, 5809314824, 5809314825, 5809314826, 5809314827, 5809314820], "tags": {"addr:housenumber": "1\u043f", "addr:street": "\u0421\u043b\u043e\u0431\u043e\u0436\u0430\u043d\u0441\u044c\u043a\u0438\u0439 \u043f\u0440\u043e\u0441\u043f\u0435\u043a\u0442", "amenity": "restaurant", "building": "yes", "name": "\u0421\u0442\u0430\u0440\u0438\u0439 \u043f\u0430\u0440\u043a", "name:uk": "\u0421\u0442\u0430\u0440\u0438\u0439 \u043f\u0430\u0440\u043a"}}, {"type": "way", "id": 614103459, "nodes": [5809314828, 5809314832, 5809314835, 5809314834, 5809314836, 5809314833, 5809314829, 5809314830, 5809314831, 5809314828], "tags": {"addr:housenumber": "1\u043f", "addr:street": "\u0421\u043b\u043e\u0431\u043e\u0436\u0430\u043d\u0441\u044c\u043a\u0438\u0439 \u043f\u0440\u043e\u0441\u043f\u0435\u043a\u0442", "amenity": "restaurant", "building": "yes", "name": "\u0421\u0442\u0430\u0440\u0438\u0439 \u043f\u0430\u0440\u043a", "name:uk": "\u0421\u0442\u0430\u0440\u0438\u0439 \u043f\u0430\u0440\u043a"}}, {"type": "way", "id": 690792738, "nodes": [6481481417, 6481481416, 6481481415, 6481481414, 6481481417], "tags": {"addr:housenumber": "80-\u0416", "addr:street": "\u0432\u0443\u043b\u0438\u0446\u044f \u041d\u0430\u0431\u0435\u0440\u0435\u0436\u043d\u0430 \u0417\u0430\u0432\u043e\u0434\u0441\u044c\u043a\u0430", "amenity": "restaurant", "building": "yes", "contact:facebook": "https://www.facebook.com/versus.resort", "floating": "yes", "name": "Versus", "name:uk": "Versus"}}, {"type": "way", "id": 736528815, "nodes": [6895869470, 6895869471, 6895869475, 6895869472, 6895869473, 6895869470], "tags": {"amenity": "restaurant", "building": "yes"}}, {"type": "way", "id": 750685270, "nodes": [7018927350, 7018927349, 7018927348, 7018927347, 7018927350], "tags": {"amenity": "restaurant", "building": "yes", "check_date:opening_hours": "2022-11-01", "name": "\u0420\u0435\u0441\u0442\u043e\u0440\u0430\u043d", "name:uk": "\u0420\u0435\u0441\u0442\u043e\u0440\u0430\u043d", "opening_hours:signed": "no"}}, {"type": "way", "id": 750685271, "nodes": [7018927354, 7018927353, 7018927352, 7881761067, 7018927351, 7018927354], "tags": {"addr:housenumber": "24", "addr:street": "\u041c\u0430\u0433\u043d\u0456\u0442\u043e\u0433\u043e\u0440\u0441\u044c\u043a\u0430 \u0432\u0443\u043b\u0438\u0446\u044f", "amenity": "restaurant", "check_date:opening_hours": "2022-11-01", "name": "\u0428\u0430\u0448\u043b\u0438\u0447\u043d\u0438\u0439 \u0434\u0432\u0456\u0440", "name:ru": "\u0428\u0430\u0448\u043b\u044b\u0447\u043d\u044b\u0439 \u0434\u0432\u043e\u0440", "name:uk": "\u0428\u0430\u0448\u043b\u0438\u0447\u043d\u0438\u0439 \u0434\u0432\u0456\u0440", "opening_hours:signed": "no", "outdoor_seating": "yes"}}, {"type": "way", "id": 999222898, "nodes": [9224941965, 9224941963, 4428585490, 9224941961, 9224941958, 9224941960, 9224941959, 9224941964, 9224941965], "tags": {"addr:housenumber": "32-\u041a", "amenity": "restaurant", "building": "yes", "name": "\u0411\u0430\u043a\u0438\u043d\u0441\u044c\u043a\u0438\u0439 \u0434\u0432\u043e\u0440\u0438\u043a", "name:ru": "\u0411\u0430\u043a\u0438\u043d\u0441\u043a\u0438\u0439 \u0434\u0432\u043e\u0440\u0438\u043a", "name:uk": "\u0411\u0430\u043a\u0438\u043d\u0441\u044c\u043a\u0438\u0439 \u0434\u0432\u043e\u0440\u0438\u043a"}}, {"type": "way", "id": 1019223970, "nodes": [9400756982, 9400756975, 9400756976, 9400756965, 9400756964, 9400756963, 9400756966, 9400756979, 9400756971, 9400756967, 9400756969, 9400756968, 9400756970, 9400756980, 9400756981, 9400756978, 9400756977, 9400756974, 9400756972, 9400756973, 9400756982], "tags": {"addr:housenumber": "8-\u0410", "addr:street": "\u0412\u0438\u0441\u043e\u043a\u043e\u0432\u043e\u043b\u044c\u0442\u043d\u0430 \u0432\u0443\u043b\u0438\u0446\u044f", "amenity": "restaurant", "building": "retail", "building:levels": "1", "cuisine": "regional", "name": "\u0422\u0438\u043d\u0438\u0446\u044f", "name:uk": "\u0422\u0438\u043d\u0438\u0446\u044f", "roof:levels": "1"}}, {"type": "relation", "id": 5395965, "members": [{"type": "way", "ref": 362653014, "role": "outer"}, {"type": "way", "ref": 362653036, "role": "outer"}], "tags": {"addr:housenumber": "7", "amenity": "restaurant", "building": "yes", "building:levels": "2", "building:material": "concrete", "height": "4", "min_height": "3.5", "name": "\u041f\u043e\u043f\u043b\u0430\u0432\u043e\u043a", "name:uk": "\u041f\u043e\u043f\u043b\u0430\u0432\u043e\u043a", "roof:material": "concrete", "type": "multipolygon"}}]}