{"version": 0.6, "generator": "Overpass API 0.7.62.1 084b4234", "osm3s": {"timestamp_osm_base": "2024-11-11T16:09:25Z", "copyright": "The data included in this document is from www.openstreetmap.org. The data is made available under ODbL."}, "elements": [{"type": "node", "id": 1726944811, "lat": 46.4750919, "lon": 30.7101416}, {"type": "node", "id": 1726944854, "lat": 46.4750721, "lon": 30.7103128}, {"type": "node", "id": 1726944982, "lat": 46.4751939, "lon": 30.7103425}, {"type": "node", "id": 1726945229, "lat": 46.4752137, "lon": 30.7101713}, {"type": "node", "id": 2036374579, "lat": 46.5713943, "lon": 30.7977432}, {"type": "node", "id": 2036374582, "lat": 46.5714969, "lon": 30.7978145}, {"type": "node", "id": 3495234864, "lat": 46.4094051, "lon": 30.7396342}, {"type": "node", "id": 3495234865, "lat": 46.4095541, "lon": 30.74089}, {"type": "node", "id": 3784613486, "lat": 46.575853, "lon": 30.796941, "tags": {"fee": "yes", "leisure": "fitness_centre", "level": "-1", "sport": "fitness"}}, {"type": "node", "id": 3911881054, "lat": 46.4341309, "lon": 30.7593613, "tags": {"brand": "Sport Life", "brand:wikidata": "Q56356180", "leisure": "fitness_centre", "name": "Sport Life", "name:uk": "Sport Life", "opening_hours": "Mo-Fr 07:00-23:00; Sa-Su 09:00-22:00", "website": "https://www.sportlife.ua/"}}, {"type": "node", "id": 4070581478, "lat": 46.4455267, "lon": 30.7058192}, {"type": "node", "id": 4070581480, "lat": 46.4456054, "lon": 30.7056465}, {"type": "node", "id": 4070581483, "lat": 46.4456861, "lon": 30.7059833}, {"type": "node", "id": 4070581484, "lat": 46.4458195, "lon": 30.7060027}, {"type": "node", "id": 4070581485, "lat": 46.4458627, "lon": 30.7059137}, {"type": "node", "id": 4071308438, "lat": 46.4466419, "lon": 30.6843917}, {"type": "node", "id": 4071308439, "lat": 46.4467125, "lon": 30.6847261}, {"type": "node", "id": 4071308440, "lat": 46.4467645, "lon": 30.6843764}, {"type": "node", "id": 4071308443, "lat": 46.4467847, "lon": 30.6847171}, {"type": "node", "id": 4301336390, "lat": 46.4507737, "lon": 30.709893, "tags": {"leisure": "fitness_centre", "name": "\u0410\u0442\u043c\u043e\u0441\u0444\u0435\u0440\u0430", "name:uk": "\u0410\u0442\u043c\u043e\u0441\u0444\u0435\u0440\u0430"}}, {"type": "node", "id": 4324858492, "lat": 46.4168536, "lon": 30.7096406, "tags": {"leisure": "fitness_centre", "name": "Sport Life", "name:uk": "Sport Life"}}, {"type": "node", "id": 4327027156, "lat": 46.4466478, "lon": 30.6844905}, {"type": "node", "id": 4327027157, "lat": 46.4466981, "lon": 30.6844842}, {"type": "node", "id": 4348493323, "lat": 46.4752058, "lon": 30.7102389}, {"type": "node", "id": 4357509893, "lat": 46.5842332, "lon": 30.7930932, "tags": {"addr:housenumber": "32", "addr:street": "\u0432\u0443\u043b\u0438\u0446\u044f \u0417\u0430\u0442\u043e\u043d\u0441\u044c\u043a\u043e\u0433\u043e", "brand": "Sport Life", "brand:wikidata": "Q56356180", "leisure": "fitness_centre", "level": "1", "name": "\u0421\u043f\u043e\u0440\u0442 \u041b\u0430\u0439\u0444", "name:en": "Sport Life", "name:ru": "\u0421\u043f\u043e\u0440\u0442 \u041b\u0430\u0439\u0444", "name:uk": "\u0421\u043f\u043e\u0440\u0442 \u041b\u0430\u0439\u0444", "opening_hours": "Mo-Fr 07:00-23:00; Sa-Su 09:00-22:00", "personal_trainer": "yes", "swimming_pool": "yes", "website": "https://www.sportlife.ua/"}}, {"type": "node", "id": 4371140694, "lat": 46.5757553, "lon": 30.7898426, "tags": {"addr:housenumber": "56\u0431", "addr:street": "\u041a\u0440\u0438\u043c\u0441\u044c\u043a\u0430 \u0432\u0443\u043b\u0438\u0446\u044f", "leisure": "fitness_centre", "name": "\u0410\u043a\u0432\u0430", "name:en": "Aqua", "name:ru": "\u0410\u043a\u0432\u0430", "name:uk": "\u0410\u043a\u0432\u0430", "opening_hours": "Mo-Su 09:00-21:00", "phone": "+380 48 704 6757;+380 48 751 1710"}}, {"type": "node", "id": 4371140695, "lat": 46.5867883, "lon": 30.7971685, "tags": {"addr:housenumber": "37", "addr:street": "\u0432\u0443\u043b\u0438\u0446\u044f \u0412\u043b\u0430\u0434\u0438\u0441\u043b\u0430\u0432\u0430 \u0411\u0443\u0432\u0430\u043b\u043a\u0456\u043d\u0430", "contact:facebook": "fitness.strekoza", "contact:instagram": "fitnessstrekoza", "leisure": "fitness_centre", "name": "\u0421\u0442\u0440\u0435\u043a\u043e\u0437\u0430", "name:en": "Strekoza", "name:uk": "\u0421\u0442\u0440\u0435\u043a\u043e\u0437\u0430", "phone": "+380 48 711 8809", "website": "http://strekoza.ua"}}, {"type": "node", "id": 4371155395, "lat": 46.5912171, "lon": 30.7977687, "tags": {"addr:housenumber": "122/1\u0430", "addr:street": "\u043f\u0440\u043e\u0441\u043f\u0435\u043a\u0442 \u041a\u043d\u044f\u0437\u044f \u0412\u043e\u043b\u043e\u0434\u0438\u043c\u0438\u0440\u0430 \u0412\u0435\u043b\u0438\u043a\u043e\u0433\u043e", "contact:facebook": "VertikalOdessa", "contact:instagram": "vertical_fitness", "email": "DobrovolskogoSales@gmail.com", "internet_access": "wlan", "leisure": "fitness_centre", "name": "\u0412\u0435\u0440\u0442\u0438\u043a\u0430\u043b\u044c", "name:en": "Vertical", "name:ru": "\u0412\u0435\u0440\u0442\u0438\u043a\u0430\u043b\u044c", "name:uk": "\u0412\u0435\u0440\u0442\u0438\u043a\u0430\u043b\u044c", "opening_hours": "Mo-Fr 07:00-23:00; Sa-Su 09:00-21:00", "phone": "+380 48 703 0808", "website": "https://vertical-odessa.com/"}}, {"type": "node", "id": 4371173791, "lat": 46.5702744, "lon": 30.7886019, "tags": {"leisure": "fitness_centre", "name": "\u0421\u043f\u0430\u0440\u0442\u0430\u043a", "name:en": "Spartak", "name:ru": "\u0421\u043f\u0430\u0440\u0442\u0430\u043a", "name:uk": "\u0421\u043f\u0430\u0440\u0442\u0430\u043a"}}, {"type": "node", "id": 4371181489, "lat": 46.5830463, "lon": 30.8018891, "tags": {"contact:facebook": "VertikalOdessa", "contact:instagram": "vertical_fitness", "email": "verticalaqua@gmail.com", "internet_access": "wlan", "leisure": "fitness_centre", "level": "-1", "name": "\u0412\u0435\u0440\u0442\u0438\u043a\u0430\u043b\u044c", "name:en": "Vertical", "name:ru": "\u0412\u0435\u0440\u0442\u0438\u043a\u0430\u043b\u044c", "name:uk": "\u0412\u0435\u0440\u0442\u0438\u043a\u0430\u043b\u044c", "opening_hours": "Mo-Fr 07:30-22:00; Sa-Su 09:00-21:00", "phone": "+380 67 866 0809", "website": "https://vertical-odessa.com/"}}, {"type": "node", "id": 4371258889, "lat": 46.5833118, "lon": 30.8083829, "tags": {"leisure": "fitness_centre", "name": "\u041c\u0430\u043bi\u0431\u0443", "name:en": "Malibu", "name:ru": "\u041c\u0430\u043b\u0438\u0431\u0443", "name:uk": "\u041c\u0430\u043bi\u0431\u0443", "opening_hours": "Mo-Fr 07:00-23:00; Sa-Su 09:00-22:00", "phone": "+380 94 940 3012", "website": "http://malibu-sport.com.ua"}}, {"type": "node", "id": 4382736290, "lat": 46.5762377, "lon": 30.8073583, "tags": {"addr:housenumber": "34", "addr:street": "\u0432\u0443\u043b\u0438\u0446\u044f \u0410\u043a\u0430\u0434\u0435\u043c\u0456\u043a\u0430 \u0421\u0430\u0445\u0430\u0440\u043e\u0432\u0430", "leisure": "fitness_centre", "name": "Sport Style", "name:en": "Sport Style", "name:uk": "Sport Style", "phone": "+380 73 117 7441"}}, {"type": "node", "id": 4382736375, "lat": 46.5781459, "lon": 30.8078723, "tags": {"leisure": "fitness_centre", "name": "Max", "name:uk": "Max"}}, {"type": "node", "id": 4397747000, "lat": 46.479619, "lon": 30.7367093, "tags": {"leisure": "fitness_centre", "name": "\u0424i\u0442\u043d\u0435\u0441", "name:en": "Fresh Woman", "name:ru": "\u0424\u0438\u0442\u043d\u0435\u0441", "name:uk": "\u0424i\u0442\u043d\u0435\u0441"}}, {"type": "node", "id": 4581831790, "lat": 46.4795838, "lon": 30.7479807, "tags": {"addr:postcode": "65014", "internet_access": "wlan", "leisure": "fitness_centre", "name": "Platinum Fitness", "name:en": "Platinum Fitness", "name:uk": "Platinum Fitness", "opening_hours": "Mo-Sa 08:00-22:00; Su 10:00-17:00", "phone": "+380 48 788 7882", "website": "http://vk.com/fitnessplatinum"}}, {"type": "node", "id": 4681009248, "lat": 46.4841003, "lon": 30.7107556, "tags": {"addr:city": "\u041e\u0434\u0435\u0441\u0430", "addr:housenumber": "14", "addr:street": "\u0414\u044e\u043a\u0456\u0432\u0441\u044c\u043a\u0430 \u0432\u0443\u043b\u0438\u0446\u044f", "email": "power-pavlov@mail.ru", "leisure": "fitness_centre", "name": "POWERDADDY\"S GYM", "name:uk": "POWERDADDY\"S GYM", "personal_trainer": "yes", "phone": "+380 67 780 4766;+380 93 933 4709", "sauna": "no", "sport": "weightlifting", "swimming_pool": "no", "website": "https://vk.com/club58140776"}}, {"type": "node", "id": 4703462693, "lat": 46.4799257, "lon": 30.7565746, "tags": {"leisure": "fitness_centre", "name": "\u0424\u0456\u0442\u043d\u0435\u0441-\u0421\u0442\u0430\u0434\u0456\u0443\u043c", "name:en": "Fitness-Stadium", "name:ru": "\u0424\u0438\u0442\u043d\u0435\u0441-\u0421\u0442\u0430\u0434\u0438\u0443\u043c", "name:uk": "\u0424\u0456\u0442\u043d\u0435\u0441-\u0421\u0442\u0430\u0434\u0456\u0443\u043c"}}, {"type": "node", "id": 4777531721, "lat": 46.3988063, "lon": 30.7262872, "tags": {"leisure": "fitness_centre"}}, {"type": "node", "id": 4791795297, "lat": 46.4980444, "lon": 30.7225273, "tags": {"leisure": "fitness_centre", "name": "\u0423 \u041c\u0456\u0445\u0430\u043b\u0438\u0447\u0430", "name:en": "Gym from Mikhalich", "name:ru": "\u0423 \u041c\u0438\u0445\u0430\u043b\u044b\u0447\u0430", "name:uk": "\u0423 \u041c\u0456\u0445\u0430\u043b\u0438\u0447\u0430", "opening_hours": "Mo-Fr 11:00-21:00, Sa 11:00-19:00", "payment:cash:UAH": "500", "personal_trainer": "yes", "sauna": "no", "sport": "weightlifting", "swimming_pool": "no", "website": "https://www.instagram.com/u_mikhalycha_/"}}, {"type": "node", "id": 5324672731, "lat": 46.5837291, "lon": 30.8024013, "tags": {"addr:housenumber": "127\u0432", "addr:street": "\u0432\u0443\u043b\u0438\u0446\u044f \u0421\u0435\u043c\u0435\u043d\u0430 \u041f\u0430\u043b\u0456\u044f", "contact:facebook": "VertikalOdessa", "contact:instagram": "vertical_fitness", "email": "verticalaqua@gmail.com", "internet_access": "wlan", "leisure": "fitness_centre", "name": "\u0412\u0435\u0440\u0442\u0438\u043a\u0430\u043b\u044c", "name:en": "Vertical", "name:ru": "\u0412\u0435\u0440\u0442\u0438\u043a\u0430\u043b\u044c", "name:uk": "\u0412\u0435\u0440\u0442\u0438\u043a\u0430\u043b\u044c", "opening_hours": "Mo-Fr 07:00-22:00; Sa-Su 09:00-21:00", "phone": "+380 67 866 0809", "website": "https://vertical-odessa.com/"}}, {"type": "node", "id": 5667858845, "lat": 46.4888039, "lon": 30.7188003, "tags": {"leisure": "fitness_centre"}}, {"type": "node", "id": 6292156977, "lat": 46.4712251, "lon": 30.6984327, "tags": {"addr:housenumber": "33", "addr:street": "\u0411\u0443\u0433\u0430\u0457\u0432\u0441\u044c\u043a\u0430 \u0432\u0443\u043b\u0438\u0446\u044f", "leisure": "fitness_centre", "name": "Mak Fit Club", "name:uk": "Mak Fit Club"}}, {"type": "node", "id": 6594271786, "lat": 46.4298523, "lon": 30.7653556, "tags": {"email": "doit.odessa@gmail.com", "internet_access": "wlan", "leisure": "fitness_centre", "name": "Do it Studio", "name:uk": "Do it Studio", "opening_hours": "Mo-Sa 09:00-21:00", "phone": "+380 68 212 9070", "website": "https://instagram.com/doit.odessa"}}, {"type": "node", "id": 7043519085, "lat": 46.5752767, "lon": 30.782157, "tags": {"leisure": "fitness_centre", "name": "SkyFit", "name:en": "SkyFit", "name:uk": "SkyFit"}}, {"type": "node", "id": 7059856035, "lat": 46.4097063, "lon": 30.7395511}, {"type": "node", "id": 7059856036, "lat": 46.4098577, "lon": 30.7408134}, {"type": "node", "id": 7298386988, "lat": 46.5802777, "lon": 30.8057332, "tags": {"leisure": "fitness_centre", "name": "\u0421\u0442\u0430\u0434\u0456\u043e\u043d \u0456\u043c. \u042f. \u041a\u0456\u0440\u0447\u0435\u0432\u0430", "name:uk": "\u0421\u0442\u0430\u0434\u0456\u043e\u043d \u0456\u043c. \u042f. \u041a\u0456\u0440\u0447\u0435\u0432\u0430"}}, {"type": "node", "id": 7522193339, "lat": 46.57147, "lon": 30.7975125}, {"type": "node", "id": 7522193340, "lat": 46.5716293, "lon": 30.7976231}, {"type": "node", "id": 7522193341, "lat": 46.5715456, "lon": 30.797878}, {"type": "node", "id": 7909269644, "lat": 46.4321146, "lon": 30.7449577, "tags": {"addr:housenumber": "16/8", "addr:postcode": "65049", "addr:street": "\u0424\u043e\u043d\u0442\u0430\u043d\u0441\u044c\u043a\u0430 \u0434\u043e\u0440\u043e\u0433\u0430", "description": "\u0412\u0440\u0435\u043c\u044f \u0440\u0430\u0431\u043e\u0442\u044b \u043c\u043e\u0436\u0435\u0442 \u0431\u044b\u0442\u044c \u043d\u0435\u0442\u043e\u0447\u043d\u044b\u043c.", "leisure": "fitness_centre", "name": "Fitness Time", "name:uk": "Fitness Time", "opening_hours": "10:00-21:30; Tu,Th,Sa 09:00-21:30; Mo,We,Fr 08:00-21:30", "phone": "+380 48 772 7262", "sport": "fitness;gymnastics", "website": "https://fitnesstime.at.ua/"}}, {"type": "node", "id": 7925615022, "lat": 46.4231932, "lon": 30.7283059, "tags": {"addr:housenumber": "55e", "brand": "Anytime Fitness", "brand:wikidata": "Q4778364", "brand:wikipedia": "en:Anytime Fitness", "leisure": "fitness_centre", "name": "GFIT STRETCHING", "name:uk": "GFIT STRETCHING"}}, {"type": "node", "id": 7927978326, "lat": 46.4831463, "lon": 30.7448504, "tags": {"addr:housenumber": "1", "addr:postcode": "65026", "addr:street": "\u0414\u0435\u0440\u0438\u0431\u0430\u0441\u0456\u0432\u0441\u044c\u043a\u0430 \u0432\u0443\u043b\u0438\u0446\u044f", "leisure": "fitness_centre", "name": "\u0411\u043b\u0456\u0446-\u0424\u0456\u0442", "name:uk": "\u0411\u043b\u0456\u0446-\u0424\u0456\u0442", "phone": "+380 98 544 9911", "website": "https://blitz-fit.com.ua"}}, {"type": "node", "id": 8149215276, "lat": 46.3866768, "lon": 30.7290925, "tags": {"description": "\u0422\u0440\u0435\u043d\u0430\u0436\u0435\u0440\u043d\u044b\u0439 \u0437\u0430\u043b, \u0433\u0440\u0443\u043f\u043f\u043e\u0432\u044b\u0435 \u0437\u0430\u043d\u044f\u0442\u0438\u044f, \u0439\u043e\u0433\u0430", "leisure": "fitness_centre", "name": "YES FITNESS", "name:en": "YES FITNESS", "name:ru": "\u0419\u0435\u0441 \u0424\u0438\u0442\u043d\u0435\u0441", "name:uk": "\u0419\u0435\u0441 \u0424\u0456\u0442\u043d\u0435\u0441", "phone": "+380 48 798 3146", "phone:mobile": "+380 67 559 0632", "source": "local knowledge", "sport": "yoga", "website": "https://yesfitness.com.ua/"}}, {"type": "node", "id": 8396272331, "lat": 46.4128866, "lon": 30.721765, "tags": {"leisure": "fitness_centre", "name": "FitCurves", "name:uk": "FitCurves"}}, {"type": "node", "id": 8410227817, "lat": 46.5911832, "lon": 30.8004834, "tags": {"addr:postcode": "65111", "leisure": "fitness_centre", "name": "\u0421\u0456\u0440\u0456\u0443\u0441", "name:en": "Sirius", "name:ru": "\u0421\u0438\u0440\u0438\u0443\u0441", "name:uk": "\u0421\u0456\u0440\u0456\u0443\u0441", "opening_hours": "Mo-Fr 06:30-22:00; Sa-Su 10:00-17:00", "phone": "+380 93 020 0051", "website": "http://www.sirius.od.ua/"}}, {"type": "node", "id": 8410245818, "lat": 46.5917005, "lon": 30.7982175, "tags": {"addr:housenumber": "122/2", "addr:postcode": "65111", "addr:street": "\u043f\u0440\u043e\u0441\u043f\u0435\u043a\u0442 \u041a\u043d\u044f\u0437\u044f \u0412\u043e\u043b\u043e\u0434\u0438\u043c\u0438\u0440\u0430 \u0412\u0435\u043b\u0438\u043a\u043e\u0433\u043e", "leisure": "fitness_centre", "name": "\u041a\u043b\u0443\u0431 \u041b\u044c\u0432\u0430", "name:en": "Lion Club", "name:ru": "\u041a\u043b\u0443\u0431 \u041b\u044c\u0432\u0430", "name:uk": "\u041a\u043b\u0443\u0431 \u041b\u044c\u0432\u0430", "phone": "+380 67 654 1694", "website": "https://clubleva.ua/"}}, {"type": "node", "id": 8536721320, "lat": 46.4864159, "lon": 30.7021605, "tags": {"addr:housenumber": "3", "addr:street": "\u0432\u0443\u043b\u0438\u0446\u044f \u041c\u0430\u043b\u043e\u0432\u0441\u044c\u043a\u043e\u0433\u043e", "leisure": "fitness_centre", "name": "\u0424\u0456\u0442\u043d\u0435\u0441-\u043a\u043b\u0443\u0431 Fitness Style", "name:ru": "\u0424\u0438\u0442\u043d\u0435\u0441-\u043a\u043b\u0443\u0431 Fitness Style", "name:uk": "\u0424\u0456\u0442\u043d\u0435\u0441-\u043a\u043b\u0443\u0431 Fitness Style", "phone": "+380 67 965 2924", "website": "http://allfitstyle.com"}}, {"type": "node", "id": 8592669987, "lat": 46.5806039, "lon": 30.7833453, "tags": {"addr:housenumber": "103", "addr:street": "\u043f\u0440\u043e\u0441\u043f\u0435\u043a\u0442 \u041a\u043d\u044f\u0437\u044f \u0412\u043e\u043b\u043e\u0434\u0438\u043c\u0438\u0440\u0430 \u0412\u0435\u043b\u0438\u043a\u043e\u0433\u043e", "leisure": "fitness_centre", "name": "FitCurves", "name:uk": "FitCurves", "phone:UA": "0 800 303 035", "website": "https://fitcurves.org/"}}, {"type": "node", "id": 9948100905, "lat": 46.5782308, "lon": 30.7986082, "tags": {"addr:housenumber": "103\u0411", "addr:street": "\u0432\u0443\u043b\u0438\u0446\u044f \u0421\u0435\u043c\u0435\u043d\u0430 \u041f\u0430\u043b\u0456\u044f", "leisure": "fitness_centre", "name": "FitStyle", "name:uk": "FitStyle", "website": "https://fitstyle.od.ua/"}}, {"type": "node", "id": 10591951540, "lat": 46.4222766, "lon": 30.7254875, "tags": {"leisure": "fitness_centre"}}, {"type": "node", "id": 10902651914, "lat": 46.5927307, "lon": 30.806841, "tags": {"addr:housenumber": "31\u0411", "addr:street": "\u0432\u0443\u043b\u0438\u0446\u044f \u041f\u0430\u0443\u0441\u0442\u043e\u0432\u0441\u044c\u043a\u043e\u0433\u043e", "leisure": "fitness_centre", "level": "1", "name": "UPGRADE", "name:uk": "UPGRADE", "opening_hours": "Mo 07:00-22:00; We 07:00-22:00; Fr 07:00-22:00; Tu 8:00-22:00; Th 8:00-22:00; Sa 08:00-20:00; Su 09:00-19:00", "phone": "+380730323200", "sport": "fitness", "website": "https://upgrade.od.ua/"}}, {"type": "node", "id": 10926010498, "lat": 46.5896015, "lon": 30.8038816, "tags": {"addr:housenumber": "2", "addr:postcode": "6500", "addr:street": "\u041c\u0430\u0445\u0430\u0447\u043a\u0430\u043b\u0438\u043d\u0441\u044c\u043a\u0430 \u0432\u0443\u043b\u0438\u0446\u044f", "leisure": "fitness_centre", "name": "\u0421\u043c\u0430\u0439\u043b", "name:uk": "\u0421\u043c\u0430\u0439\u043b", "opening_hours": "Mo-Sa 08:00-22:00", "phone": "+380976518618", "short_name": "\u0421\u043c\u0430\u0439\u043b", "sport": "fitness", "website": "https://gym-smile.od.ua/zal-na-mahachkalinskoj-2-2/"}}, {"type": "node", "id": 11389833803, "lat": 46.4233694, "lon": 30.7537655, "tags": {"addr:floor": "4", "check_date": "2023-12-03", "leisure": "fitness_centre", "level": "3", "name": "\u0411\u0430z\u0430", "name:uk": "\u0411\u0430z\u0430"}}, {"type": "node", "id": 11439463923, "lat": 46.4270765, "lon": 30.7243612, "tags": {"check_date": "2023-12-21", "leisure": "fitness_centre", "level": "-1"}}, {"type": "node", "id": 11499112291, "lat": 46.4371416, "lon": 30.7296927, "tags": {"check_date": "2024-01-07", "leisure": "fitness_centre", "name": "Body D"}}, {"type": "node", "id": 11499112295, "lat": 46.4383103, "lon": 30.7473832, "tags": {"addr:floor": "4", "check_date": "2024-01-07", "leisure": "fitness_centre", "level": "3", "name": "CrossFit"}}, {"type": "node", "id": 11564955778, "lat": 46.4743805, "lon": 30.7237296, "tags": {"leisure": "fitness_centre", "sport": "boxing"}}, {"type": "node", "id": 11584274644, "lat": 46.4302164, "lon": 30.7437494, "tags": {"addr:floor": "1", "check_date": "2024-02-04", "description": "\u041f\u0440\u0438 \u043f\u043e\u0434\u0434\u0435\u0440\u0436\u043a\u0435 \u0434\u0435\u043f\u0443\u0442\u0430\u0442\u0430 \u041e\u0434\u0435\u0441\u0441\u043a\u043e\u0433\u043e \u0433\u043e\u0440\u043e\u0434\u0441\u043a\u043e\u0433\u043e \u0421\u043e\u0432\u0435\u0442\u0430 \u0411\u0440\u044b\u043d\u0434\u0430\u043a\u0430 \u041e\u043b\u0435\u0433\u0430 \u0411\u043e\u0440\u0438\u0441\u043e\u0432\u0438\u0447\u0430", "fee": "no", "leisure": "fitness_centre", "level": "0", "opening_hours": "17:00-21:00"}}, {"type": "node", "id": 11687117474, "lat": 46.4084989, "lon": 30.7339713, "tags": {"leisure": "fitness_centre", "level": "-1", "name": "Fanat", "sauna": "yes", "sport": "fitness;judo;acrobatics"}}, {"type": "node", "id": 11983427189, "lat": 46.4373106, "lon": 30.7500144, "tags": {"check_date": "2024-06-15", "leisure": "fitness_centre"}}, {"type": "node", "id": 12039815533, "lat": 46.571489, "lon": 30.7978387}, {"type": "way", "id": 160655774, "nodes": [1726944982, 1726944854, 1726944811, 1726945229, 4348493323, 1726944982], "tags": {"addr:housenumber": "58", "addr:postcode": "65091", "building": "yes", "building:levels": "1", "leisure": "fitness_centre", "name": "\u0424\u0456\u0442\u043d\u0435\u0441-\u0441\u0442\u0443\u0434\u0456\u044f \"\u0411\u0430\u0433\u0456\u0440\u0430\"", "name:ru": "\u0424\u0438\u0442\u043d\u0435\u0441-\u0441\u0442\u0443\u0434\u0438\u044f \"\u0411\u0430\u0433\u0438\u0440\u0430\"", "name:uk": "\u0424\u0456\u0442\u043d\u0435\u0441-\u0441\u0442\u0443\u0434\u0456\u044f \"\u0411\u0430\u0433\u0456\u0440\u0430\""}}, {"type": "way", "id": 342546082, "nodes": [7059856035, 3495234864, 3495234865, 7059856036, 7059856035], "tags": {"addr:housenumber": "49", "addr:postcode": "65016", "addr:street": "\u0432\u0443\u043b\u0438\u0446\u044f \u041a\u0443\u043f\u0440\u0456\u043d\u0430", "building": "commercial", "leisure": "fitness_centre", "name": "\u0426\u0435\u043d\u0442\u0440 \u0432\u0456\u0434\u043f\u043e\u0447\u0438\u043d\u043a\u0443 \"\u0417\u0430\u0433\u0443\u0431\u043b\u0435\u043d\u0438\u0439 \u0441\u0432\u0456\u0442\"", "name:ru": "\u0426\u0435\u043d\u0442\u0440 \u043e\u0442\u0434\u044b\u0445\u0430 \"\u0417\u0430\u0442\u0435\u0440\u044f\u043d\u043d\u044b\u0439 \u043c\u0438\u0440\"", "name:uk": "\u0426\u0435\u043d\u0442\u0440 \u0432\u0456\u0434\u043f\u043e\u0447\u0438\u043d\u043a\u0443 \"\u0417\u0430\u0433\u0443\u0431\u043b\u0435\u043d\u0438\u0439 \u0441\u0432\u0456\u0442\"", "phone": "+380 482 37 4108", "website": "https://fitclub.com.ua/clubs/zmir/"}}, {"type": "way", "id": 404801509, "nodes": [4070581485, 4070581480, 4070581478, 4070581483, 4070581484, 4070581485], "tags": {"addr:housenumber": "29", "addr:postcode": "65070", "building": "yes", "leisure": "fitness_centre", "name": "\u0414\u041d\u041a", "name:uk": "\u0414\u041d\u041a", "sport": "fitness"}}, {"type": "way", "id": 404880526, "nodes": [4071308440, 4071308443, 4071308439, 4327027157, 4327027156, 4071308438, 4071308440], "tags": {"addr:housenumber": "90\u0430/1", "addr:postcode": "65033", "building": "yes", "leisure": "fitness_centre", "operator": "Hammer", "sauna": "no", "swimming_pool": "no"}}, {"type": "way", "id": 804207043, "nodes": [2036374579, 7522193339, 7522193340, 7522193341, 12039815533, 2036374582, 2036374579], "tags": {"addr:housenumber": "48/1", "addr:street": "\u041c\u0430\u0440\u0441\u0435\u043b\u044c\u0441\u044c\u043a\u0430 \u0432\u0443\u043b\u0438\u0446\u044f", "building": "yes", "building:levels": "2", "leisure": "fitness_centre", "name": "Fitstyle", "name:uk": "Fitstyle"}}]}