{"version": 0.6, "generator": "Overpass API 0.7.62.1 084b4234", "osm3s": {"timestamp_osm_base": "2024-11-14T09:12:34Z", "copyright": "The data included in this document is from www.openstreetmap.org. The data is made available under ODbL."}, "elements": [{"type": "node", "id": 622289889, "lat": 47.8410025, "lon": 35.1197099, "tags": {"amenity": "restaurant", "name": "\u0410\u0437\u0456\u044f", "name:uk": "\u0410\u0437\u0456\u044f"}}, {"type": "node", "id": 702722011, "lat": 47.8597324, "lon": 35.0939755, "tags": {"amenity": "restaurant", "name": "\u041e\u043b\u0456\u043c\u043f", "name:ru": "\u041e\u043b\u0438\u043c\u043f", "name:uk": "\u041e\u043b\u0456\u043c\u043f"}}, {"type": "node", "id": 1016386565, "lat": 47.8600567, "lon": 35.0632951}, {"type": "node", "id": 1016386605, "lat": 47.8602971, "lon": 35.064645}, {"type": "node", "id": 1016386768, "lat": 47.8589969, "lon": 35.0651869}, {"type": "node", "id": 1016387025, "lat": 47.8586821, "lon": 35.0638317}, {"type": "node", "id": 1016387033, "lat": 47.8595864, "lon": 35.0634876}, {"type": "node", "id": 1091525870, "lat": 47.8189514, "lon": 35.1759102, "tags": {"amenity": "restaurant", "name": "\u041e\u043b\u0435\u043a\u0441\u0430\u043d\u0434\u0440\u0456\u0432\u0441\u044c\u043a\u0438\u0439 \u043f\u043e\u0432\u0456\u0442", "name:ru": "\u0410\u043b\u0435\u043a\u0441\u0430\u043d\u0434\u0440\u043e\u0432\u0441\u043a\u0438\u0439 \u0443\u0435\u0437\u0434", "name:uk": "\u041e\u043b\u0435\u043a\u0441\u0430\u043d\u0434\u0440\u0456\u0432\u0441\u044c\u043a\u0438\u0439 \u043f\u043e\u0432\u0456\u0442"}}, {"type": "node", "id": 1154419057, "lat": 47.8225074, "lon": 35.0399951}, {"type": "node", "id": 1154419119, "lat": 47.8225056, "lon": 35.0397269}, {"type": "node", "id": 1154419198, "lat": 47.8225489, "lon": 35.0398798}, {"type": "node", "id": 1154419234, "lat": 47.8224156, "lon": 35.0399066}, {"type": "node", "id": 1154419247, "lat": 47.8225452, "lon": 35.0397322}, {"type": "node", "id": 1154419254, "lat": 47.8225669, "lon": 35.0397456}, {"type": "node", "id": 1154419259, "lat": 47.8225561, "lon": 35.0397832}, {"type": "node", "id": 1154419300, "lat": 47.8225525, "lon": 35.03992}, {"type": "node", "id": 1154419370, "lat": 47.8225344, "lon": 35.0397617}, {"type": "node", "id": 1154419388, "lat": 47.8225831, "lon": 35.0398261}, {"type": "node", "id": 1276476070, "lat": 47.8266551, "lon": 35.0268754, "tags": {"amenity": "restaurant"}}, {"type": "node", "id": 1334493217, "lat": 47.7818475, "lon": 35.2196367}, {"type": "node", "id": 1334493219, "lat": 47.781854, "lon": 35.2195661}, {"type": "node", "id": 1334493220, "lat": 47.7817943, "lon": 35.2195399}, {"type": "node", "id": 1334493230, "lat": 47.7816951, "lon": 35.2202609}, {"type": "node", "id": 1334493232, "lat": 47.7817729, "lon": 35.2202851}, {"type": "node", "id": 1334493234, "lat": 47.7817838, "lon": 35.220199}, {"type": "node", "id": 1334493240, "lat": 47.7818181, "lon": 35.2201048}, {"type": "node", "id": 1334493241, "lat": 47.781829, "lon": 35.2200243}, {"type": "node", "id": 1334493242, "lat": 47.7818264, "lon": 35.2199633}, {"type": "node", "id": 1334493243, "lat": 47.7818127, "lon": 35.2199082}, {"type": "node", "id": 1334493244, "lat": 47.7818319, "lon": 35.2198544}, {"type": "node", "id": 1334493245, "lat": 47.7818454, "lon": 35.2197987}, {"type": "node", "id": 1334493247, "lat": 47.7818433, "lon": 35.2197463}, {"type": "node", "id": 1334493248, "lat": 47.7818398, "lon": 35.2196919}, {"type": "node", "id": 1515188464, "lat": 47.8494759, "lon": 35.1137145, "tags": {"addr:housenumber": "12", "addr:postcode": "69037", "addr:street": "\u0428\u0435\u0432\u0447\u0435\u043d\u043a\u0430 \u0431\u0443\u043b\u044c\u0432\u0430\u0440", "amenity": "restaurant", "cuisine": "turkish", "name": "Istanbul", "name:uk": "Istanbul", "phone": "+380991110392", "website": "https://www.facebook.com/istanbul.food.zp/"}}, {"type": "node", "id": 1515188490, "lat": 47.8482656, "lon": 35.112347, "tags": {"addr:housenumber": "16", "addr:postcode": "69037", "addr:street": "\u0428\u0435\u0432\u0447\u0435\u043d\u043a\u0430 \u0431\u0443\u043b\u044c\u0432\u0430\u0440", "amenity": "restaurant", "cuisine": "japanese;regional", "name": "\u0428\u0435\u043b\u0435\u0441\u0442", "name:uk": "\u0428\u0435\u043b\u0435\u0441\u0442", "opening_hours": "Mo-Su 11:00-22:00", "phone": "+380975221242", "website": "http://limonsol.com.ua/restaurants/shelest/"}}, {"type": "node", "id": 2058460160, "lat": 47.776636, "lon": 35.2161312}, {"type": "node", "id": 2058460166, "lat": 47.7766631, "lon": 35.2159755}, {"type": "node", "id": 2058460174, "lat": 47.7768054, "lon": 35.2161966}, {"type": "node", "id": 2058460176, "lat": 47.7768182, "lon": 35.2161232}, {"type": "node", "id": 2058460180, "lat": 47.7768333, "lon": 35.2160412}, {"type": "node", "id": 2058460185, "lat": 47.7768475, "lon": 35.2159599}, {"type": "node", "id": 2058460188, "lat": 47.7769307, "lon": 35.2161667}, {"type": "node", "id": 2058460191, "lat": 47.7769592, "lon": 35.2160031}, {"type": "node", "id": 2329661047, "lat": 47.8818085, "lon": 35.0220155}, {"type": "node", "id": 2329661049, "lat": 47.881827, "lon": 35.0220516}, {"type": "node", "id": 2329661051, "lat": 47.8819001, "lon": 35.0219682}, {"type": "node", "id": 2329661053, "lat": 47.8817764, "lon": 35.0217273}, {"type": "node", "id": 2329661055, "lat": 47.8816188, "lon": 35.0219548}, {"type": "node", "id": 2329661057, "lat": 47.8817085, "lon": 35.0221295}, {"type": "node", "id": 2329661059, "lat": 47.8817074, "lon": 35.021806}, {"type": "node", "id": 2329661061, "lat": 47.8817229, "lon": 35.0218361}, {"type": "node", "id": 2431416232, "lat": 47.837991, "lon": 35.099516, "tags": {"amenity": "restaurant", "internet_access": "wlan", "internet_access:fee": "yes", "name": "Malibu", "name:uk": "Malibu", "note": "english menu card. italian, american and japanese food. many people eat sushi.", "outdoor_seating": "yes", "smoking": "separated", "wheelchair": "yes"}}, {"type": "node", "id": 3046255713, "lat": 47.7838022, "lon": 35.2292039}, {"type": "node", "id": 3046255714, "lat": 47.7837642, "lon": 35.2294823}, {"type": "node", "id": 3046255715, "lat": 47.7833887, "lon": 35.2293685}, {"type": "node", "id": 3048904249, "lat": 47.8059712, "lon": 35.1854047}, {"type": "node", "id": 3048904250, "lat": 47.8059188, "lon": 35.1857024}, {"type": "node", "id": 3048904251, "lat": 47.8058161, "lon": 35.1856623}, {"type": "node", "id": 3048904252, "lat": 47.8058685, "lon": 35.1853646}, {"type": "node", "id": 3424498979, "lat": 47.8589532, "lon": 35.0649957}, {"type": "node", "id": 3442561394, "lat": 47.8293867, "lon": 35.0627875, "tags": {"addr:street": "\u0411\u0443\u0434\u0438\u043d\u043e\u043a \u0432\u0456\u0434\u043f\u043e\u0447\u0438\u043d\u043a\u0443", "amenity": "restaurant", "cuisine": "ukrainian", "name": "\u0425\u0430\u0440\u0447\u0435\u0432\u043d\u044f", "name:uk": "\u0425\u0430\u0440\u0447\u0435\u0432\u043d\u044f"}}, {"type": "node", "id": 3595707609, "lat": 47.8253151, "lon": 35.1653845}, {"type": "node", "id": 3595707610, "lat": 47.8253636, "lon": 35.1654489}, {"type": "node", "id": 3595707611, "lat": 47.8253357, "lon": 35.165033}, {"type": "node", "id": 3595707613, "lat": 47.8254135, "lon": 35.1654486}, {"type": "node", "id": 3595707614, "lat": 47.8254485, "lon": 35.1654626}, {"type": "node", "id": 3595707615, "lat": 47.8254864, "lon": 35.1654683}, {"type": "node", "id": 3595707616, "lat": 47.825525, "lon": 35.1653043}, {"type": "node", "id": 3595707617, "lat": 47.8255311, "lon": 35.1652109}, {"type": "node", "id": 3595707618, "lat": 47.8255358, "lon": 35.1650929}, {"type": "node", "id": 3595707619, "lat": 47.8255745, "lon": 35.1656329}, {"type": "node", "id": 3595707620, "lat": 47.8255974, "lon": 35.1651013}, {"type": "node", "id": 3595707621, "lat": 47.8256095, "lon": 35.1653222}, {"type": "node", "id": 3595707623, "lat": 47.8256987, "lon": 35.1654713}, {"type": "node", "id": 3604641371, "lat": 47.8414872, "lon": 35.150686}, {"type": "node", "id": 3604641372, "lat": 47.8415045, "lon": 35.1512557}, {"type": "node", "id": 3604641381, "lat": 47.8418684, "lon": 35.1512385}, {"type": "node", "id": 3604641384, "lat": 47.8418822, "lon": 35.1506946}, {"type": "node", "id": 3604964130, "lat": 47.8079365, "lon": 35.1696661}, {"type": "node", "id": 3604964131, "lat": 47.8080105, "lon": 35.1698217}, {"type": "node", "id": 3604964132, "lat": 47.8081114, "lon": 35.1694735}, {"type": "node", "id": 3604964133, "lat": 47.8081139, "lon": 35.1694789}, {"type": "node", "id": 3604964134, "lat": 47.8081468, "lon": 35.1700311}, {"type": "node", "id": 3604964135, "lat": 47.8081865, "lon": 35.169636}, {"type": "node", "id": 3604964136, "lat": 47.8082611, "lon": 35.1702349}, {"type": "node", "id": 3604964137, "lat": 47.8082879, "lon": 35.1698556}, {"type": "node", "id": 3604964138, "lat": 47.8083894, "lon": 35.1700754}, {"type": "node", "id": 3604964139, "lat": 47.8084041, "lon": 35.1701072}, {"type": "node", "id": 3604964140, "lat": 47.808408, "lon": 35.1691699}, {"type": "node", "id": 3604964142, "lat": 47.8087006, "lon": 35.1698035}, {"type": "node", "id": 3605023609, "lat": 47.8235375, "lon": 35.1676281}, {"type": "node", "id": 3605023610, "lat": 47.8236675, "lon": 35.1678631}, {"type": "node", "id": 3605023611, "lat": 47.8236753, "lon": 35.1674588}, {"type": "node", "id": 3605023612, "lat": 47.8238054, "lon": 35.1676938}, {"type": "node", "id": 3819528340, "lat": 47.7962193, "lon": 35.2007866}, {"type": "node", "id": 3819528342, "lat": 47.7962443, "lon": 35.2007643}, {"type": "node", "id": 3819528345, "lat": 47.796261, "lon": 35.2009656}, {"type": "node", "id": 3819528346, "lat": 47.7962731, "lon": 35.2009204}, {"type": "node", "id": 3819528347, "lat": 47.7962868, "lon": 35.2010493}, {"type": "node", "id": 3819528348, "lat": 47.7963037, "lon": 35.2008058}, {"type": "node", "id": 3819528350, "lat": 47.7963121, "lon": 35.2007792}, {"type": "node", "id": 3819528352, "lat": 47.7963355, "lon": 35.2010834}, {"type": "node", "id": 3819528355, "lat": 47.7964099, "lon": 35.2008476}, {"type": "node", "id": 4022115081, "lat": 47.8118874, "lon": 35.1803322, "tags": {"amenity": "restaurant", "cuisine": "international", "name": "\u0422\u0440\u0430\u043a\u0442\u0438\u0440 \"\u0423 \u043a\u0430\u043c\u0438\u043d\u0430\"", "name:uk": "\u0422\u0440\u0430\u043a\u0442\u0438\u0440 \"\u0423 \u043a\u0430\u043c\u0438\u043d\u0430\""}}, {"type": "node", "id": 4045566297, "lat": 47.8374236, "lon": 35.142988, "tags": {"addr:housenumber": "158", "addr:postcode": "69005", "addr:street": "\u0421\u043e\u0431\u043e\u0440\u043d\u0438\u0439 \u043f\u0440\u043e\u0441\u043f\u0435\u043a\u0442", "amenity": "restaurant", "cuisine": "pizza", "name": "\u041c\u0430\u0432\u0440\u0430 \u041f\u0456\u0446\u0430", "name:en": "Mavra Pizza", "name:ru": "\u041c\u0430\u0432\u0440\u0430 \u041f\u0438\u0446\u0446\u0430", "name:uk": "\u041c\u0430\u0432\u0440\u0430 \u041f\u0456\u0446\u0430", "opening_hours": "Mo-Su 09:00-21:00", "phone": "+380501580040", "website": "https://soborny158.mavrapizza.com/ru/"}}, {"type": "node", "id": 4244030902, "lat": 47.8445367, "lon": 35.1276218}, {"type": "node", "id": 4244030903, "lat": 47.8444538, "lon": 35.1277813}, {"type": "node", "id": 4244030904, "lat": 47.8442881, "lon": 35.1275898}, {"type": "node", "id": 4244030905, "lat": 47.844371, "lon": 35.1274304}, {"type": "node", "id": 4244200786, "lat": 47.8387215, "lon": 35.0997924}, {"type": "node", "id": 4244200787, "lat": 47.8388484, "lon": 35.0999275}, {"type": "node", "id": 4244200788, "lat": 47.8387833, "lon": 35.1000633}, {"type": "node", "id": 4244201189, "lat": 47.8386564, "lon": 35.0999282}, {"type": "node", "id": 4313083219, "lat": 47.8226945, "lon": 35.0395782, "tags": {"barrier": "fence"}}, {"type": "node", "id": 4313083220, "lat": 47.8225656, "lon": 35.0394733, "tags": {"barrier": "fence"}}, {"type": "node", "id": 4313083221, "lat": 47.8223183, "lon": 35.0399168, "tags": {"barrier": "fence"}}, {"type": "node", "id": 4313083222, "lat": 47.8224991, "lon": 35.0401444, "tags": {"barrier": "fence"}}, {"type": "node", "id": 4313083223, "lat": 47.8225709, "lon": 35.0399524, "tags": {"barrier": "fence"}}, {"type": "node", "id": 4316627691, "lat": 47.8466239, "lon": 35.1083296, "tags": {"amenity": "restaurant", "cuisine": "italian_pizza;italian", "internet_access": "wlan", "name": "\u0412\u0438\u043b\u043b\u0430 \u041e\u043b\u0438\u0432\u0430", "name:uk": "\u0412\u0438\u043b\u043b\u0430 \u041e\u043b\u0438\u0432\u0430", "opening_hours": "Mo-Su 11:00-00:00", "phone": "+380 612 24 3031"}}, {"type": "node", "id": 4409608292, "lat": 47.8451756, "lon": 35.2071203, "tags": {"addr:housenumber": "17", "addr:street": "\u0412\u0435\u0440\u0435\u0449\u0430\u0433\u0456\u043d\u0430 \u0432\u0443\u043b\u0438\u0446\u044f", "amenity": "restaurant", "name": "\u041d\u0430\u0457\u0440\u0456", "name:ru": "\u041d\u0410\u0418\u0420\u0418", "name:uk": "\u041d\u0430\u0457\u0440\u0456"}}, {"type": "node", "id": 4409638890, "lat": 47.8447984, "lon": 35.2031745, "tags": {"addr:housenumber": "2", "addr:street": "\u0420\u0443\u0441\u0442\u0430\u0432\u0435\u043b\u0456 \u0432\u0443\u043b\u0438\u0446\u044f", "amenity": "restaurant", "name": "\u0413\u042e\u041c\u0420\u0406", "name:ru": "\u0413\u042e\u041c\u0420\u0418", "name:uk": "\u0413\u042e\u041c\u0420\u0406"}}, {"type": "node", "id": 4921776524, "lat": 47.8522413, "lon": 35.1154247, "tags": {"amenity": "restaurant", "name": "\u0425\u0443\u0442\u043e\u0440\u043e\u043a", "name:uk": "\u0425\u0443\u0442\u043e\u0440\u043e\u043a"}}, {"type": "node", "id": 4921802021, "lat": 47.8523143, "lon": 35.1154242, "tags": {"amenity": "restaurant", "name": "\u041c\u0438\u0441\u043b\u0438\u0432\u0435\u0446\u044c", "name:uk": "\u041c\u0438\u0441\u043b\u0438\u0432\u0435\u0446\u044c"}}, {"type": "node", "id": 5066714123, "lat": 47.7905431, "lon": 35.2287356, "tags": {"amenity": "restaurant", "name": "\u0410\u043d\u0443\u0448", "name:ru": "\u0410\u043d\u0443\u0448", "name:uk": "\u0410\u043d\u0443\u0448"}}, {"type": "node", "id": 5149868798, "lat": 47.8483095, "lon": 35.1353042}, {"type": "node", "id": 5149868799, "lat": 47.8481519, "lon": 35.1351301}, {"type": "node", "id": 5149868800, "lat": 47.8480372, "lon": 35.1353606}, {"type": "node", "id": 5149868801, "lat": 47.8481948, "lon": 35.1355347}, {"type": "node", "id": 5246300721, "lat": 47.8449526, "lon": 35.1295855, "tags": {"amenity": "restaurant", "cuisine": "italian_pizza;italian", "name": "\u0411\u0435\u043b\u043b\u0456\u043d\u0456", "name:en": "Bellini", "name:uk": "\u0411\u0435\u043b\u043b\u0456\u043d\u0456"}}, {"type": "node", "id": 5403853805, "lat": 47.9108844, "lon": 35.086319, "tags": {"amenity": "restaurant", "internet_access": "wlan", "name": "\u041c\u043e\u043d\u0438\u043a\u0430 \u0411\u0435\u043b\u0443\u0447\u0447\u0438", "name:uk": "\u041c\u043e\u043d\u0438\u043a\u0430 \u0411\u0435\u043b\u0443\u0447\u0447\u0438"}}, {"type": "node", "id": 5518738829, "lat": 47.8465528, "lon": 35.1244949, "tags": {"amenity": "restaurant", "name": "\u0417\u0456\u0440\u043a\u0430 \u0421\u0445\u043e\u0434\u0443", "name:ru": "\u0417\u0432\u0435\u0437\u0434\u0430 \u0412\u043e\u0441\u0442\u043e\u043a\u0430", "name:uk": "\u0417\u0456\u0440\u043a\u0430 \u0421\u0445\u043e\u0434\u0443"}}, {"type": "node", "id": 5518738832, "lat": 47.811916, "lon": 35.180453, "tags": {"amenity": "restaurant", "name": "\u041f\u0430\u0440\u0430\u0434\u0438\u0437 \u043d\u0430 \u0422\u0440\u043e\u0457\u0446\u044c\u043a\u0456\u0439", "name:ru": "\u041f\u0430\u0440\u0430\u0434\u0438\u0437 \u043d\u0430 \u0422\u0440\u043e\u0438\u0446\u043a\u043e\u0439", "name:uk": "\u041f\u0430\u0440\u0430\u0434\u0438\u0437 \u043d\u0430 \u0422\u0440\u043e\u0457\u0446\u044c\u043a\u0456\u0439"}}, {"type": "node", "id": 5518743822, "lat": 47.8255067, "lon": 35.1653873, "tags": {"amenity": "restaurant", "name": "\u041b\u0443\u0457\u0437\u0456\u0430\u043d\u0430", "name:ru": "\u041b\u0443\u0438\u0437\u0438\u0430\u043d\u0430", "name:uk": "\u041b\u0443\u0457\u0437\u0456\u0430\u043d\u0430"}}, {"type": "node", "id": 5518743824, "lat": 47.848914, "lon": 35.1201978, "tags": {"amenity": "restaurant", "name": "\u0422\u0438\u0431\u0435\u0442", "name:en": "Tibet", "name:ru": "\u0422\u0438\u0431\u0435\u0442", "name:uk": "\u0422\u0438\u0431\u0435\u0442"}}, {"type": "node", "id": 5518743826, "lat": 47.8392755, "lon": 35.1374869, "tags": {"amenity": "restaurant", "cuisine": "ukrainian;regional", "name": "\u041a\u043e\u0440\u0447\u043c\u0430", "name:uk": "\u041a\u043e\u0440\u0447\u043c\u0430", "opening_hours": "Mo-Su 12:00-23:30", "phone": "+380676929222", "website": "https://korchma.eat-me.online/"}}, {"type": "node", "id": 5518743827, "lat": 47.8300454, "lon": 35.0620214, "tags": {"amenity": "restaurant", "name": "\u041a\u043e\u0437\u0430\u0446\u044c\u043a\u0435 \u043f\u043e\u0434\u0432\u0456\u0440'\u044f", "name:uk": "\u041a\u043e\u0437\u0430\u0446\u044c\u043a\u0435 \u043f\u043e\u0434\u0432\u0456\u0440'\u044f"}}, {"type": "node", "id": 5873355585, "lat": 47.843486, "lon": 35.1259004, "tags": {"amenity": "restaurant", "name": "Bull. Butchery and Wine", "name:uk": "Bull. Butchery and Wine"}}, {"type": "node", "id": 6304184065, "lat": 47.808761, "lon": 35.1840836, "tags": {"addr:housenumber": "6", "addr:postcode": "69063", "addr:street": "\u0421\u0432\u044f\u0442\u043e\u0433\u043e \u041c\u0438\u043a\u043e\u043b\u0430\u044f \u0432\u0443\u043b\u0438\u0446\u044f", "amenity": "restaurant", "name": "\u041c\u0430\u043d\u0443\u0444\u0430\u043a\u0442\u0443\u0440\u0430 \u00ab\u0420\u043e\u0437\u0435\u043d\u0442\u0430\u043b\u044c\u00bb", "name:en": "Manufactura \u00abRozental\u00bb", "name:ru": "\u041c\u0430\u043d\u0443\u0444\u0430\u043a\u0442\u0443\u0440\u0430 \u00ab\u0420\u043e\u0437\u0435\u043d\u0442\u0430\u043b\u044c\u00bb", "name:uk": "\u041c\u0430\u043d\u0443\u0444\u0430\u043a\u0442\u0443\u0440\u0430 \u00ab\u0420\u043e\u0437\u0435\u043d\u0442\u0430\u043b\u044c\u00bb", "phone": "+380 97 510 0088", "start_date": "2018-12-01", "website": "https://manufactura-rozental.com.ua/"}}, {"type": "node", "id": 6704042859, "lat": 47.8411054, "lon": 35.1199521, "tags": {"addr:housenumber": "25", "addr:street": "\u0421\u0442\u0430\u043b\u0435\u0432\u0430\u0440\u0456\u0432 \u0432\u0443\u043b\u0438\u0446\u044f", "amenity": "restaurant", "name": "Best Grill", "name:uk": "Best Grill"}}, {"type": "node", "id": 7579927385, "lat": 47.8327119, "lon": 35.1875917, "tags": {"addr:housenumber": "9", "addr:street": "\u041a\u0440\u0443\u0433\u043e\u0432\u0430 \u0432\u0443\u043b\u0438\u0446\u044f", "amenity": "restaurant", "name": "\u041c\u0430\u0456\u0441", "name:ru": "\u041c\u0430\u0438\u0441", "name:uk": "\u041c\u0430\u0456\u0441"}}, {"type": "node", "id": 9547344688, "lat": 47.8452112, "lon": 35.129672, "tags": {"amenity": "restaurant", "contact:facebook": "https://www.facebook.com/TimeToNosh/", "name": "Nosh", "name:uk": "Nosh", "website": "http://nosh.com.ua/"}}, {"type": "node", "id": 10115600317, "lat": 47.8468676, "lon": 35.1238155, "tags": {"addr:postcode": "69000", "amenity": "restaurant", "cuisine": "regional", "internet_access": "wlan", "name": "\u041d\u0430\u0440\u0435\u0448\u0442\u0456", "name:uk": "\u041d\u0430\u0440\u0435\u0448\u0442\u0456", "opening_hours": "Mo-Su 11:00-21:00", "phone": "+380993728585", "website": "https://nareshti.com.ua"}}, {"type": "node", "id": 10243597028, "lat": 47.7798726, "lon": 35.2188271}, {"type": "node", "id": 10243597029, "lat": 47.7798827, "lon": 35.2188575}, {"type": "node", "id": 10243597030, "lat": 47.779891, "lon": 35.2188722}, {"type": "node", "id": 10243597031, "lat": 47.7798942, "lon": 35.2188996}, {"type": "node", "id": 10243597032, "lat": 47.7798893, "lon": 35.2189289}, {"type": "node", "id": 10243597033, "lat": 47.7798644, "lon": 35.2189571}, {"type": "node", "id": 10243597034, "lat": 47.7798625, "lon": 35.2189745}, {"type": "node", "id": 10243597035, "lat": 47.7798725, "lon": 35.2189859}, {"type": "node", "id": 10243597036, "lat": 47.7798766, "lon": 35.2190421}, {"type": "node", "id": 10243597037, "lat": 47.7798664, "lon": 35.2190663}, {"type": "node", "id": 10243597038, "lat": 47.7798542, "lon": 35.2190739}, {"type": "node", "id": 10243597039, "lat": 47.7798242, "lon": 35.2190791}, {"type": "node", "id": 10243597040, "lat": 47.7798057, "lon": 35.2190738}, {"type": "node", "id": 10243597041, "lat": 47.7798386, "lon": 35.2188184}, {"type": "node", "id": 10243597042, "lat": 47.7798788, "lon": 35.219014}, {"type": "node", "id": 10243597043, "lat": 47.7798791, "lon": 35.218947}, {"type": "node", "id": 10243597044, "lat": 47.7798714, "lon": 35.2188465}, {"type": "node", "id": 10243597045, "lat": 47.7798392, "lon": 35.2190788}, {"type": "node", "id": 10811836497, "lat": 47.8171194, "lon": 35.1708888, "tags": {"addr:housenumber": "17", "addr:postcode": "69002", "addr:street": "\u041f\u0435\u0440\u0448\u0430 \u041b\u0438\u0432\u0430\u0440\u043d\u0430 \u0432\u0443\u043b\u0438\u0446\u044f", "amenity": "restaurant", "cuisine": "pizza;chinese;japanese;sushi;burger;ramen", "name": "\u0420\u0438\u0431\u0430\u0420\u0438\u0441", "name:en": "RibaRis", "name:ru": "\u0420\u044b\u0431\u0430\u0420\u0438\u0441", "name:uk": "\u0420\u0438\u0431\u0430\u0420\u0438\u0441", "opening_hours": "Mo-Su 09:30-21:30", "phone": "+380955205666", "website": "https://ribaris.zp.ua"}}, {"type": "node", "id": 10811848999, "lat": 47.8266056, "lon": 35.1643533, "tags": {"addr:housenumber": "91", "addr:postcode": "69095", "addr:street": "\u0421\u043e\u0431\u043e\u0440\u043d\u0438\u0439 \u043f\u0440\u043e\u0441\u043f\u0435\u043a\u0442", "amenity": "restaurant", "cuisine": "chinese;japanese;soba;pizza;sushi;udon", "name": "\u0421\u0443\u0448\u0456 Island", "name:en": "Sushi Island", "name:ru": "\u0421\u0443\u0448\u0438 Island", "name:uk": "\u0421\u0443\u0448\u0456 Island", "opening_hours": "Mo-Su 11:00-22:00", "phone": "+380667945481", "website": "https://sushi-island.com.ua"}}, {"type": "node", "id": 10812174262, "lat": 47.8404634, "lon": 35.2224879, "tags": {"addr:housenumber": "145", "addr:postcode": "69071", "addr:street": "\u0427\u0430\u0440\u0456\u0432\u043d\u0430 \u0432\u0443\u043b\u0438\u0446\u044f", "amenity": "restaurant", "cuisine": "pizza;sushi", "name": "Boogie Pizza Sushi", "name:uk": "Boogie Pizza Sushi", "opening_hours": "Mo-Su 10:00-22:00", "phone": "+380675562977", "website": "https://www.facebook.com/your.boogie.pizza"}}, {"type": "node", "id": 10814895276, "lat": 47.852189, "lon": 35.1142819, "tags": {"addr:housenumber": "171", "addr:postcode": "69037", "addr:street": "\u0421\u043e\u0431\u043e\u0440\u043d\u0438\u0439 \u043f\u0440\u043e\u0441\u043f\u0435\u043a\u0442", "amenity": "restaurant", "cuisine": "georgian", "name": "One Gogi", "name:uk": "One Gogi", "opening_hours": "Mo-Su 10:30-21:00", "phone": "+380953940944", "website": "https://onegogi.com/zp"}}, {"type": "node", "id": 10814902879, "lat": 47.8475367, "lon": 35.1227164, "tags": {"addr:housenumber": "155", "addr:postcode": "69035", "addr:street": "\u0421\u043e\u0431\u043e\u0440\u043d\u0438\u0439 \u043f\u0440\u043e\u0441\u043f\u0435\u043a\u0442", "amenity": "restaurant", "cuisine": "pizza", "internet_access": "wlan", "name": "\u0414\u043e\u0431\u0440\u0430 \u043f\u0456\u0446\u0430", "name:en": "Dobra Pizza", "name:uk": "\u0414\u043e\u0431\u0440\u0430 \u041f\u0456\u0446\u0430", "opening_hours": "Mo-Su 09:00-22:00", "phone": "+380508809966", "website": "http://dobrapizza.com.ua/"}}, {"type": "node", "id": 10814993885, "lat": 47.8448933, "lon": 35.1295316, "tags": {"addr:housenumber": "186", "addr:postcode": "69035", "addr:street": "\u0421\u043e\u0431\u043e\u0440\u043d\u0438\u0439 \u043f\u0440\u043e\u0441\u043f\u0435\u043a\u0442", "amenity": "restaurant", "cuisine": "georgian", "name": "\u041f\u0443\u0440\u0456 \u0427\u0432\u0435\u043d\u0456", "name:en": "Puri Chveni", "name:ru": "\u041f\u0443\u0440\u0438 \u0427\u0432\u0435\u043d\u0438", "name:uk": "\u041f\u0443\u0440\u0456 \u0427\u0432\u0435\u043d\u0456", "opening_hours": "Mo-Su 12:00-21:00", "phone": "+380964840849"}}, {"type": "node", "id": 11382413776, "lat": 47.7832202, "lon": 35.2290277}, {"type": "node", "id": 11382413777, "lat": 47.7831998, "lon": 35.2291767}, {"type": "node", "id": 11382413778, "lat": 47.7834064, "lon": 35.2292393}, {"type": "way", "id": 87409266, "nodes": [1016387025, 1016387033, 1016386565, 1016386605, 1016386768, 3424498979, 1016387025], "tags": {"amenity": "restaurant", "name": "\u0417\u0430\u043f\u043e\u0440\u0456\u0437\u044c\u043a\u0430 \u0421\u0456\u0447", "name:ru": "\u0417\u0430\u043f\u043e\u0440\u043e\u0436\u0441\u043a\u0430\u044f \u0421\u0435\u0447\u044c", "name:uk": "\u0417\u0430\u043f\u043e\u0440\u0456\u0437\u044c\u043a\u0430 \u0421\u0456\u0447"}}, {"type": "way", "id": 99860885, "nodes": [1154419119, 1154419234, 1154419057, 1154419300, 1154419198, 1154419388, 1154419259, 1154419254, 1154419247, 1154419370, 1154419119], "tags": {"amenity": "restaurant", "building": "yes", "name": "\u0428\u0430\u0442\u043e", "name:uk": "\u0428\u0430\u0442\u043e"}}, {"type": "way", "id": 118706336, "nodes": [1334493217, 1334493219, 1334493220, 1334493230, 1334493232, 1334493234, 1334493240, 1334493241, 1334493242, 1334493243, 1334493244, 1334493245, 1334493247, 1334493248, 1334493217], "tags": {"addr:housenumber": "14", "amenity": "restaurant", "building": "yes", "cuisine": "pizza", "name": "Pizza Boss", "name:uk": "Pizza Boss", "source": "landsat"}}, {"type": "way", "id": 195397849, "nodes": [2058460166, 2058460160, 2058460174, 2058460176, 2058460188, 2058460191, 2058460185, 2058460180, 2058460166], "tags": {"addr:housenumber": "11\u0431", "addr:street": "\u0404\u0432\u0440\u043e\u043f\u0435\u0439\u0441\u044c\u043a\u0430 \u0432\u0443\u043b\u0438\u0446\u044f", "amenity": "restaurant", "building": "yes", "name": "\u0410\u0445\u0442\u0430\u043c\u0430\u0440", "name:en": "Provinciia", "name:ru": "\u041f\u0440\u043e\u0432\u0438\u043d\u0446\u0438\u044f", "name:uk": "\u041f\u0440\u043e\u0432\u0456\u043d\u0446\u0456\u044f"}}, {"type": "way", "id": 224134055, "nodes": [2329661059, 2329661053, 2329661051, 2329661049, 2329661047, 2329661057, 2329661055, 2329661061, 2329661059], "tags": {"addr:street": "\u0425\u0430\u043a\u0430\u0441\u044c\u043a\u0430 \u0432\u0443\u043b\u0438\u0446\u044f", "amenity": "restaurant", "building": "public", "name": "\u0415\u0441\u0442\u0435\u043b\u044c", "name:uk": "\u0415\u0441\u0442\u0435\u043b\u044c"}}, {"type": "way", "id": 300550669, "nodes": [3046255713, 3046255714, 3046255715, 11382413778, 11382413777, 11382413776, 3046255713], "tags": {"addr:housenumber": "7\u0430", "addr:street": "\u0427\u0443\u043c\u0430\u0447\u0435\u043d\u043a\u0430 \u0432\u0443\u043b\u0438\u0446\u044f", "amenity": "restaurant", "building": "yes", "name": "\u0420\u0430\u0443\u0442", "name:uk": "\u0420\u0430\u0443\u0442"}}, {"type": "way", "id": 300803109, "nodes": [3048904249, 3048904250, 3048904251, 3048904252, 3048904249], "tags": {"addr:housenumber": "20\u0431\u0431", "addr:street": "\u0421\u043e\u0431\u043e\u0440\u043d\u0438\u0439 \u043f\u0440\u043e\u0441\u043f\u0435\u043a\u0442", "amenity": "restaurant", "building": "yes", "internet_access": "wlan", "name": "Family Hall", "name:uk": "Family Hall", "opening_hours": "Mo-Th 10:00-22:00; Fr-Sa 10:00-23:00; Su 10:00-22:00", "phone": "+380 98 489 8081", "website": "https://www.family.zp.ua/"}}, {"type": "way", "id": 353755038, "nodes": [3595707611, 3595707618, 3595707620, 3595707617, 3595707616, 3595707621, 3595707623, 3595707619, 3595707615, 3595707614, 3595707613, 3595707610, 3595707609, 3595707611], "tags": {"amenity": "restaurant", "building": "yes", "name": "\u041b\u0443\u0456\u0437\u0456\u0430\u043d\u0430", "name:en": "Luiziana", "name:ru": "\u041b\u0443\u0438\u0437\u0438\u0430\u043d\u0430", "name:uk": "\u041b\u0443\u0456\u0437\u0456\u0430\u043d\u0430"}}, {"type": "way", "id": 354789976, "nodes": [3604641384, 3604641371, 3604641372, 3604641381, 3604641384], "tags": {"amenity": "restaurant", "building": "yes", "name": "\u041e\u0447\u0430\u0433", "name:uk": "\u041e\u0447\u0430\u0433"}}, {"type": "way", "id": 354831718, "nodes": [3604964137, 3604964135, 3604964131, 3604964130, 3604964133, 3604964132, 3604964140, 3604964142, 3604964139, 3604964138, 3604964136, 3604964134, 3604964137], "tags": {"addr:housenumber": "1\u0410", "addr:street": "\u0413\u043b\u0456\u0441\u0435\u0440\u043d\u0430 \u0432\u0443\u043b\u0438\u0446\u044f", "amenity": "restaurant", "building": "yes", "name": "Sunrise", "name:uk": "Sunrise"}}, {"type": "way", "id": 354842521, "nodes": [3605023611, 3605023612, 3605023610, 3605023609, 3605023611], "tags": {"addr:housenumber": "87", "addr:street": "\u0421\u043e\u0431\u043e\u0440\u043d\u0438\u0439 \u043f\u0440\u043e\u0441\u043f\u0435\u043a\u0442", "amenity": "restaurant", "building": "commercial", "cuisine": "regional", "name": "Cartel", "name:uk": "Cartel", "opening_hours": "10:00-23:00"}}, {"type": "way", "id": 378538250, "nodes": [3819528350, 3819528355, 3819528352, 3819528347, 3819528345, 3819528346, 3819528340, 3819528342, 3819528348, 3819528350], "tags": {"addr:housenumber": "42", "addr:street": "\u041a\u043e\u0441\u043c\u0456\u0447\u043d\u0430 \u0432\u0443\u043b\u0438\u0446\u044f", "amenity": "restaurant", "building": "yes", "building:levels": "2", "name": "\u0420\u0435\u0441\u0442\u043e\u0440\u0430\u043d \u0412\u0415\u041d\u0415\u0426\u0406\u042f", "name:uk": "\u0420\u0435\u0441\u0442\u043e\u0440\u0430\u043d \u0412\u0415\u041d\u0415\u0426\u0406\u042f"}}, {"type": "way", "id": 425071345, "nodes": [4244030902, 4244030903, 4244030904, 4244030905, 4244030902], "tags": {"addr:housenumber": "2\u0430", "amenity": "restaurant", "building": "yes", "building:levels": "2", "name": "\u0410\u0440\u0438\u0441\u0442\u043e\u043a\u0440\u0430\u0442", "name:uk": "\u0410\u0440\u0438\u0441\u0442\u043e\u043a\u0440\u0430\u0442", "opening_hours": "24/7"}}, {"type": "way", "id": 425091959, "nodes": [4244200786, 4244200787, 4244200788, 4244201189, 4244200786], "tags": {"addr:housenumber": "72", "addr:street": "\u0428\u0435\u0432\u0447\u0435\u043d\u043a\u0430 \u0431\u0443\u043b\u044c\u0432\u0430\u0440", "amenity": "restaurant", "building": "yes", "name": "\u0412\u0435\u0440\u0430\u043d\u0434\u0430", "name:uk": "\u0412\u0435\u0440\u0430\u043d\u0434\u0430", "url": "http://veranda.zp.ua"}}, {"type": "way", "id": 432144529, "nodes": [4313083219, 4313083220, 4313083221, 4313083222, 4313083223, 4313083219], "tags": {"amenity": "restaurant", "barrier": "fence", "fence_type": "wall", "name": "\u0428\u0430\u0442\u043e", "name:uk": "\u0428\u0430\u0442\u043e"}}, {"type": "way", "id": 530321399, "nodes": [5149868798, 5149868799, 5149868800, 5149868801, 5149868798], "tags": {"addr:housenumber": "26", "addr:street": "\u0412\u043e\u043b\u0433\u043e\u0433\u0440\u0430\u0434\u0441\u044c\u043a\u0430 \u0432\u0443\u043b\u0438\u0446\u044f", "amenity": "restaurant", "building": "yes", "name": "\u0412\u0435\u0440\u0441\u0430\u043b\u044c", "name:uk": "\u0412\u0435\u0440\u0441\u0430\u043b\u044c"}}, {"type": "way", "id": 1119997287, "nodes": [10243597028, 10243597044, 10243597029, 10243597030, 10243597031, 10243597032, 10243597043, 10243597033, 10243597034, 10243597035, 10243597042, 10243597036, 10243597037, 10243597038, 10243597045, 10243597039, 10243597040, 10243597041, 10243597028], "tags": {"amenity": "restaurant", "building": "yes", "cuisine": "pizza", "name": "Pizza Mix", "name:uk": "Pizza Mix"}}]}